Location_Name,Location_Type,Blk_No,Address,Postal Code,Full Address,Long,Lat
1 Bishan Medical Clinic,Hospital/Clinic,283,BISHAN STREET 22,570283,BLK 283 BISHAN STREET 22 #01-191 S(570283),103.8448227,1.35883325
1 MEDICAL TECK GHEE,Hospital/Clinic,410,Ang Mo Kio Avenue 10,560410,Blk 410 Ang Mo Kio Avenue 10 #01-837 Teck Ghee Square S(560410),103.8542944,1.36289135
338 FAMILY CLINIC,Hospital/Clinic,338,Ang Mo Kio Ave 1,560338,Blk 338 Ang Mo Kio Ave 1 #01-1615 S(560338),103.8357721,1.3665897
57 MEDICAL CLINIC (GEYLANG BAHRU),Hospital/Clinic,57,Geylang Bahru,330057,Blk 57 Geylang Bahru #01-3505 S(330057),103.8689449,1.32342545
57 Medical Clinic (Yishun),Hospital/Clinic,618,YISHUN RING ROAD,760618,BLK 618 YISHUN RING ROAD #01-3238 S(760618),103.8356085,1.4187472
81 Family Clinic,Hospital/Clinic,86,MARINE PARADE CENTRAL,440086,BLK 86 MARINE PARADE CENTRAL #01-670 S(440086),103.9067278,1.30175385
888 PLAZA FAMILY CLINIC,Hospital/Clinic,888,WOODLANDS DRIVE 50,730888,888 WOODLANDS DRIVE 50 #01-739 888 PLAZA S(730888),103.7952803,1.4377962
A HEALING HEART MEDICAL CLINIC,Hospital/Clinic,134,GEYLANG EAST AVENUE 1,380134,BLK 134 GEYLANG EAST AVENUE 1 #01-227 GEYLANG EAST GROVE S(380134),103.8858366,1.3159569
A Jaga-Me Medical Clinic,Hospital/Clinic,77,AYER RAJAH CRESCENT,139954,77 AYER RAJAH CRESCENT #02-31 S(139954),103.7866197,1.2982158
A Life Clinic Pte Ltd,Hospital/Clinic,10,SINARAN DRIVE,307506,10 SINARAN DRIVE #09-21 NOVENA MEDICAL CENTER S(307506),103.8444396,1.320732
A MEDICAL CLINIC,Hospital/Clinic,1,Everton Park,81001,Blk 1 Everton Park #01-27 Everton Park S(081001),103.8401402,1.27740065
ACACIA MEDICAL CLINIC,Hospital/Clinic,180,Depot Road,109684,"180 Depot Road #01-07 Interlace, The S(109684)",103.8030293,1.2818153
ACCORD MEDICAL CLINIC,Hospital/Clinic,325,UBI AVENUE 1,400325,BLK 325 UBI AVENUE 1 #01-701 S(400325),103.903898,1.3276413
ACUMED MEDICAL GROUP,Hospital/Clinic,1,Joo Koon Circle,629117,1 Joo Koon Circle #01-23 Fairprice Hub S(629117),103.6784809,1.3272083
ACUMED MEDICAL GROUP,Hospital/Clinic,128,Tuas South Avenue 3,637370,128 Tuas South Avenue 3 #01-03 JTC Biomed One @ Tuas Biomedical Park S(637370),103.6264882,1.28902245
ACUMED MEDICAL GROUP,Hospital/Clinic,215C,Compassvale Drive,543215,Blk 215C Compassvale Drive #01-02 S(543215),103.8933546,1.3900673
ACUMED MEDICAL GROUP,Hospital/Clinic,14,Tuas Avenue 1,639499,14 Tuas Avenue 1 #01-05 Jtc Space @ Tuas S(639499),103.6481338,1.3339285
ACUMED MEDICAL GROUP,Hospital/Clinic,24,Raffles Place,48621,24 Raffles Place #02-05 Clifford Centre S(048621),103.8517573,1.2842485
ACUMED MEDICAL GROUP,Hospital/Clinic,1,Jurong West Central 2,648886,1 Jurong West Central 2 #B1A-19E Jurong Point Shopping Centre Jp1 S(648886),103.705254,1.33949635
ACUMED MEDICAL GROUP,Hospital/Clinic,38,Teban Gardens Road,600038,Blk 38 Teban Gardens Road #01-318/319 S(600038),103.7429498,1.3210721
ACUMED MEDICAL GROUP,Hospital/Clinic,111,Woodlands Street 13,730111,Blk 111 Woodlands Street 13 #01-78 S(730111),103.7821937,1.4378404
ACUMED MEDICAL GROUP,Hospital/Clinic,64,Yung Kuang Road,610064,Blk 64 Yung Kuang Road #01-107/111 S(610064),103.7224647,1.3323546
ACUMED MEDICAL GROUP,Hospital/Clinic,71,Pioneer Road,639591,71 Pioneer Road #01-06 Tuas Amenity Centre S(639591),103.6523701,1.317113
ACUMED MEDICAL GROUP,Hospital/Clinic,301,Boon Lay Way,649846,301 Boon Lay Way #01-18/19 Boon Lay Mrt Station S(649846),103.7053262,1.3383092
ACUMED MEDICAL GROUP,Hospital/Clinic,214,Bedok North Street 1,460214,Blk 214 Bedok North Street 1 #01-165 S(460214),103.9325919,1.32584045
ADMIRALTY FAMILY MEDICAL CLINIC,Hospital/Clinic,693,WOODLANDS AVENUE 6,730693,BLK 693 WOODLANDS AVENUE 6 #01-08 S(730693),103.803627,1.4382576
ADVANTAGE MEDICAL CLINIC,Hospital/Clinic,1,FIFTH AVENUE,268802,1 FIFTH AVENUE #03-12 GUTHRIE HOUSE S(268802),103.7957,1.33083
AE MEDICAL CLINIC,Hospital/Clinic,467B,Fernvale Link,792467,Blk 467B Fernvale Link #01-529 S(792467),103.8789947,1.3932594
Aesthetics Plus Medical Clinic,Hospital/Clinic,57,Circular Road,49412,57 Circular Road #02-01 S(049412),103.8492136,1.2859945
Affinity Medical Clinic,Hospital/Clinic,253,SERANGOON CENTRAL DRIVE,550253,BLK 253 SERANGOON CENTRAL DRIVE #01-187 S(550253),103.8708075,1.3540772
AIA ALEXANDRA CLINIC,Hospital/Clinic,371,ALEXANDRA ROAD,159963,371 ALEXANDRA ROAD #01-03 AIA ALEXANDRA S(159963),103.8025877,1.285007319
AIDAN MEDICAL CLINIC,Hospital/Clinic,539,BEDOK NORTH STREET 3,460539,BLK 539 BEDOK NORTH STREET 3 #01-623 S(460539),103.9248334,1.3316124
ALEXANDRA FAMILY CLINIC & SURGERY,Hospital/Clinic,57,Dawson Road,142057,Blk 57 Dawson Road #02-02 S(142057),103.8113068,1.2925348
AMDA INTERNATIONAL PEACE CLINIC,Hospital/Clinic,9,Taman Serasi,257720,9 Taman Serasi #01-11 Botanic Gardens View S(257720),103.8191436,1.3084733
American International Clinic Pte Ltd,Hospital/Clinic,10,SINARAN DRIVE,307506,10 SINARAN DRIVE #10-09/10 NOVENA MEDICAL CENTER S(307506),103.8444396,1.320732
ANTEH DISPENSARY PTE LTD,Hospital/Clinic,1,Lorong 22 Geylang,398664,1 Lorong 22 Geylang #01-02 Grandview Suites S(398664),103.882443,1.3127739
APEX MEDICAL CENTRE (JURONG) PTE LTD,Hospital/Clinic,960,Jurong West St 92,640960,Blk 960 Jurong West St 92 #01-172 S(640960),103.6911995,1.3414323
Appletree Medical Centre,Hospital/Clinic,416,ANG MO KIO AVENUE 10,560416,BLK 416 ANG MO KIO AVENUE 10 #01-997 TECK GHEE HEARTLANDS S(560416),103.8550928,1.36457225
Arcadia Clinic,Hospital/Clinic,2,PANDAN VALLEY,597626,2 PANDAN VALLEY #01-211 S(597626),103.7770536,1.3207096
ARIS MEDICAL CLINIC,Hospital/Clinic,989,Bukit Timah Road,589629,989 Bukit Timah Road Maplewoods S(589629),103.7859717,1.3337253
ASIA FIRST MEDICAL CLINIC,Hospital/Clinic,7,TANJONG PAGAR PLAZA,81007,BLK 7 TANJONG PAGAR PLAZA #02-103 S(081007),103.8432759,1.27698345
ASIA RETINA EYE SURGERY CENTRE,Hospital/Clinic,290,ORCHARD ROAD,238859,290 ORCHARD ROAD #15-10 THE PARAGON S(238859),103.8355203,1.3037371
ASIAMEDIC WELLNESS ASSESSMENT CENTRE,Hospital/Clinic,350,ORCHARD ROAD,238868,350 ORCHARD ROAD #08-00 SHAW HOUSE S(238868),103.8316799,1.3055893
ASSURANCE MEDICARE CLINIC AND SURGERY,Hospital/Clinic,370,Tanjong Katong Road,437127,370 Tanjong Katong Road S(437127),103.896022,1.3058764
ATA Medical,Hospital/Clinic,72,ANSON ROAD,79911,72 ANSON ROAD #01-02 ANSON HOUSE S(079911),103.8444452,1.2738674
Atlas Pacific Medical,Hospital/Clinic,428,RIVER VALLEY ROAD,248327,428 RIVER VALLEY ROAD #01-10 LOFT @ NATHAN S(248327),103.8276511,1.294487543
ATRIO FAMILY CLINIC,Hospital/Clinic,291,YISHUN STREET 22,760291,BLK 291 YISHUN STREET 22 #01-349 S(760291),103.836733,1.435808
ATRIO FAMILY CLINIC (AMK) PTE. LTD.,Hospital/Clinic,532,Ang Mo Kio Avenue 10,560532,Blk 532 Ang Mo Kio Avenue 10 #01-2461 Cheng San Centre  S(560532),103.854314,1.37376775
Babysteps Medical,Hospital/Clinic,25,GHIM MOH LINK,270025,BLK 25 GHIM MOH LINK #01-10 GHIM MOH VALLEY S(270025),103.7858814,1.3080768
BANYAN CLINIC @ JW,Hospital/Clinic,502,JURONG WEST AVENUE 1,640502,BLK 502 JURONG WEST AVENUE 1 #01-817 S(640502),103.7181864,1.3504414
BEDOK CENTRAL CLINIC,Hospital/Clinic,214,Bedok North Street 1,460214,Blk 214 Bedok North Street 1 #01-161 S(460214),103.9325919,1.32584045
BEDOK DAY & NIGHT CLINIC,Hospital/Clinic,418,BEDOK NORTH AVENUE 2,460418,BLK 418 BEDOK NORTH AVENUE 2 #01-85 S(460418),103.9300077,1.3287195
BELIEF FAMILY CLINIC,Hospital/Clinic,541,KALLANG BAHRU,339355,541 KALLANG BAHRU #B1-02 GEYLANG BAHRU MRT STATION S(339355),103.8719017,1.3214845
BEST MED FAMILY CLINIC AND HOME CARE,Hospital/Clinic,126,CANBERRA STREET,750126,BLK 126 CANBERRA STREET #01-04 MULTI STOREY CAR PARK S(750126),103.8343508,1.44604975
BETHESDA MEDICAL CENTRE,Hospital/Clinic,3,Temasek Boulevard,38983,3 Temasek Boulevard #03-330 Suntec City Mall S(038983),103.8598741,1.2951505
BINJAI MEDICAL & PAINCARE CLINIC,Hospital/Clinic,23,BINJAI PARK,589828,23 BINJAI PARK S(589828),103.786913,1.33641495
BISHAN GRACE CLINIC,Hospital/Clinic,150,Bishan Street 11,570150,Blk 150 Bishan Street 11 #01-151 S(570150),103.85577,1.3446789
BLESS MEDICAL CENTRE PTE LTD,Hospital/Clinic,221,Boon Lay Place,640221,Blk 221 Boon Lay Place #01-108 Boon Lay Shopping Centre S(640221),103.7124408,1.3462734
BLISS MEDICAL CLINIC,Hospital/Clinic,65,TELOK BLANGAH DRIVE,100065,BLK 65 TELOK BLANGAH DRIVE #01-158 BLANGAH VIEW S(100065),103.8104559,1.2740669
Blisscare Medical,Hospital/Clinic,10,SINARAN DRIVE,307506,10 SINARAN DRIVE #10-30 Novena Medical Centre S(307506),103.8444396,1.320732
BOON KENG CLINIC & SURGERY,Hospital/Clinic,11,Upper Boon Keng Road,380011,BLK 11 UPPER BOON KENG RD #01-919 S(380011),103.8704826,1.3140474
BOSTON MEDICAL,Hospital/Clinic,119,ALJUNIED AVENUE 2,380119,BLK 119 ALJUNIED AVENUE 2 #01-72 S(380119),103.8866488,1.31955545
BRADDELL MEDICAL CLINIC,Hospital/Clinic,124,Lorong 1 Toa Payoh,310124,Blk 124 Lorong 1 Toa Payoh #01-489 S(310124),103.8444498,1.3386556
BUKIT TIMAH CLINIC,Hospital/Clinic,621A,BUKIT TIMAH ROAD,269731,621A BUKIT TIMAH ROAD S(269731),103.7859717,1.3337253
C K TAN FAMILY CLINIC & SURGERY PTE LTD,Hospital/Clinic,125,TOA PAYOH LOR 1,310125,BLK 125 TOA PAYOH LOR 1 #01-537 S(310125),103.845609,1.3382
C3 Family Clinic @Aljunied Crescent,Hospital/Clinic,95,ALJUNIED CRESCENT,380095,BLK 95 ALJUNIED CRESCENT #01-509 MACPHERSON VIEW S(380095),103.8864608,1.32129935
Calrose Medical Family Clinic,Hospital/Clinic,231A,SUMANG LANE,821231,BLK 231A SUMANG LANE #01-05 MATILDA COURT S(821231),103.8919813,1.40217465
CAMRY MEDICAL CENTRE,Hospital/Clinic,95,Toa Payoh Lorong 4,310095,Blk 95 Toa Payoh Lorong 4 #01-66 S(310095),103.84899,1.338864
CAMTECH LABORATORY,Hospital/Clinic,217,HENDERSON ROAD,159555,217 HENDERSON ROAD #03-08 HENDERSON INDUSTRIAL PARK S(159555),103.8195638,1.2805342
CANBERRA CARE MEDICAL CLINIC,Hospital/Clinic,120,CANBERRA CRESCENT,750120,BLK 120 CANBERRA CRESCENT #01-04 MULTI STOREY CAR PARK S(750120),103.8310112,1.4456364
CARE FAMILY CLINIC,Hospital/Clinic,663,Buffalo Road,210663,Blk 663 Buffalo Road #01-12 S(210663),103.8507725,1.3056405
CareDoc Medical Clinic,Hospital/Clinic,215,ANG MO KIO AVENUE 1,560215,BLK 215 ANG MO KIO AVENUE 1 #01-907 S(560215),103.8416439,1.3665595
CARITAS CLINIC,Hospital/Clinic,304,UBI AVE 1,400304,BLK 304 UBI AVE 1 #01-127 S(400304),103.9015932,1.32969935
CCK family clinic,Hospital/Clinic,304,CHOA CHU KANG AVE 4,680304,BLK 304 CHOA CHU KANG AVE 4 #01-653 S(680304),103.7431768,1.3844886
CENTRAL 24-HR CLINIC (PIONEER NORTH),Hospital/Clinic,959,Jurong West Street 92,640959,Blk 959 Jurong West Street 92 #01-160 S(640959),103.6908263,1.341499
CENTRAL 24-HR CLINIC (BEDOK),Hospital/Clinic,219,Bedok Central,460219,219 Bedok Central #01-124 Multi Storey Car Park S(460219),103.9329989,1.3249188
CENTRAL 24-HR CLINIC (CLEMENTI),Hospital/Clinic,450,Clementi Ave 3,120450,Blk 450 Clementi Ave 3 #01-291 S(120450),103.76546,1.3135362
CENTRAL 24-HR CLINIC (HOUGANG),Hospital/Clinic,681,Hougang Ave 8,530681,681 Hougang Ave 8 #01-831 S(530681),103.886037,1.3729237
CENTRAL 24HR CLINIC (JURONG WEST),Hospital/Clinic,492,Jurong West Street 41,640492,Blk 492 Jurong West Street 41 #01-54 S(640492),103.7252886,1.3498597
CENTRAL 24-HR CLINIC (MARSILING),Hospital/Clinic,303,Woodlands Street 31,730303,Blk 303 Woodlands Street 31 #01-185 S(730303),103.773744,1.4309242
CENTRAL 24-HR CLINIC (PASIR RIS),Hospital/Clinic,446,Pasir Ris Drive 6,510446,Blk 446 Pasir Ris Drive 6 #01-122 S(510446),103.9573384,1.3705542
CENTRAL 24-HR CLINIC (TAMPINES),Hospital/Clinic,201D,Tampines Street 21,524201,Blk 201D Tampines Street 21 #01-1151 S(524201),103.9534923,1.3523302
CENTRAL 24-HR CLINIC (YISHUN),Hospital/Clinic,701A,Yishun Ave 5,761701,701A Yishun Ave 5 #01-04 S(761701),103.8279368,1.4298834
CENTRE FOR KIDNEY DISEASES,Hospital/Clinic,304,ORCHARD ROAD,238863,304 ORCHARD ROAD #05-23 LUCKY PLAZA S(238863),103.8339122,1.3046029
CHAN FAMILY CLINIC,Hospital/Clinic,865,Mountbatten Road,437844,865 Mountbatten Road #02-81H Katong Shopping Centre S(437844),103.9011731,1.30387795
CHANG CLINIC & SURGERY,Hospital/Clinic,7,EVERTON PARK,80007,BLK 7 EVERTON PARK #01-21 S(080007),103.8393468,1.27704765
Changi Clinic,Hospital/Clinic,848,Sims Avenue,400848,BLK 848 Sims Avenue #01-734 Eunosville S(400848),103.9012619,1.3173673
Chest and Internal medicine Clinic,Hospital/Clinic,38,IRRAWADDY ROAD,329563,38 IRRAWADDY ROAD #10-25 Mount Elizabeth Novena Specialist Centre S(329563),103.8442653,1.3220927
CHIA CLINIC AND SURGERY,Hospital/Clinic,27,Foch Road,209264,27 Foch Road #01-04 Hoa Nam Building S(209264),103.8599756,1.3128327
CHIN CHOO CLINIC,Hospital/Clinic,35,Circuit Road,370035,Blk 35 Circuit Road #01-430 S(370035),103.886319,1.328848097
Chinatown Wellness Clinic,Hospital/Clinic,531,UPPER CROSS STREET,50531,531 UPPER CROSS STREET #02-02 HONG LIM COMPLEX S(050531),103.8458715,1.2840556
CHIRON MEDICAL CLINIC,Hospital/Clinic,3,ST. GEORGE'S ROAD,320003,BLK 3 ST. GEORGE'S ROAD #01-95 ST GEORGE'S WEST GARDENS S(320003),103.8612893,1.322617231
CHNG CLINIC AND SURGERY,Hospital/Clinic,178,Toa Payoh Central,310178,Blk 178 Toa Payoh Central #01-236 S(310178),103.8494768,1.3335413
Chua & Partners Family Clinic,Hospital/Clinic,18,Jalan Membina,164018,18 Jalan Membina #02-05 S(164018),103.8268972,1.28554555
CHUA MEDICAL CENTRE PTE LTD,Hospital/Clinic,248,Simei St 3,520248,Blk 248 Simei St 3 #01-134 S(520248),103.9536533,1.3433847
CHUA MEDICAL CLINIC AND SURGERY PTE. LTD.,Hospital/Clinic,642,Bukit Batok Central,650642,Blk 642 Bukit Batok Central #01-52 S(650642),103.751814,1.3489141
CHUAH CLINIC & SURGERY PTE LTD,Hospital/Clinic,113,Aljunied Ave 2,380113,Blk 113 Aljunied Ave 2 #01-19 S(380113),103.8860381,1.3204866
CHUNG & EE MEDICAL CLINIC,Hospital/Clinic,10,Telok Blangah Crescent,90010,Blk 10 Telok Blangah Crescent #01-151 S(090010),103.8197941,1.27762925
CityGP Family Clinic,Hospital/Clinic,122,BEDOK NORTH STREET 2,460122,BLK 122 BEDOK NORTH STREET 2 #01-106 S(460122),103.938031,1.32912845
CityHealth Clinic & Surgery,Hospital/Clinic,152,Beach Road,189721,152 Beach Road #03-08 Gateway East S(189721),103.8593328,1.298898
Clari Health CBD Travel Clinic,Hospital/Clinic,10,ANSON ROAD,79903,10 ANSON ROAD #16-01E INTERNATIONAL PLAZA S(079903),103.8459004,1.275755
Clarion Medical,Hospital/Clinic,202,ANG MO KIO AVENUE 3,560202,202 ANG MO KIO AVENUE 3 #01-1676 ANG MO KIO VIEW S(560202),103.8445155,1.36846115
CLIFFORD DISPENSARY PTE LTD,Hospital/Clinic,350,ORCHARD ROAD,238868,350 ORCHARD ROAD #15-03 SHAW HOUSE S(238868),103.8316799,1.3055893
CLINIC@COSTA,Hospital/Clinic,84,Bayshore Road,469994,84 Bayshore Road #01-35/36 Costa Del Sol S(469994),103.9401308,1.3121738
CLOVER MEDICAL CLINIC PTE LTD,Hospital/Clinic,21,Choa Chu Kang North 6,689578,21 Choa Chu Kang North 6 #01-01 Yew Tee Point S(689578),103.7467482,1.3968643
COMFORT CLINIC & SURGERY,Hospital/Clinic,214,Serangoon Ave 4,550214,Blk 214 Serangoon Ave 4 #01-100 S(550214),103.8713956,1.3565804
Compassvale 297A Medical Clinic,Hospital/Clinic,297A,COMPASSVALE STREET,541297,BLK 297A COMPASSVALE ST #01-36 S(541297),103.9004703,1.3950661
Complete Healthcare International,Hospital/Clinic,350,ORCHARD ROAD,238868,350 ORCHARD ROAD #10-00 SHAW HOUSE S(238868),103.8316799,1.3055893
CORNERSTONE MEDICAL,Hospital/Clinic,29A ,Ghim Moh Link,271029,Blk 29A Ghim Moh Link #01-03 S(271029),103.7847344,1.3085642
CORNERSTONE MEDICAL BIDADARI,Hospital/Clinic,106A,Bidadari Park Drive,341106,Blk 106A Bidadari Park Drive #01-03 S(341106),103.870984,1.33420395
CRAWFURD MEDICAL,Hospital/Clinic,3,Temasek Boulevard,38983,3 Temasek Boulevard #02-482 Suntec City Mall S(038983),103.8598741,1.2951505
CROSSROADS FAMILY CLINIC,Hospital/Clinic,601B,Tampines Avenue 9,522601,Blk 601B Tampines Avenue 9 #01-10 Tampines Greenridges S(522601),103.9375046,1.36085845
CURIE ONCOLOGY,Hospital/Clinic,38,IRRAWADDY ROAD,329563,38 IRRAWADDY ROAD #08-29/30 MOUNT ELIZABETH NOVENA SPECIALIST CENTRE S(329563),103.8442653,1.3220927
CURIE ONCOLOGY (FARRER),Hospital/Clinic,1,FARRER PARK STATION ROAD,217562,1 FARRER PARK STATION ROAD #10-05/06/07 CONNEXION S(217562),103.8542166,1.3130696
DA CLINIC @ ANCHORVALE,Hospital/Clinic,351,Anchorvale Road,540351,Blk 351 Anchorvale Road #01-01 S(540351),103.8870307,1.393146
DA CLINIC @ ANSON,Hospital/Clinic,10,Anson Road,79903,10 Anson Road #01-12 International Plaza S(079903),103.8459004,1.275755
DA CLINIC @ BISHAN,Hospital/Clinic,501,Bishan Street 11,570501,Blk 501 Bishan Street 11 #01-374 S(570501),103.849103,1.348447
DA CLINIC @ BUKIT BATOK,Hospital/Clinic,451,Bukit Batok West Avenue 6,650451,Blk 451 Bukit Batok West Avenue 6 #01-02 S(650451),103.7437581,1.3529769
DA CLINIC @ POTONG PASIR,Hospital/Clinic,51,Upper Serangoon Road,347697,51 Upper Serangoon Road #01-53 The Poiz Centre S(347697),103.8685537,1.331674
DA CLINIC @ TAMAN JURONG,Hospital/Clinic,140,Corporation Drive,610410,Blk 140 Corporation Drive #01-03 S(610410),103.7233984,1.3268447
DAYSPRING MEDICAL CLINIC (TAMPINES),Hospital/Clinic,2,Tampines Central 5,529509,2 Tampines Central 5 #04-09 Century Square S(529509),103.9438195,1.35237745
Dedicare Medical Practice & Surgery @ Hougang,Hospital/Clinic,419,HOUGANG AVENUE 8,530419,BLK 419 HOUGANG AVENUE 8 #01-K1 S(530419),103.895099,1.376044
DOCTORS CLINIC & SURGERY,Hospital/Clinic,305,Woodlands Street 31,730305,Blk 305 Woodlands Street 31 #01-91 S(730305),103.7742618,1.43033675
DOCTORS EXPRESS MEDICAL CLINIC PTE LTD,Hospital/Clinic,24,RAFFLES PLACE,48621,24 RAFFLES PLACE #01-17 CLIFFORD CENTRE S(048621),103.8517573,1.2842485
DOCTORS FOR LIFE MEDICAL,Hospital/Clinic,3,Pickering Street,48660,3 Pickering Street #01-02 Nankin Row S(048660),103.8475695,1.284999
DOCTORS INC MEDICAL GROUP,Hospital/Clinic,178,Toa Payoh Central,310178,Blk 178 Toa Payoh Central #01-206 S(310178),103.8494768,1.3335413
"DOCTORS KOO, LOH & ASSOCIATES (PTE) LTD",Hospital/Clinic,152,YUNG HO RD,610152,BLK 152 YUNG HO RD #B1-03 S(610152),103.7206635,1.3270611
DOVER MEDICAL CENTRE,Hospital/Clinic,1,Fusionopolis Way,138632,1 Fusionopolis Way #03-05 Connexis S(138632),103.787506,1.2994693
DR CHAN PENG MUN CLINIC & SURGERY,Hospital/Clinic,5,KOEK RD,228796,5 KOEK RD #01-22/23/24 CUPPAGE PLAZA S(228796),103.8408854,1.3017546
DR SOH FAMILY CLINIC,Hospital/Clinic,966,JURONG WEST STREET 93,640966,BLK 966 JURONG WEST STREET 93 #01-221 S(640966),103.693105,1.3416751
DR STANLEY PECK FAMILY CLINIC,Hospital/Clinic,636,Bukit Batok Central,650636,Blk 636 Bukit Batok Central #01-06 S(650636),103.7518638,1.34965205
DR W.K. KOO & ASSOCIATES P.L.,Hospital/Clinic,1,JURONG WEST CENTRAL 2,648886,1 JURONG WEST CENTRAL 2 #01-16A&B JURONG POINT S(648886),103.705254,1.33949635
DR.W FAMILY CLINIC,Hospital/Clinic,8,EMPRESS ROAD,260008,8 EMPRESS ROAD #01-09 S(260008),103.8056323,1.3166554
DR+ MEDICAL PAINCARE CLINIC,Hospital/Clinic,988,UPPER SERANGOON ROAD,534733,988 UPPER SERANGOON ROAD #01-07 STARS OF KOVAN S(534733),103.8705004,1.3433118
Drs Bain & Partners,Hospital/Clinic,1,RAFFLES QUAY,48583,1 RAFFLES QUAY #09-03 ONE RAFFLES QUAY - NORTH TOWER S(048583),103.8518895,1.28118375
DRS CHAN & TANG FAMILY CLINIC,Hospital/Clinic,125,LORONG 1 TOA PAYOH,310125,BLK 125 LORONG 1 TOA PAYOH #01-549 S(310125),103.8458161,1.3381296
DRS KOO & NEOH MEDICAL GROUP,Hospital/Clinic,70,WOODLANDS AVENUE 7,738344,70 WOODLANDS AVENUE 7 #01-01 ADMIRALTY MRT STATION S(738344),103.8009592,1.4406369
DRS KOO & NEOH MEDICAL GROUP,Hospital/Clinic,61,CHOA CHU KANG DRIVE,689715,61 CHOA CHU KANG DRIVE #02-01 YEW TEE MRT STATION S(689715),103.7474009,1.3974608
Drs Koo & Neoh Medical Group,Hospital/Clinic,900,SOUTH WOODLANDS DRIVE,730900,900 SOUTH WOODLANDS DRIVE #04-05 WOODLANDS CIVIC CENTRE S(730900),103.7871926,1.4349069
"Drs Koo, Fok & Associates Pte Ltd",Hospital/Clinic,55,BENOI ROAD,629907,55 BENOI ROAD #01-12 S(629907),103.6783931,1.3267444
"DRS SINGH & PARTNERS, RAFFLES CITY MEDICAL CENTRE",Hospital/Clinic,252,North Bridge Rd,179103,252 North Bridge Rd #02-16 Raffles City Shopping Centre S(179103),103.8533428,1.2938961
DRS TANG & PARTNERS PTE. LTD.,Hospital/Clinic,64,Yung Kuang Road,610064,64 Yung Kuang Road #01-115 S(610064),103.7224647,1.3323546
Drs. Bain & Partners,Hospital/Clinic,2,INTERNATIONAL BUSINESS PARK,609930,2 INTERNATIONAL BUSINESS PARK #01-06A/07A THE STRATEGY S(609930),103.7465832,1.3300523
DTAP @ Novena,Hospital/Clinic,10,SINARAN DRIVE,307506,10 SINARAN DRIVE #08-31 NOVENA MEDICAL CENTER S(307506),103.8444396,1.320732
E MEDICAL CLINIC & SURGERY,Hospital/Clinic,126,LORONG 1 TOA PAYOH,310126,BLK 126 LORONG 1 TOA PAYOH #01-567 S(310126),103.8450477,1.3380429
E.J. TAN CLINIC & SURGERY,Hospital/Clinic,104,Jurong East Street 13,600104,Blk 104 Jurong East Street 13 #01-100 Jurong East Ville S(600104),103.7376588,1.336595
EAST COAST FAMILY CLINIC,Hospital/Clinic,121,Meyer Road,437932,121 Meyer Road #01-05 The Makena S(437932),103.8944356,1.2976862
EASTERN MEDICAL CENTRE,Hospital/Clinic,631,BEDOK RESERVOIR ROAD,470631,BLK 631 BEDOK RESERVOIR RD #01-896 S(470631),103.9155399,1.3330859
EC family clinic pte ltd,Hospital/Clinic,30,EUNOS CRESCENT,409423,30 EUNOS CRESCENT #01-17/18 EUNOS MRT STATION S(409423),103.9030726,1.3197538
EDGEDALE MEDICAL CLINIC,Hospital/Clinic,122A,Edgedale Plains,821122,Blk 122A Edgedale Plains #01-187 S(821122),103.9093741,1.3937083
EDGEDALE MEDICAL CLINIC (CAMBRIDGE),Hospital/Clinic,40,Cambridge Road ,210040,Blk 40 Cambridge Road #01-115 S(210040),103.8484806,1.315907103
EE CLINIC,Hospital/Clinic,128,Ang Mo Kio Ave 3 ,560128,128 Ang Mo Kio Ave 3 #01-1859 S(560128),103.8435558,1.3708125
EHA CLINIC @ JURONG,Hospital/Clinic,492,Jurong West Street 41 ,640492,Blk 492 Jurong West Street 41 #01-40 S(640492),103.7252886,1.3498597
EIDDWEN FAMILY MEDICINE CLINIC,Hospital/Clinic,34,Cassia Crescent ,390034,Blk 34 Cassia Crescent #01-80 S(390034),103.884491,1.3096209
EJ FAMILY CLINIC & SURGERY,Hospital/Clinic,109,Toa Payoh Lor 1 ,310109,109 Toa Payoh Lor 1 #01-314 S(310109),103.846364,1.341275
ELISSA MEDICAL CLINIC,Hospital/Clinic,1,Hougang Street 91 ,538692,1 Hougang Street 91 #01-21 Hougang 1 S(538692),103.8795488,1.375571
ESSENTIAL FAMILY CLINIC & SURGERY,Hospital/Clinic,626A,WOODLANDS DR 52 ,731626,BLK 626A WOODLANDS DR 52 #01-01 S(731626),103.7994618,1.4344732
Etern Medical Clinic,Hospital/Clinic,70,PUNGGOL CENTRAL ,828868,BLK 70 PUNGGOL CENTRAL #01-05 PUNGGOL MRT STATION S(828868),103.902368,1.4051559
Etern Medical Clinic (Fernvale Palm),Hospital/Clinic,432A,SENGKANG WEST WAY ,791432,BLK 432A SENGKANG WEST WAY #01-03 S(791432),103.8771028,1.3947743
Etern Medical Clinic (Punggol Sumang LRT),Hospital/Clinic,308C,PUNGGOL WALK ,823308,BLK 308C PUNGGOL WALK #01-302 WATERWAY TERRACES I  S(823308),103.8989485,1.40820745
Etern Medical Clinic (Sengkang),Hospital/Clinic,33,SENGKANG WEST AVENUE ,797653,33 SENGKANG WEST AVENUE #03-33 THE SELETAR MALL S(797653),103.8759844,1.391249
EVERHEALTH FAMILY CLINIC & SURGERY,Hospital/Clinic,4,BUKIT BATOK STREET 41 ,657991,4 BUKIT BATOK STREET 41 #01-88 LE QUEST S(657991),103.7405573,1.3560362
EVERHEALTH MEDICAL CENTRE,Hospital/Clinic,540,Hougang Avenue 8 ,530540,Blk 540 Hougang Avenue 8 #B1-1235 S(530540),103.8798375,1.3692515
Everton Clinic,Hospital/Clinic,7,EVERTON PARK ,80007,BLK 7 EVERTON PARK #01-17 S(080007),103.8393468,1.27704765
EXCEL FAMILY CLINIC,Hospital/Clinic,21,HOUGANG ST 51 ,538719,21 HOUGANG ST 51 #01-06 HOUGANG GREEN SHOPPING MALL S(538719),103.88795,1.3794345
FAIRCARE FAMILY CLINIC (CLEMENTI),Hospital/Clinic,345,CLEMENTI AVENUE 5 ,120345,BLK 345 CLEMENTI AVENUE 5 #01-94 S(120345),103.7693303,1.3175955
FAITH CLINIC (BEDOK),Hospital/Clinic,746,BEDOK RESERVOIR ROAD ,470746,BLK 746 BEDOK RESERVOIR ROAD #01-3013 S(470746),103.9211539,1.3373016
FAITH CLINIC (JURONG WEST),Hospital/Clinic,762,Jurong West St 75 ,640762,Blk 762 Jurong West St 75 #02-256D S(640762),103.6976457,1.3486942
FAITH CLINIC (SIMEI),Hospital/Clinic,139,Simei St 1 ,520139,Blk 139 Simei St 1 #01-10 S(520139),103.9564591,1.34687075
FAITH CLINIC (TOA PAYOH),Hospital/Clinic,211,Toa Payoh Lor 8 ,310211,Blk 211 Toa Payoh Lor 8 #01-19 S(310211),103.853772,1.340425
FAITH CLINIC (YISHUN),Hospital/Clinic,598,Yishun Ring Road ,768698,Blk 598 Yishun Ring Road #01-11 Wisteria Mall S(768698),103.8410061,1.4180875
FAITH FAMILY CLINIC,Hospital/Clinic,57,Marine Terrace ,440057,57 Marine Terrace #01-113 S(440057),103.9152737,1.3062798
FAITH HEALTHCARE (TAMPINES),Hospital/Clinic,11,Tampines Street 32 ,529287,11 Tampines Street 32 #01-11 Tampines Mart S(529287),103.955154,1.3537849
FAITH HEALTHCARE RIVERVALE,Hospital/Clinic,11,RIVERVALE CRESCENT ,545082,11 RIVERVALE CRESCENT #02-15 RIVERVALE MALL S(545082),103.904213,1.3923199
FAMILY CARE CLINIC PTE LTD,Hospital/Clinic,415,Bukit Batok West Ave 4 ,650415,Blk 415 Bt Batok West Ave 4 #01-272 S(650415),103.7466279,1.36323895
FAMILY HEALTH CLINIC & SURGERY,Hospital/Clinic,2,Balestier Road ,320002,Blk 2 Balestier Road #01-651 Balestier Hill Shopping Centre S(320002),103.8422163,1.3259929
FAMILY MEDICARE CLINIC & SURGERY,Hospital/Clinic,721,Ang Mo Kio Ave 8 ,560721,Blk 721 Ang Mo Kio Ave 8 #01-2815 S(560721),103.8478916,1.3723624
Family Medicine Clinic Chinatown,Hospital/Clinic,133,NEW BRIDGE ROAD ,59413,133 NEW BRIDGE ROAD #02-09 CHINATOWN POINT S(059413),103.8449052,1.28519745
FAMILYCARE CLINIC & SURGERY,Hospital/Clinic,85C ,TOA PAYOH LOR 4 ,313085,BLK 85C TOA PAYOH LOR 4 #01-380 S(313085),103.847466,1.336321
FARRER PARK HOSPITAL,Hospital/Clinic,1,"Farrer Park Station Road, ",217562,"1 Farrer Park Station Road, #02-01 Connexion, Singapore 217562)",103.8542166,1.3130696
FEMA Clinic & Surgery,Hospital/Clinic,10,SINARAN DRIVE ,307506,10 SINARAN DRIVE #09-32 NOVENA MEDICAL CENTER S(307506),103.8444396,1.320732
FINEST HEALTH MEDICAL CENTRE (TPY) PTE. LTD.,Hospital/Clinic,19,LORONG 7 TOA PAYOH ,310019,19 LORONG 7 TOA PAYOH #01-268 KIM KEAT PALM S(310019),103.8565236,1.33521525
FIRST CARE FAMILY CLINIC & SURGERY PTE LTD,Hospital/Clinic,253,JURONG EAST ST 24 ,600253,253 JURONG EAST ST 24 #01-257 S(600253),103.7372,1.3435127
Foo and Ong Family Clinic Pte Ltd,Hospital/Clinic,151,BUKIT BATOK ST 11 ,650151,BLK 151 BUKIT BATOK ST 11 #01-256 S(650151),103.744257,1.34871575
fraser medical centre,Hospital/Clinic,78A ,TELOK BLANGAH ST 32 ,101078,BLK 78A TELOK BLANGAH ST 32 #01-07 S(101078),103.8085646,1.2736185
Frontier Family Medicine Clinic,Hospital/Clinic,3151,COMMONWEALTH AVENUE WEST ,129581,3151 COMMONWEALTH AVENUE WEST #04-01 CITYVIBE S(129581),103.7651345,1.3142939
FRONTIER MEDICAL ASSOCIATES,Hospital/Clinic,440,BUKIT BATOK WEST AVENUE 8 ,650440,BLK 440 BUKIT BATOK WEST AVENUE 8 #01-05 S(650440),103.7392341,1.3555088
FRONTIER MEDICAL ASSOCIATES,Hospital/Clinic,451,BUKIT BATOK WEST AVE 6 ,650451,BLK 451 BUKIT BATOK WEST AVE 6 #01-07 S(650451),103.7437581,1.3529769
Frontier Medical Associates,Hospital/Clinic,982,BUANGKOK CRESCENT ,530982,BLK 982 BUANGKOK CRESCENT #01-03 S(530982),103.8792312,1.3809089
FRONTIER MEDICAL ASSOCIATES,Hospital/Clinic,899C,WOODLANDS DR 50 ,732899,BLK 899C WOODLANDS DR 50 #01-296 S(732899),103.7951989,1.43655465
FRONTIER MEDICAL ASSOCIATES,Hospital/Clinic,105,CANBERRA STREET ,750105,105 CANBERRA STREET #01-11 S(750105),103.8323549,1.4489117
Frontier Medical Associates,Hospital/Clinic,691,WOODLANDS DRIVE 73 ,730691,BLK 691 WOODLANDS DRIVE 73 #01-04 S(730691),103.806297,1.4404745
Frontier People's Clinic,Hospital/Clinic,123,BEDOK NORTH STREET 2 ,460123,BLK 123 BEDOK NORTH STREET 2 #01-152 S(460123),103.9373558,1.32918895
FULLERTON HEALTH @ AMS,Hospital/Clinic,7000,ANG MO KIO AVENUE 5 ,569877,7000 ANG MO KIO AVENUE 5 #01-00 S(569877),103.8728544,1.3781654
FULLERTON HEALTH @ DRS TRYTHALL HOY DAVIES,Hospital/Clinic,391B,Orchard Road ,238874,391B Orchard Road #25-01/07/08 Ngee Ann City Tower B S(238874),151.1901528,-33.9171709
FULLERTON HEALTH @ GLOBALFOUNDRIES,Hospital/Clinic,60,WOODLANDS IND PARK D ST 2 ,738406,60 WOODLANDS IND PARK D ST 2 #03-00 FAB 7 GLOBALFOUNDRIES S(738406),103.7650589,1.4334279
FULLERTON HEALTH @ LUMILEDS,Hospital/Clinic,190,YISHUN AVENUE 7,768925,190 YISHUN AVENUE 7 S(768925),103.83615,1.4407365
FULLERTON HEALTH @ MICRON FAB10N,Hospital/Clinic,1,NORTH COAST DRIVE,757432,1 NORTH COAST DRIVE S(757432),103.7925443,1.4539568
FULLERTON HEALTH @ MICRON FAB10W,Hospital/Clinic,1,"Woodlands Industrial Park D, Street 1",738799,"1 Woodlands Industrial Park D, Street 1 Singapore 738799)",103.766234,1.430285
FULLERTON HEALTH @ MICRON MSB,Hospital/Clinic,990,BENDEMEER ROAD,339942,990 BENDEMEER ROAD MICRON BUILDING S(339942),103.8643983,1.3186767
FULLERTON HEALTH @ NTU,Hospital/Clinic,36,Nanyang Avenue ,639801,36 Nanyang Avenue #01-01/02 Nanyang Technological University S(639801),103.6826552,1.34536705
FULLERTON HEALTH @ OFC,Hospital/Clinic,10,Collyer Quay ,49315,10 Collyer Quay #03-08/09 Ocean Financial Centre S(049315),103.8519489,1.2831049
FULLERTON HEALTH @ PASIR PANJANG,Hospital/Clinic,3,HARBOUR DRIVE,117404,"3 HARBOUR DRIVE, GROUND LEVEL Pasir Panjang Terminal Building 3 S(117404)",103.7911068,1.275074591
FULLERTON HEALTH @ STATS CHIPPAC,Hospital/Clinic,5,YISHUN STREET 24,768442,5 YISHUN STREET 23 S(768442),103.83588,1.4149596
FULLERTON HEALTH @ TRACTORS,Hospital/Clinic,26,BENOI SECTOR,629858,26 BENOI SECTOR S(629858),103.6899141,1.3161125
Fullerton Health @ UBS,Hospital/Clinic,1,RAFFLES QUAY ,48583,1 RAFFLES QUAY #45-00 S(048583),103.8518895,1.28118375
FULLERTON HEALTH @ USG 1,Hospital/Clinic,5,SERANGOON NORTH AVENUE 5,554916,"5 SERANGOON NORTH AVENUE 5 Level 1, United Test & Assembly Center Ltd S(554916)",103.8676244,1.37398445
FULLERTON HEALTHCARE @ ARC,Hospital/Clinic,460,Alexandra Road ,119963,460 Alexandra Road #02-18 S(119963),103.8012186,1.2737212
FULLERTON HEALTHCARE @ BAT,Hospital/Clinic,15,SENOKO LOOP,758168,"15 SENOKO LOOP, GROUND FLOOR S(758168)",103.8029374,1.45927155
FULLERTON HEALTHCARE @ DRS TRYTHALL HOY DAVIES,Hospital/Clinic,1,Jurong West Central 2 ,648886,1 Jurong West Central 2 #B1A-19B Jurong Point Shopping Centre S(648886),103.705254,1.33949635
FULLERTON HEALTHCARE @ GETHIN-JONES,Hospital/Clinic,78,Shenton Way ,79120,78 Shenton Way #04-01 S(079120),103.8448993,1.273047
FULLERTON HEALTHCARE @ MBFC,Hospital/Clinic,10,Marina Boulevard ,18981,10 Marina Boulevard #01-03/03A Tower 2 Marina Bay Financial Centre S(018981),103.8538296,1.27958235
FULLERTON HEALTHCARE @ METROPOLIS,Hospital/Clinic,9,North Buona Vista Drive ,138588,Blk 9 North Buona Vista Drive #01-03 The Metropolis S(138588),103.7912853,1.3059607
FULLERTON HEALTHCARE @ OFS,Hospital/Clinic,81,PASIR RIS HEIGHTS ,519292,81 PASIR RIS HEIGHTS #A01-03 OVERSEAS FAMILY SCHOOL S(519292),103.9438781,1.3802812
FUSION MEDICAL & HEALTH SCREENING CENTRE,Hospital/Clinic,1,Fusionopolis Link ,138542,1 Fusionopolis Link #01-05 Nexus @One-North S(138542),103.7896193,1.29925155
FUSION MEDICAL HEALTH SCREENING & AESTHETIC,Hospital/Clinic,501,ORCHARD ROAD ,238880,501 ORCHARD ROAD #04-11 WHEELOCK PLACE S(238880),103.8306003,1.3046691
GARDEN CLINIC,Hospital/Clinic,304,Serangoon Ave 2 ,550304,Blk 304 Serangoon Ave 2 #01-04 S(550304),103.8677127,1.3541097
GETHIN -JONES MEDICAL PRACTICE PTE LTD,Hospital/Clinic,205,Braddell Road,579701,205 Braddell Road S(579701),103.8437054,1.3440297
GLENEAGLES HOSPITAL,Hospital/Clinic,6A ,Napier Road,258500,6A Napier Road S(258500),103.819861,1.307404684
GOOD SHEPHERD FAMILY CLINIC,Hospital/Clinic,9,JALAN KUKOH ,160009,BLK 9 JALAN KUKOH #01-81 CHIN SWEE VIEW S(160009),103.8388778,1.2876285
GREEN CROSS MEDICAL CENTRE,Hospital/Clinic,824,TAMPINES Street 81 ,520824,BLK 824 TAMPINES ST 81 #01-30 S(520824),103.9323126,1.3494714
GREENFOREST FAMILY CLINIC,Hospital/Clinic,878C,TAMPINES AVENUE 8 ,523878,BLK 878C TAMPINES AVENUE 8 #01-71 S(523878),103.9293519,1.3511158
GREENLINK MEDICAL CLINIC,Hospital/Clinic,807,YISHUN RING ROAD ,760807,BLK 807 YISHUN RING ROAD #01-4213 S(760807),103.8363879,1.4171855
Heal Medical Centre,Hospital/Clinic,262,BALESTIER ROAD ,329714,262 BALESTIER ROAD #04-01/02 OKIO S(329714),103.8530298,1.3219824
HEALTH FIRST FAMILY CLINIC,Hospital/Clinic,26,Jalan Membina ,161026,Blk 26 Jalan Membina #01-06 Multi Storey Car Park S(161026),103.825695,1.2825856
HEALTH OUTREACH CLINIC,Hospital/Clinic,545,ORCHARD ROAD ,238882,545 ORCHARD ROAD #B1-01/02 FAR EAST SHOPPING CENTRE S(238882),103.8300409,1.3055825
HEALTH PARTNERS MEDICAL CLINIC,Hospital/Clinic,100,CECIL STREET ,69532,100 CECIL STREET #09-01 THE GLOBE S(069532),103.8489651,1.2811624
HEALTH PARTNERSHIP MEDICAL CENTRE,Hospital/Clinic,109,Bukit Purmei Rd ,90109,Blk 109 Bukit Purmei Rd #01-145 S(090109),103.8253393,1.27388335
HEALTHCARE FAMILY CLINIC & SURGERY,Hospital/Clinic,403,SIN MING AVE ,570403,BLK 403 SIN MING AVE #01-311 S(570403),103.833117,1.36283175
Healthcare Medical @ Kovan,Hospital/Clinic,208,HOUGANG STREET 21 ,530208,BLK 208 HOUGANG STREET 21 #01-205 S(530208),103.8865443,1.35866275
HEALTHIFY MEDICAL FAMILY CLINIC,Hospital/Clinic,262,Balestier Road ,329714,262 Balestier Road #01-04 Okio S(329714),103.8530298,1.3219824
HEALTHLIFE FAMILY CLINIC,Hospital/Clinic,296A,BUKIT BATOK STREET 22 ,651296,BLK 296A BUKIT BATOK STREET 22 #01-64 SKYLINE II @ BUKIT BATOK S(651296),103.7465795,1.3442662
HEALTHLINK MEDICAL CLINIC & SURGERY,Hospital/Clinic,5,Upper Aljunied Lane ,360005,Blk 5 Upper Aljunied Lane #01-46 S(360005),103.8799367,1.3337309
HEALTHMARK CLINIC (PASIR RIS),Hospital/Clinic,735,Pasir Ris Street 72 ,510735,Blk 735 Pasir Ris Street 72 #01-314 Pasir Ris West Plaza  S(510735),103.9361678,1.3792579
HEALTHMARK FAMILY CLINIC (COMPASSVALE),Hospital/Clinic,263,Compassvale Street ,540263,263 Compassvale Street #01-02/03 S(540263),103.8959287,1.3952215
Healthmark Family Clinic (Sims),Hospital/Clinic,48,SIMS PLACE ,380048,BLK 48 SIMS PLACE #1-167 SIMS VISTA S(380048),103.8794436,1.3177712
HEALTHMARK MEDICAL CLINIC,Hospital/Clinic,639,Punggol Drive ,820639,Blk 639 Punggol Drive #01-06 S(820639),103.9161651,1.3994303
HEALTHMARK PIONEER MALL CLINIC,Hospital/Clinic,638,Jurong West Street 61 ,640638,638 Jurong West Street 61 #02-08 Pioneer Mall S(640638),103.6971606,1.34169785
HealthMatters - The Family Practice,Hospital/Clinic,1,Pasir Ris Close,519599,"1 Pasir Ris Close, #02-309/310 Downtown East S(519599)",103.9544137,1.37809395
HEALTHPLUS CLINIC & SURGERY,Hospital/Clinic,631,BEDOK RESERVOIR ROAD ,470631,631 BEDOK RESERVOIR ROAD #01-898 S(470631),103.9155399,1.3330859
HEALTHPLUS FAMILY CLINIC & SURGERY,Hospital/Clinic,78A ,TELOK BLANGAH ST 32 ,101078,BLK 78A TELOK BLANGAH ST 32 #01-02 S(101078),103.8085646,1.2736185
HEALTHSPRINGS MEDICAL & LASER CLINIC,Hospital/Clinic,105A,Bidadari Park Drive ,341105,Blk 105A Bidadari Park Drive #01-09 S(341105),103.8704446,1.33400425
HEALTHSPRINGS MEDICAL ASSOCIATES,Hospital/Clinic,541,Orchard Rd ,238881,541 Orchard Rd #10-02 Liat Towers S(238881),103.8310193,1.3051271
HEALTHSPRINGS MEDICAL CLINIC,Hospital/Clinic,524A,Jelapang Road ,671524,524A Jelapang Road #02-01/02 Greenridge Shopping Centre S(671524),103.7659763,1.3851709
Healthway Japanese Medical,Hospital/Clinic,176,ORCHARD ROAD ,238843,176 ORCHARD ROAD #06-05 THE CENTREPOINT S(238843),103.8397127,1.3018345
HEALTHWAY MEDICAL,Hospital/Clinic,748,Yishun Street 72 ,760748,Blk 748 Yishun Street 72 #01-230 S(760748),103.8334263,1.42747095
HEALTHWAY MEDICAL,Hospital/Clinic,446,Bukit Batok West Avenue 8 ,650446,Blk 446 Bukit Batok West Avenue 8 #01-03 S(650446),103.7390936,1.3501915
HEALTHWAY MEDICAL,Hospital/Clinic,705,Serangoon Road ,328127,705 Serangoon Road #01-06 Kwong Wai Shiu Hospital S(328127),103.8516888,1.3063655
HEALTHWAY MEDICAL,Hospital/Clinic,110,Lengkong Tiga ,410110,Blk 110 Lengkong Tiga #01-231 S(410110),103.9108762,1.3236788
HEALTHWAY MEDICAL,Hospital/Clinic,330,Ang Mo Kio Ave 1 ,560330,Blk 330 Ang Mo Kio Ave 1 #01-1803 S(560330),103.8510462,1.36244185
HEALTHWAY MEDICAL,Hospital/Clinic,153,Bukit Batok St 11 ,650153,Blk 153 Bukit Batok St 11 #01-284 S(650153),103.7442599,1.347451
HEALTHWAY MEDICAL,Hospital/Clinic,218,Bedok North St 1 ,460218,218 Bedok North St 1 #01-17 S(460218),103.9337867,1.3273451
HEALTHWAY MEDICAL,Hospital/Clinic,267,Compassvale Link ,540267,Blk 267 Compassvale Link #01-04 S(540267),103.8970773,1.3835401
HEALTHWAY MEDICAL,Hospital/Clinic,168,Punggol Field ,820168,168 Punggol Field #02-07A S(820168),103.9133144,1.39412
HEALTHWAY MEDICAL,Hospital/Clinic,90,Hougang Avenue 10 ,538766,90 Hougang Avenue 10 #04-06 Hougang Mall S(538766),103.8937879,1.3725735
HEALTHWAY MEDICAL,Hospital/Clinic,10,Sinaran Drive ,307506,10 Sinaran Drive #09-36 Novena Medical Center S(307506),103.8444396,1.320732
HEALTHWAY MEDICAL,Hospital/Clinic,6A ,Shenton Way ,68815,6A Shenton Way #02-15 Downtown Gallery S(068815),103.8486231,1.2772792
HEALTHWAY MEDICAL,Hospital/Clinic,308,Anchorvale Road ,540308,Blk 308 Anchorvale Road #01-03 Multi Storey Car Park S(540308),103.8864745,1.3895716
HEALTHWAY MEDICAL,Hospital/Clinic,625,Elias Road ,510625,Blk 625 Elias Rd #01-322 Elias Mall S(510625),103.9421553,1.3786288
HEALTHWAY MEDICAL,Hospital/Clinic,721,Ang Mo Kio Ave 8 ,560721,Blk 721 Ang Mo Kio Ave 8 #01-2801 S(560721),103.8478916,1.3723624
HEALTHWAY MEDICAL,Hospital/Clinic,445,Fajar Road ,670445,Blk 445 Fajar Road #02-534 Fajar Shopping Centre S(670445),103.7705042,1.38399
HEALTHWAY MEDICAL,Hospital/Clinic,710,Tampines St 71 ,520710,Blk 710 Tampines St 71 #01-134 S(520710),103.9377437,1.3586385
HEALTHWAY MEDICAL,Hospital/Clinic,452,Ang Mo Kio Ave 10 ,560452,Blk 452 Ang Mo Kio Ave 10 #01-1787 S(560452),103.8564487,1.36882995
HEALTHWAY MEDICAL,Hospital/Clinic,101,Towner Road ,322101,Blk 101 Towner Road #01-236 S(322101),103.860798,1.3190441
HEALTHWAY MEDICAL,Hospital/Clinic,888,Woodlands Dr 50 ,730888,888 Woodlands Dr 50 #02-737 888 Plaza S(730888),103.7952803,1.4377962
HEALTHWAY MEDICAL,Hospital/Clinic,534,Choa Chu Kang St 51 ,680534,Blk 534 Choa Chu Kang St 51 #01-37 Limbang Shopping Centre S(680534),103.742431,1.389497
HEALTHWAY MEDICAL,Hospital/Clinic,101,Yishun Avenue 5 ,760101,Blk 101 Yishun Avenue 5 #01-15 S(760101),103.8272182,1.4305988
HEALTHWAY MEDICAL,Hospital/Clinic,475,Choa Chu Kang Ave 3 ,680475,Blk 475 Choa Chu Kang Ave 3 #02-03 Sunshine Place S(680475),103.7386492,1.37776945
HEALTHWAY MEDICAL,Hospital/Clinic,727,Clementi West Street 2 ,120727,BLK 727 Clementi West Street 2 #01-258 S(120727),103.7634099,1.3042998
HEALTHWAY MEDICAL,Hospital/Clinic,3,GATEWAY DRIVE ,608532,3 GATEWAY DRIVE #04-32 WESTGATE S(608532),103.7428671,1.334194
HEALTHWAY MEDICAL,Hospital/Clinic,690,JURONG WEST CENTRAL 1 ,640690,BLK 690 JURONG WEST CENTRAL 1 #01-193 S(640690),103.7068471,1.3411979
HEALTHWAY MEDICAL,Hospital/Clinic,118,RIVERVALE DRIVE ,540118,BLK 118 RIVERVALE DRIVE #02-17 RIVERVALE PLAZA S(540118),103.9016408,1.38522125
Healthway Medical,Hospital/Clinic,108,HOUGANG AVE 1 ,530108,BLK 108 HOUGANG AVE 1 #01-1299 S(530108),103.889691,1.353049
HEALTHWAY MEDICAL,Hospital/Clinic,406,SEMBAWANG DRIVE ,750406,BLK 406 SEMBAWANG DR #01-820 S(750406),103.8166963,1.4530992
Healthway Medical,Hospital/Clinic,503,Tampines Central 1 ,520503,BLK 503 Tampines Central 1 #01-311 S(520503),103.9452005,1.35592875
Healthway Medical,Hospital/Clinic,177,Toa Payoh Central ,310177,BLK 177 Toa Payoh Central #01-130 S(310177),103.8480824,1.333942
Healthway Medical,Hospital/Clinic,461,YISHUN AVENUE 6 ,760461,BLK 461 YISHUN AVENUE 6 #01-05 S(760461),103.8500035,1.4288283
HEALTHWAY MEDICAL,Hospital/Clinic,201D,TAMPINES STREET 21 ,524201,BLK 201D TAMPINES STREET 21 #01-1143 S(524201),103.9534923,1.3523302
HEALTHWAY MEDICAL,Hospital/Clinic,30,SEMBAWANG DRIVE ,757713,30 SEMBAWANG DRIVE #03-20 SUN PLAZA S(757713),103.8194642,1.4483136
Healthwerkz Medical Centre,Hospital/Clinic,355,sembawang way ,750355,BLK 355 sembawang way #01-02 S(750355),103.8186834,1.44954385
HEALTHWERKZ MEDICAL CENTRE @ CCK,Hospital/Clinic,225,CHOA CHU KANG CENTRAL ,680225,BLK 225 CHOA CHU KANG CENTRAL #01-199 S(680225),103.7448832,1.381109
HEALTHWERKZ MEDICAL CENTRE @ ORCHARD,Hospital/Clinic,9,Scotts Road ,228210,9 Scotts Road #11-02 Pacific Plaza S(228210),103.8324156,1.3064544
Heartland Family Clinic,Hospital/Clinic,333C,YISHUN STREET 31 ,763333,BLK 333C YISHUN STREET 31 #01-167 S(763333),103.8457964,1.4318961
HEARTLANDHEALTH,Hospital/Clinic,730,Tampines Street 71 ,520730,Blk 730 Tampines Street 71 #01-51 Tampines Courtview S(520730),103.9334812,1.3566578
HEARTLANDHEALTH,Hospital/Clinic,114,Jurong East Street 13 ,600114,Blk 114 Jurong East Street 13 #01-406 Jurong East Ville S(600114),103.7346481,1.3393061
HEARTLANDHEALTH,Hospital/Clinic,66,Lorong 4 Toa Payoh ,310066,Blk 66 Lorong 4 Toa Payoh #01-315 Toa Payoh Vista S(310066),103.851787,1.3350496
HEARTLANDHEALTH,Hospital/Clinic,86,Redhill Close ,150086,Blk 86 Redhill Close #01-600 S(150086),103.8186744,1.286938214
HEARTLANDHEALTH,Hospital/Clinic,164,Bukit Batok Street 11 ,650164,Blk 164 Bukit Batok Street 11 #01-152 S(650164),103.7433288,1.34793445
HEARTLANDHEALTH,Hospital/Clinic,88,Circuit Road ,370088,Blk 88 Circuit Road #01-965 Macpherson Oasis S(370088),103.8858711,1.323546527
HEARTLANDHEALTH,Hospital/Clinic,463,Jurong West Street 41 ,640463,Blk 463 Jurong West Street 41 #01-564 S(640463),103.7229812,1.3505812
HEARTLANDHEALTH,Hospital/Clinic,18,Bedok South Road ,460018,Blk 18 Bedok South Road #01-69 S(460018),103.9347959,1.3205587
HEARTLANDHEALTH,Hospital/Clinic,19,Lorong 7 Toa Payoh ,310019,Blk 19 Lorong 7 Toa Payoh #01-272 Kim Keat Palm S(310019),103.8565236,1.33521525
HEARTLANDHEALTH,Hospital/Clinic,59,New Upper Changi Road ,461059,Blk 59 New Upper Changi Road #01-1268 S(461059),103.9406339,1.32398215
HEARTLANDHEALTH,Hospital/Clinic,87,Whampoa Drive ,320087,Blk 87 Whampoa Drive #01-869 S(320087),103.855695,1.323225
HELIX AESTHETICS AND MEDICAL CLINIC,Hospital/Clinic,160,Robinson Road ,68914,160 Robinson Road #03-04 Singapore Business Federation Center S(068914),103.8477754,1.278156
Hisemainn Medical Clinic (Bukit Batok),Hospital/Clinic,289E,BUKIT BATOK Street 25 ,654289,BLK 289E BUKIT BATOK ST 25 #01-160 S(654289),103.758983,1.34402605
Hisemainn Medical Clinic (Jurong West),Hospital/Clinic,276,JURONG WEST Street 25 ,640276,BLK 276 JURONG WEST ST 25 #01-06 S(640276),103.7040322,1.3536024
HK FAMILY CLINIC & SURGERY PTE LTD,Hospital/Clinic,410,Ang Mo Kio Ave 10 ,560410,Blk 410 Ang Mo Kio Ave 10 #01-817 S(560410),103.8542944,1.36289135
HL CLINIC PTE LTD,Hospital/Clinic,9,Telok Blangah Crescent ,90009,Blk 9 Telok Blangah Crescent #01-135 S(090009),103.8194098,1.2774185
HL FAMILY CLINIC & SURGERY PTE LTD,Hospital/Clinic,111,JALAN BUKIT MERAH ,160111,BLK 111 JALAN BUKIT MERAH #01-1704 S(160111),103.8261816,1.28032
HL FAMILY CLINIC & SURGERY(BEDOK) PTE LTD,Hospital/Clinic,89,Bedok North Street 4 ,460089,Blk 89 Bedok North Street 4 #01-83 S(460089),103.9382518,1.3329912
HO MEDICAL CENTRE PTE LTD,Hospital/Clinic,352,Clementi Avenue 2 ,120352,Blk 352 Clementi Avenue 2 #01-115 S(120352),103.7711263,1.3150492
HO MEDICAL CLINIC,Hospital/Clinic,101,Upper Cross Street,58357,101 Upper Cross St #03-09 People'S Park Ctr S(058357),103.8441611,1.2859065
Holistic Care Family Clinic,Hospital/Clinic,455,SENGKANG WEST AVENUE ,790455,BLK 455 SENGKANG WEST AVENUE #01-10 MULTI STOREY CAR PARK S(790455),103.871457,1.3918936
HORIZON MEDICAL CENTRE,Hospital/Clinic,200,Upper Thomson Road ,574424,200 Upper Thomson Road #01-11 Thomson Imperial Court S(574424),103.8360699,1.3518705
Huang Surgery Private Limited,Hospital/Clinic,491B,RIVER VALLEY ROAD ,248373,491B RIVER VALLEY ROAD #03-03A VALLEY POINT OFFICE TOWER S(248373),103.834147,1.2961099
Hui Clinic & Surgery,Hospital/Clinic,157,ANG MO KIO AVE 4 ,560157,BLK 157 ANG MO KIO AVE 4 #01-566 S(560157),103.8389792,1.3751265
I Medical & Aesthetics Pte Ltd,Hospital/Clinic,1,NORTHPOINT DRIVE ,768019,1 NORTHPOINT DRIVE #B1-176 NORTHPOINT CITY S(768019),103.8357252,1.429297761
ICARE MEDICAL AND WELLNESS CLINIC,Hospital/Clinic,22,Havelock Road ,160022,Blk 22 Havelock Road #01-701 S(160022),103.8288455,1.2887251
ICON MEDICAL CLINIC,Hospital/Clinic,517,JURONG WEST Street 52 ,640517,BLK 517 JURONG WEST ST 52 #01-101 S(640517),103.7194569,1.3454394
ID Consult: Specialist Clinic for Infectious Diseases & Travel Health,Hospital/Clinic,3,MOUNT ELIZABETH ,228510,3 MOUNT ELIZABETH #06-01/02 MOUNT ELIZABETH MEDICAL CENTRE S(228510),103.83555,1.30544
IDOC CLINIC,Hospital/Clinic,21,HOUGANG STREET 51 ,538719,21 HOUGANG STREET 51 #01-43 HOUGANG GREEN SHOPPING MALL S(538719),103.88795,1.3794345
IDOC CLINIC (HONG KAH) PTE LTD,Hospital/Clinic,502,JURONG WEST AVENUE 1 ,13 HON,BLK 502 JURONG WEST AVENUE 1 #01-813 HON,103.7181864,1.3504414
INFECTIOUS DISEASE SPECIALISTS,Hospital/Clinic,6,NAPIER Road ,258499,6 NAPIER RD #05-13 GLENEAGLES MEDICAL CENTRE S(258499),103.8198624,1.3072415
Integrated Wellness Pte Ltd,Hospital/Clinic,8,SINARAN DRIVE ,307470,8 SINARAN DRIVE #05-04 NOVENA SPECIALIST CENTER S(307470),103.8447824,1.3200301
INTEMEDICAL (KOVAN),Hospital/Clinic,210,Hougang Street 21 ,530210,Blk 210 Hougang Street 21 #01-233 S(530210),103.8871897,1.35900395
INTEMEDICAL 24 HOUR CLINIC,Hospital/Clinic,525,Ang Mo Kio Avenue 10 ,560525,Blk 525 Ang Mo Kio Avenue 10 #01-2407 Cheng San Centre S(560525),103.8538715,1.3726391
INTEMEDICAL POTONG PASIR,Hospital/Clinic,51,UPPER SERANGOON ROAD ,347697,51 UPPER SERANGOON ROAD #01-29 THE POIZ CENTRE S(347697),103.8685537,1.331674
INTERNATIONAL MEDICAL CLINIC,Hospital/Clinic,1,Orchard Boulevard ,248649,1 Orchard Boulevard #14- 01/02/03/04/05/06/07 Camden Medical Centre S(248649),103.8238735,1.30313575
INTERNATIONAL MEDICAL CLINIC,Hospital/Clinic,293,Holland Road,278628,293 Holland Rd #02-03/04 Cold Storage Jelita S(278628),103.7859561,1.3176941
INTERNATIONAL MEDICAL CLINIC,Hospital/Clinic,88,East Coast Road ,423371,88 East Coast Road #02-07 Katong Square S(423371),103.9048008,1.30470365
ISLAND FAMILY CLINIC (ANCHORVALE),Hospital/Clinic,338,ANCHORVALE CRESCENT ,540338,338 ANCHORVALE CRESCENT #01-02 S(540338),103.8894388,1.3990861
ISLAND FAMILY CLINIC (BEDOK),Hospital/Clinic,763,Bedok Reservoir View ,470763,Blk 763 Bedok Reservoir View #01-283 S(470763),103.934964,1.33615585
ISLAND FAMILY CLINIC (BUKIT BATOK),Hospital/Clinic,447,Bukit Batok West Avenue 9 ,650447,Blk 447 Bukit Batok West Avenue 9 #01-05 S(650447),103.7397621,1.35261925
ISLAND FAMILY CLINIC (FERNVALE),Hospital/Clinic,473A,FERNVALE STREET ,791473,BLK 473A FERNVALE STREET #01-03 S(791473),103.8811718,1.39777955
ISLAND FAMILY CLINIC (SELETAR),Hospital/Clinic,455,SENGKANG WEST AVENUE ,790455,BLK 455 SENGKANG WEST AVENUE #01-14 S(790455),103.871457,1.3918936
Island Family Clinic (Sengkang),Hospital/Clinic,279,SENGKANG EAST AVENUE ,540279,BLK 279 SENGKANG EAST AVENUE #01-05 S(540279),103.8930781,1.3862282
ISLAND GROUP CLINIC,Hospital/Clinic,19,TANGLIN ROAD ,247909,19 TANGLIN ROAD #06-34 TO 37 TANGLIN SHOPPING CENTRE S(247909),103.8268656,1.306304
JAPAN GREEN CLINIC,Hospital/Clinic,290,ORCHARD ROAD ,238859,290 ORCHARD ROAD #10-01 PARAGON S(238859),103.8355203,1.3037371
JAS MEDICAL SCREENING CENTRE,Hospital/Clinic,67,LOR 27 GEYLANG,388189,67 LOR 27 GEYLANG S(388189),103.883562,1.314715
Joy Family Clinic,Hospital/Clinic,703,BEDOK RESERVOIR ROAD ,470703,BLK 703 BEDOK RESERVOIR ROAD #01-3506 S(470703),103.9199888,1.3371001
Jurong Day & Night Clinic,Hospital/Clinic,966,JURONG WEST STREET 93 ,640966,BLK 966 JURONG WEST STREET 93 #01-219 S(640966),103.693105,1.3416751
K N CHIN & ASSOCIATES PTE LTD,Hospital/Clinic,24,RAFFLES PLACE ,48621,24 RAFFLES PLACE #02-18 CLIFFORD CENTRE S(048621),103.8517573,1.2842485
K N CHIN & ASSOCIATES PTE LTD Medical Practice,Hospital/Clinic,3,TEMASEK BOULEVARD ,38983,3 TEMASEK BOULEVARD #02-400 SUNTEC CITY MALL S(038983),103.8598741,1.2951505
K2 MEDICAL CLINIC,Hospital/Clinic,248,Simei Street 3 ,520248,Blk 248 Simei Street 3 #01-128 Multi Storey Car Park S(520248),103.9536533,1.3433847
KAO & TAN FAMILY MEDICAL CENTRE & SURGERY,Hospital/Clinic,18,Jalan Membina ,164018,Blk 18 Jalan Membina #02-03 Tiong Bahru Court S(164018),103.8268972,1.28554555
KBL Healthcare Pte Ltd,Hospital/Clinic,2,BAYFRONT AVENUE ,18972,2 BAYFRONT AVENUE #01-88 MARINA BAY SANDS S(018972),103.8590539,1.28480545
KEAT HONG FAMILY MEDICINE CLINIC,Hospital/Clinic,2,Choa Chu Kang Loop ,689687,2 Choa Chu Kang Loop #03-02 Keat Hong Community Club S(689687),103.7448564,1.3837724
Kenneth Loo Family Clinic,Hospital/Clinic,152,BISHAN ST 11 ,570152,152 BISHAN ST 11 #01-215 S(570152),103.8548047,1.34557175
Kenneth Tan Medical Clinic,Hospital/Clinic,658,PUNGGOL EAST ,820658,BLK 658 PUNGGOL EAST #01-04 S(820658),103.9191504,1.4000382
Kent Ridge Clinic,Hospital/Clinic,1,LOWER KENT RIDGE ROAD ,119082,1 LOWER KENT RIDGE ROAD #01-40 ONE@KENTRIDGE S(119082),103.7845459,1.2940655
KI MEDICAL CLINIC,Hospital/Clinic,416,Ang Mo Kio Avenue 10 ,560416,Blk 416 Ang Mo Kio Avenue 10 #01-975 S(560416),103.8550928,1.36457225
Killiney Medical Clinic,Hospital/Clinic,61,KILLINEY ROAD,239522,61 KILLINEY ROAD S(239522),103.8395775,1.29888035
Kindred Family Clinic (Tampines),Hospital/Clinic,494,TAMPINES STREET 45,523494,BLK 494 TAMPINES STREET 45 #01-02 S(523494),103.9558271,1.3630447
King Georgeâ€™s Medical Clinic Pte Ltd,Hospital/Clinic,803,KING GEORGE'S AVE,200803,803 KING GEORGE'S AVE #01-144 S(200803),103.8606951,1.30849355
KINGS MEDICAL CLINIC,Hospital/Clinic,59A,SERANGOON GARDEN WAY,555955,59A SERANGOON GARDEN WAY S(555955),103.8723581,1.363096
KINGSTON MEDICAL CLINIC PTE LTD,Hospital/Clinic,155,Upper Paya Lebar Road,534853,155 Upper Paya Lebar Road S(534853),103.8857349,1.33934955
KINGSWAY MEDICAL CLINIC,Hospital/Clinic,352,CLEMENTI AVENUE 2 ,120352,BLK 352 CLEMENTI AVENUE 2 #1-103 CLEMENTI AVENUE 2 SHOPPING CENTRE S(120352),103.7711263,1.3150492
LAVENDER MEDICAL CLINIC & SURGERY PTE LTD,Hospital/Clinic,803,KING GEORGE'S AVENUE ,200803,BLK 803 KING GEORGE'S AVENUE #01-186 S(200803),103.8606951,1.30849355
Lee Clinic,Hospital/Clinic,123,BEDOK NORTH Street 2 ,460123,BLK 123 BEDOK NORTH ST 2 #01-156 S(460123),103.9373558,1.32918895
LEE FAMILY CLINIC PTE. LTD.,Hospital/Clinic,762,Jurong West Street 75 ,640762,Blk 762 Jurong West Street 75 #02-262 Gek Poh Shopping Centre S(640762),103.6976457,1.3486942
LEONG CLINIC,Hospital/Clinic,63B,LENGKOK BAHRU ,152063,63B LENGKOK BAHRU #01-366 S(152063),103.8155442,1.2892428
LIAN CLINIC,Hospital/Clinic,18,Marsiling Lane ,730018,Blk 18 Marsiling Lane #01-269 S(730018),103.7778747,1.44342055
LIFELINE MEDICAL GROUP,Hospital/Clinic,118,Rivervale Drive ,540118,Blk 118 Rivervale Drive #02-18 Rivervale Plaza S(540118),103.9016408,1.38522125
LIFELINE NEIGHBOURHOOD MEDICAL CLINIC,Hospital/Clinic,280,BUKIT BATOK EAST AVE 3 ,650280,BLK 280 BUKIT BATOK EAST AVE 3 #01-333 S(650280),103.7570308,1.34784525
Lifeline Punggol Medical Clinic Pte Ltd,Hospital/Clinic,198,PUNGGOL FIELD ,820198,BLK 198 PUNGGOL FIELD #02-03 S(820198),103.90634,1.39946
LIFELINK SN CLINIC & SURGERY,Hospital/Clinic,153,Serangoon North Avenue 1 ,550153,BLK 153 Serangoon North Avenue 1 #01-534 S(550153),103.8721951,1.3702816
LifePlus Medical Group (Bedok),Hospital/Clinic,214,Bedok North Street 1 ,460214,Blk 214 Bedok North Street 1 #01-171 S(460214),103.9325919,1.32584045
LIFESCAN MEDICAL CENTRE,Hospital/Clinic,290,ORCHARD ROAD ,238859,290 ORCHARD ROAD #07-18 to 20 PARAGON S(238859),103.8355203,1.3037371
LIM CLINIC,Hospital/Clinic,446,Ang Mo Kio Ave10 ,560446,Blk 446 Ang Mo Kio Ave10 #01-1663 S(560446),103.855374,1.367775
LIM COUNTRY CLINIC,Hospital/Clinic,208,HOUGANG Street 21 ,530208,BLK 208 HOUGANG ST 21 #01-207 S(530208),103.8865443,1.35866275
LITTLE CROSS FAMILY CLINIC PTE LTD,Hospital/Clinic,929,Tampines Street 91 ,520929,Blk 929 Tampines St 91 #01-445 S(520929),103.9396179,1.3463778
LO & LEE CLINIC & SURGERY,Hospital/Clinic,134,Lorong Ah Soo ,530134,Blk 134 Lorong Ah Soo #01-462 S(530134),103.8817559,1.3510187
LOH & LOH CLINIC & SURGERY,Hospital/Clinic,501,WEST COAST DRIVE ,120501,BLK 501 WEST COAST DRIVE #01-284 S(120501),103.7584447,1.3113533
Loyang Medical Centre,Hospital/Clinic,25A,LOYANG CRESCENT ,506816,25A LOYANG CRESCENT #01-01 S(506816),103.9710517,1.3840593
M Lam Clinic,Hospital/Clinic,739,GEYLANG ROAD,389649,739 GEYLANG ROAD S(389649),103.878305,1.3124802
MacPherson Medical Clinic,Hospital/Clinic,78,CIRCUIT ROAD ,370078,BLK 78 CIRCUIT ROAD #01-488 S(370078),103.8852438,1.32785885
MARINA MEDICAL CENTRE (TIONG BAHRU),Hospital/Clinic,78,GUAN CHUAN Street ,160078,BLK 78 GUAN CHUAN ST #01-39 S(160078),103.8308367,1.2834152
Marine Parade Clinic,Hospital/Clinic,59,MARINE TERRACE ,440059,BLK 59 MARINE TERRACE #01-81 S(440059),103.9147854,1.30585705
MARINE TERRACE FAMILY CLINIC,Hospital/Clinic,57,MARINE TERRACE ,440057,BLK 57 MARINE TERRACE #01-129 S(440057),103.9152737,1.3062798
Martin Medical Centre,Hospital/Clinic,111,WOODLANDS Street 13 ,730111,BLK 111 WOODLANDS ST 13 #01-80 S(730111),103.7821937,1.4378404
MAYFAIR MEDICAL CLINIC,Hospital/Clinic,182,Woodlands Street 13 ,730182,Blk 182 Woodlands Street 13 #01-04 S(730182),103.7760299,1.43515265
Mayfair Medical Clinic (Yishun Chong Pang),Hospital/Clinic,103,YISHUN RING ROAD ,760103,BLK 103 YISHUN RING ROAD #01-73 S(760103),103.8293342,1.4315468
MBS MHC HEALTHCARE CENTRE,Hospital/Clinic,10,Bayfront Avenue,18956,10 Bayfront Avenue Basement 2 Marina Bay Sands S(018956),103.8607226,1.2836965
Mcr Clinic Pte Ltd,Hospital/Clinic,633,VEERASAMY ROAD ,200633,BLK 633 VEERASAMY ROAD #01-130 S(200633),103.8552663,1.30582635
Mcr Clinic Pte Ltd,Hospital/Clinic,633,VEERASAMY ROAD ,200633,BLK 633 VEERASAMY ROAD #01-118 S(200633),103.8552663,1.30582635
Medi Healthcare Clinic (Punggol),Hospital/Clinic,218,SUMANG WALK ,820218,BLK 218 SUMANG WALK #01-02 S(820218),103.8952482,1.4032155
MEDICARE ASSOCIATES,Hospital/Clinic,482,Tampines Ave 9 Street 43 ,520482,Blk 482 Tampines Ave 9 St 43 #01-236 S(520482),103.9533859,1.362045366
MEDIHEALTH BISHAN CLINIC & SURGERY,Hospital/Clinic,121,Bishan Street 12 ,570121,Blk 121 Bishan St 12 #01-95 S(570121),103.8510798,1.34722705
MEDILIFE CLINIC AND SURGERY,Hospital/Clinic,474,TAMPINES Street 43 ,520474,BLK 474 TAMPINES ST 43 #01-122 S(520474),103.9529963,1.35999185
MEDILINE WEI MIN CLINIC,Hospital/Clinic,81,Marine Parade Central ,440081,Blk 81 Marine Parade Central #01-634 S(440081),103.907113,1.30259145
MEDILINE WEI MIN CLINIC,Hospital/Clinic,14,Kensington Park Road,557265,14 Kensington Park Road S(557265),103.8661703,1.365236145
Medina Medical Centre,Hospital/Clinic,479,TAMPINES STREET 44 ,520479,BLK 479 TAMPINES STREET 44 #01-231 S(520479),103.9536028,1.36147635
MEDIPOINT MEDICAL CENTRE (PONGGOL BRANCH),Hospital/Clinic,401,Hougang Ave 10 ,530401,Blk 401 Hougang Ave 10 #01-1170 S(530401),103.8948586,1.3715094
Medivale Medical Clinic,Hospital/Clinic,236,YISHUN RING ROAD ,760236,236 YISHUN RING ROAD #01-1012 YISHUN HEARTS S(760236),103.839138,1.4341147
MEDIVENE CLINIC & SURGERY,Hospital/Clinic,330,Anchorvale Street ,540330,Blk 330 Anchorvale Street #01-05 S(540330),103.8890273,1.3964212
MEDIVIEW CLINIC AND SURGERY,Hospital/Clinic,150,LORONG 1 TOA PAYOH ,310150,150 LORONG 1 TOA PAYOH #01-999 S(310150),103.8444235,1.33404495
MEDLIFE CLINIC & SURGERY,Hospital/Clinic,684,Hougang Avenue 8 ,530684,Blk 684 Hougang Avenue 8 #01-985 S(530684),103.8866167,1.3744808
MEI LING CLINIC,Hospital/Clinic,158,Mei Ling Street,140158,Blk 158 Mei Ling St #01-80 S(140158),103.8028642,1.29269905
Mel & Partners Drs Pte Ltd,Hospital/Clinic,1,SCOTTS ROAD ,228208,1 SCOTTS ROAD #17-12 SHAW CENTRE S(228208),103.8313124,1.306608
MHC Family Clinic (Ang Mo Kio),Hospital/Clinic,452,ANG MO KIO AVE 10 ,560452,BLK 452 ANG MO KIO AVE 10 #01-1789 S(560452),103.8564487,1.36882995
MHC MEDICAL CENTRE (AMARA),Hospital/Clinic,100,Tras Street ,79027,100 Tras Street #15-01/02/03 100 Am S(079027),103.8434323,1.274634
MHC MEDICAL CENTRE (NOVENA),Hospital/Clinic,10,Sinaran Drive ,307506,10 Sinaran Drive #09-10 Novena Medical Center S(307506),103.8444396,1.320732
MILLENNIUM MEDICAL GROUP,Hospital/Clinic,849,Woodlands Street 82 ,730849,Blk 849 Woodlands St 82 #01-215 S(730849),103.7933269,1.4443687
MILLENNIUM MEDICAL GROUP,Hospital/Clinic,533,Choa Chu Kang Street 51 ,680533,Blk 533 Choa Chu Kang St 51 #01-33 S(680533),103.742431,1.389497
MINMED CLINIC (HAIG ROAD),Hospital/Clinic,30,Haig Road,438737,30 Haig Rd S(438737),103.8957071,1.313258259
MINMED CLINIC (JURONG EAST),Hospital/Clinic,50,Jurong Gateway Road ,608549,50 Jurong Gateway Road #04-17 Jem S(608549),103.7433912,1.3332962
Minmed Clinic (Orchard),Hospital/Clinic,304,ORCHARD ROAD ,238863,304 ORCHARD ROAD #05-44 LUCKY PLAZA S(238863),103.8339122,1.3046029
MINMED CLINIC (PASIR RIS),Hospital/Clinic,1,Pasir Ris Central Street 3 ,518457,1 Pasir Ris Central Street 3 #05-08/09 White Sands S(518457),103.9497254,1.37254305
MINMED CLINIC (PUNGGOL),Hospital/Clinic,83,Punggol Central ,828761,83 Punggol Central #02-15 Waterway Point S(828761),103.9020102,1.40642655
MINMED CLINIC (SENGKANG),Hospital/Clinic,1,Sengkang Square ,545078,1 Sengkang Square #04-13 Compass One S(545078),103.8949527,1.3920337
MINMED CLINIC (YISHUN),Hospital/Clinic,1,Northpoint Drive ,768019,1 Northpoint Drive #02-153 Northpoint City S(768019),103.8360991,1.428194019
Minmed Health Screeners,Hospital/Clinic,290,Orchard Road ,238859,290 Orchard Road #16-04/09/10 Paragon S(238859),103.8355203,1.3037371
Mint Medical Centre,Hospital/Clinic,,HARBOURFRONT PLACE ,98633,HARBOURFRONT PLACE #01-10 HARBOURFRONT TOWER ONE S(098633),103.819171,1.265265
MISSION CROSS FAMILY CLINIC,Hospital/Clinic,348,Yishun Avenue 11 ,760348,348 Yishun Avenue 11 #01-03 S(760348),103.8428674,1.42662915
MOBILEDOCTOR CLINIC,Hospital/Clinic,20,Cross Street ,48422,20 Cross Street #02-11/12 China Square Central (China Court) S(048422),103.8474295,1.283973731
Mount Elizabeth Hospital,Hospital/Clinic,3,Mount Elizabeth,228510,3 Mount Elizabeth S(228510),103.83555,1.30544
MOUNT ELIZABETH NOVENA HOSPITAL,Hospital/Clinic,38,Irrawaddy Road,329563,38 Irrawaddy Road S(329563),103.8442653,1.3220927
MUTUAL HEALTHCARE MEDICAL CLINIC,Hospital/Clinic,319B,Anchorvale Drive,542319,319B Anchorvale Dr #01-92 S(542319),103.8905859,1.39141205
MUTUAL HEALTHCARE MEDICAL CLINIC,Hospital/Clinic,205A,Compassvale Lane ,541205,Blk 205A Compassvale Lane #01-53 S(541205),103.8973151,1.385652
MWH Medical Specialists Centre,Hospital/Clinic,101,IRRAWADDY ROAD ,329565,101 IRRAWADDY ROAD #07-01 ROYAL SQUARE AT NOVENA S(329565),103.8443224,1.3214892
My Clinic,Hospital/Clinic,9,KING ALBERT PARK ,598332,9 KING ALBERT PARK #01-50 KAP S(598332),103.7791742,1.3369105
MY DOCTOR @ LAKESIDE,Hospital/Clinic,201,Boon Lay Way ,649845,Blk 201 Boon Lay Way #01-05 Lakeside Mrt Station S(649845),103.720253,1.34413
MY FAMILY CLINIC (ANCHORVALE),Hospital/Clinic,326A,Anchorvale Road ,541326,Blk 326A Anchorvale Road #01-260 S(541326),103.8880208,1.3948882
MY FAMILY CLINIC (ANGSANA BREEZE @ YISHUN),Hospital/Clinic,507,Yishun Avenue 4 ,760507,Blk 507 Yishun Avenue 4 #01-05 S(760507),103.8399222,1.4151041
MY FAMILY CLINIC (CHOA CHU KANG),Hospital/Clinic,475,Choa Chu Kang Ave 3 ,680475,Blk 475 Choa Chu Kang Ave 3 #02-01 Sunshine Place S(680475),103.7386492,1.37776945
MY FAMILY CLINIC (CLEMENTI 325) PTE LTD,Hospital/Clinic,325,Clementi Ave 5 ,120325,Blk 325 Clementi Ave 5 #01-139 S(120325),103.7668763,1.315394
MY FAMILY CLINIC (CLEMENTI),Hospital/Clinic,420A,Clementi Avenue 1 ,121420,Blk 420A Clementi Avenue 1 #01-05 Casa Clementi S(121420),103.7685356,1.3097564
MY FAMILY CLINIC (HOUGANG CENTRAL),Hospital/Clinic,804,Hougang Central ,530804,Blk 804 Hougang Central #01-118 S(530804),103.8946061,1.3710725
MY FAMILY CLINIC (PIONEER),Hospital/Clinic,638,Jurong West Street 61 ,640638,638 Jurong West St 61 #02-09 Pioneer Mall S(640638),103.6971606,1.34169785
MY FAMILY CLINIC (PUNGGOL CENTRAL),Hospital/Clinic,301,Punggol Central ,820301,Blk 301 Punggol Central #01-02 S(820301),103.9061683,1.4037905
MY FAMILY CLINIC (RIVERVALE),Hospital/Clinic,11,Rivervale Crescent ,545082,11 Rivervale Crescent #02-11A Rivervale Mall S(545082),103.904213,1.3923199
MY FAMILY CLINIC (SEGAR),Hospital/Clinic,485,Segar Road ,670485,Blk 485 Segar Road #01-508 S(670485),103.7709551,1.3887698
My Family Clinic (Senja),Hospital/Clinic,628,Senja Road ,670628,BLK 628 Senja Road #01-04 S(670628),103.7604035,1.3850202
MY FAMILY CLINIC (ST GEORGE),Hospital/Clinic,2,St. George'S Road,328023,2 St. George'S Road S(328023),103.8607259,1.32366647
MY FAMILY CLINIC (TANGLIN HALT),Hospital/Clinic,46-2,Commonwealth Drive ,140462,Blk 46-2 Commonwealth Drive #01-372 S(140462),103.7981893,1.300039903
MY FAMILY CLINIC (WOODLANDS GLEN),Hospital/Clinic,573,Woodlands Drive 16 ,730573,Blk 573 Woodlands Drive 16 #01-09 S(730573),103.7985065,1.4311005
MY FAMILY CLINIC (WOODLANDS),Hospital/Clinic,768,Woodlands Ave 6 ,730768,Blk 768 Woodlands Ave 6 #02-07 Woodlands Mart S(730768),103.7981059,1.4457952
MY FAMILY CLINICâ„¢ (TOA PAYOH CENTRAL),Hospital/Clinic,79D ,Toa Payoh Central ,314079,Blk 79D Toa Payoh Central #01-53 S(314079),103.8490092,1.3346566
My Health Partners Medical Clinic,Hospital/Clinic,25D,Lorong Liput,277735,25D Lorong Liput S(277735),103.7950187,1.3104871
MyCLNQ Medical Pte Ltd,Hospital/Clinic,554,ANG MO KIO AVENUE 10 ,560554,BLK 554 ANG MO KIO AVENUE 10 #01-2048 CHENG SAN PLACE S(560554),103.8577559,1.37287235
MYDOCTOR@ADMIRALTY PTE LTD,Hospital/Clinic,693,Woodlands Avenue 6 ,730693,Blk 693 Woodlands Avenue 6 #01-03 S(730693),103.803627,1.4382576
MYDOCTOR@CANBERRA,Hospital/Clinic,133,CANBERRA VIEW ,750133,BLK 133 CANBERRA VIEW #03-10/11 CANBERRA PLAZA S(750133),103.830618,1.4431568
MYHEALTH MEDICAL CENTRE,Hospital/Clinic,501,West Coast Drive ,120501,Blk 501 West Coast Drive #01-256 S(120501),103.7584447,1.3113533
NEE SOON CLINIC,Hospital/Clinic,779,YISHUN AVENUE 2 ,760779,BLK 779 YISHUN AVENUE 2 #01-1547 KHATIB VALE S(760779),103.8328996,1.438199
NEIGHBOURHOOD CLINIC,Hospital/Clinic,260,BANGKIT ROAD ,670260,BLK 260 BANGKIT ROAD #01-13 S(670260),103.7733323,1.3775631
NEPTUNE HEALTHCARE MEDICAL & SURGERY,Hospital/Clinic,328,TAMPINES STREET 32 ,520328,BLK 328 TAMPINES STREET 32 #01-362 S(520328),103.9582011,1.35332995
NEW HEALTH FAMILY CLINIC PTE LTD,Hospital/Clinic,108,Depot Road ,100108,Blk 108 Depot Road #01-08 Depot Heights Shopping Centre S(100108),103.8100182,1.2811314
NEW PATH FAMILY CLINIC,Hospital/Clinic,926,Upper Thomson Road,787120,926 Upper Thomson Road S(787120),103.8179462,1.3993906
New Town Clinic Pte Ltd,Hospital/Clinic,59,New Upper Changi Road ,461059,BLK 59 New Upper Changi Road #01-1224 S(461059),103.9406339,1.32398215
NEWCASTLE CLINIC,Hospital/Clinic,541,Orchard Road ,238881,541 Orchard Road #14-02 Liat Towers S(238881),103.8310193,1.3051271
Newlife Family Clinic & Surgery,Hospital/Clinic,61,TEBAN GARDENS ROAD ,600061,BLK 61 TEBAN GARDENS ROAD #01-20 S(600061),103.7385109,1.3221251
NICHII INTERNATIONAL CLINIC,Hospital/Clinic,1,FARRER PARK STATION ROAD ,217562,1 FARRER PARK STATION ROAD #07-05/06 CONNEXION S(217562),103.8542166,1.3130696
NIPPON MEDICAL CARE,Hospital/Clinic,6A ,Napier Road ,258500,6A Napier Road #03-31 Gleneagles Hospital S(258500),103.819871,1.307646358
NORTHEAST (AMK) MEDICAL CENTRE PTE. LTD.,Hospital/Clinic,2450,ANG MO KIO AVENUE 8 ,569811,2450 ANG MO KIO AVENUE 8 #01-02 ANG MO KIO MRT STATION S(569811),103.8495228,1.3700803
NORTHEAST MEDICAL GROUP,Hospital/Clinic,39,Jalan Tiga ,390039,Blk 39 Jalan Tiga #01-01 S(390039),103.8850135,1.30780915
NORTHEAST MEDICAL GROUP,Hospital/Clinic,25,Ghim Moh Link ,270025,Blk 25 Ghim Moh Link #01-10 S(270025),103.7858814,1.3080768
NORTHEAST MEDICAL GROUP,Hospital/Clinic,531,Bedok North Street 3 ,460531,Blk 531 Bedok North St 3 #01-692 S(460531),103.9259676,1.33329985
NORTHEAST MEDICAL GROUP,Hospital/Clinic,5,Sengkang Square ,545062,5 Sengkang Square #01-05 S(545062),103.8952065,1.3912987
NORTHEAST MEDICAL GROUP,Hospital/Clinic,30,Simei Street 3 ,529888,30 Simei Street 3 #02-01 Simei Mrt Station S(529888),103.9537724,1.3427149
NORTHEAST MEDICAL GROUP,Hospital/Clinic,20,Tampines Central 1 ,529538,20 Tampines Central 1 #01-25 Tampines Mrt Station S(529538),103.9446606,1.3538317
NORTHEAST MEDICAL GROUP,Hospital/Clinic,22,Malacca Street ,48980,22 Malacca Street #13-03 Rb Capital Building S(048980),103.8508459,1.283913
Northeast Medical Group,Hospital/Clinic,10,BUKIT BATOK CENTRAL ,659958,10 BUKIT BATOK CENTRAL #01-01 BUKIT BATOK MRT STATION S(659958),103.7495906,1.3490572
NORWOOD MEDICAL CLINIC,Hospital/Clinic,785E,Woodlands Rise ,735785,785E Woodlands Rise #01-02 S(735785),103.8055002,1.4468922
NUTRAMED CLINIC,Hospital/Clinic,1,Grange Road ,239693,1 Grange Road #10-10 Orchard Building S(239693),103.8372627,1.301529704
OC MEDICAL RAFFLES PLACE,Hospital/Clinic,1,Raffles Place ,48616,1 Raffles Place #05-15/16 One Raffles Place S(048616),103.8510618,1.28429825
One Medical Clinic,Hospital/Clinic,728,JURONG WEST AVENUE 5 ,640728,BLK 728 JURONG WEST AVENUE 5 #01-K1 S(640728),103.6974234,1.3461364
ONE WELLNESS MEDICAL,Hospital/Clinic,160,ROBINSON ROAD ,68914,160 ROBINSON ROAD #03-14 SINGAPORE BUSINESS FEDERATION CENTRE S(068914),103.8477754,1.278156
ONECARE CLINIC ALJUNIED MRT,Hospital/Clinic,81,Lorong 25 Geylang ,388310,81 Lorong 25 Geylang #01-03 Aljunied Mrt Station S(388310),103.8829035,1.31643935
OneCare Clinic Bedok MRT,Hospital/Clinic,315,NEW UPPER CHANGI ROAD ,467347,BLK 315 NEW UPPER CHANGI ROAD #01-01 BEDOK MRT STATION S(467347),103.930216,1.3239765
OneCare Clinic Boon Lay,Hospital/Clinic,221,BOON LAY PLACE ,640221,BLK 221 BOON LAY PLACE #01-152 BOON LAY SHOPPING CENTRE S(640221),103.7124408,1.3462734
OneCare Clinic Bukit Batok,Hospital/Clinic,630,BUKIT BATOK CENTRAL ,650630,BLK 630 BUKIT BATOK CENTRAL #01-148 S(650630),103.7499592,1.3501161
OneCare Clinic Bukit Batok West,Hospital/Clinic,440,BUKIT BATOK WEST AVENUE 8 ,650440,BLK 440 BUKIT BATOK WEST AVENUE 8 #01-07 MULTI STOREY CAR PARK S(650440),103.7392341,1.3555088
OneCare Clinic Bukit Gombak MRT,Hospital/Clinic,802,BUKIT BATOK WEST AVENUE 5 ,659083,802 BUKIT BATOK WEST AVENUE 5 #01-16 BUKIT GOMBAK MRT STATION S(659083),103.7520784,1.3589914
OneCare Clinic Bukit Panjang,Hospital/Clinic,547,SEGAR ROAD ,670547,547 SEGAR ROAD #01-05 MULTI STOREY CAR PARK S(670547),103.7699226,1.3879115
ONECARE CLINIC CANBERRA,Hospital/Clinic,105,Canberra Street ,750105,Blk 105 Canberra Street #01-09 S(750105),103.8323549,1.4489117
OneCare Clinic Choa Chu Kang,Hospital/Clinic,810,CHOA CHU KANG AVENUE 7 ,680810,BLK 810 CHOA CHU KANG AVENUE 7 #01-09 MULTI STOREY CAR PARK S(680810),103.7462426,1.3739577
ONECARE CLINIC CLEMENTI,Hospital/Clinic,449,Clementi Avenue 3 ,120449,Blk 449 Clementi Avenue 3 #01-241 S(120449),103.7647868,1.3136215
OneCare Clinic Fernvale,Hospital/Clinic,417,FERNVALE LINK ,790417,BLK 417 FERNVALE LINK #01-10 S(790417),103.8799448,1.3917071
OneCare Clinic Hougang,Hospital/Clinic,104,HOUGANG AVENUE 1 ,530104,BLK 104 HOUGANG AVENUE 1 #01-1125 S(530104),103.8903435,1.35481055
OneCare Clinic Hougang Ave 8,Hospital/Clinic,681,HOUGANG AVENUE 8 ,530681,BLK 681 HOUGANG AVENUE 8 #01-835 S(530681),103.886037,1.3729237
Onecare Clinic Keat Hong LRT,Hospital/Clinic,818,CHOA CHU KANG AVENUE 1 ,680818,BLK 818 CHOA CHU KANG AVENUE 1 #01-08 S(680818),103.7490569,1.3779671
OneCare Clinic Loyang,Hospital/Clinic,258,PASIR RIS STREET 21 ,510258,BLK 258 PASIR RIS STREET 21 #02-14 LOYANG POINT S(510258),103.9647716,1.3670929
OneCare Clinic Marine Parade,Hospital/Clinic,81,MARINE PARADE CENTRAL ,440081,BLK 81 MARINE PARADE CENTRAL #01-644 S(440081),103.907113,1.30259145
OneCare Clinic Punggol Plaza,Hospital/Clinic,168,PUNGGOL FIELD ,820168,BLK 168 PUNGGOL FIELD #02-09A PUNGGOL PLAZA S(820168),103.9133144,1.39412
Onecare Clinic Tampines,Hospital/Clinic,827,TAMPINES STREET 81 ,520827,BLK 827 TAMPINES STREET 81 #01-142 S(520827),103.9329306,1.34982625
OneCare Clinic Tampines MRT,Hospital/Clinic,20,TAMPINES CENTRAL 1 ,529538,20 TAMPINES CENTRAL 1 #01-27 TAMPINES MRT STATION S(529538),103.9446606,1.3538317
OneCare Clinic Tiong Bahru,Hospital/Clinic,11A ,BOON TIONG ROAD ,161011,BLK 11A BOON TIONG ROAD #01-08 S(161011),103.8289178,1.28611055
OneCare Clinic Woodlands,Hospital/Clinic,4,Woodlands Street 12 ,738623,4 Woodlands Street 12 #02-57 S(738623),103.7799353,1.4336189
OneCare Clinic Yishun,Hospital/Clinic,431,YISHUN AVENUE 1 ,760431,BLK 431 YISHUN AVENUE 1 #01-04 MULTI STOREY CAR PARK S(760431),103.8475579,1.4201478
ONEDOCTORS FAMILY CLINIC,Hospital/Clinic,252,Holland Avenue ,278982,253 Holland Avenue #02-01 Holland Village S(278982),103.795624,1.31143948
ONEDOCTORS FAMILY CLINIC,Hospital/Clinic,83,Punggol Central ,828761,83 Punggol Central #02-17 Waterway Point S(828761),103.9020102,1.40642655
OneDoctors Family Clinic,Hospital/Clinic,710,ANG MO KIO AVENUE 8 ,560710,BLK 710 ANG MO KIO AVENUE 8 #01-2613 S(560710),103.8481952,1.3710484
ONEDOCTORS MEDICAL CENTRE,Hospital/Clinic,23,Serangoon Central ,556083,23 Serangoon Central #01-54/55 Nex S(556083),103.8725819,1.3507085
ONG CLINIC & SURGERY (YISHUN),Hospital/Clinic,293,YISHUN STREET 22 ,760293,BLK 293 YISHUN STREET 22 #01-223 S(760293),103.8375295,1.4365286
ONG'S CLINIC,Hospital/Clinic,175,Bencoolen Street ,189649,175 Bencoolen St #01-44 Burlington Square S(189649),103.852631,1.3026077
Osler Health International,Hospital/Clinic,328,NORTH BRIDGE ROAD ,188719,328 NORTH BRIDGE ROAD #02-27 RAFFLES HOTEL ARCADE S(188719),103.8539854,1.2960056
Osler Health International,Hospital/Clinic,1,VISTA EXCHANGE GREEN ,138617,1 VISTA EXCHANGE GREEN #B1-26/27 THE STAR VISTA S(138617),103.7883825,1.3080015
OUR FAMILY PHYSICIAN CLINIC & SURGERY,Hospital/Clinic,829,Tampines Street 81 ,520829,Blk 829 Tampines St 81 #01-292 S(520829),103.9348376,1.3492091
Our Woodleigh Family Clinic,Hospital/Clinic,115B,ALKAFF CRESCENT ,342115,BLK 115B ALKAFF CRESCENT #01-05 S(342115),103.8726162,1.3369104
P Tan Family Medicine Clinic,Hospital/Clinic,503,BISHAN STREET 11 ,570503,BLK 503 BISHAN STREET 11 #01-464 S(570503),103.8480269,1.349018
PACIFIC FAMILY CLINIC,Hospital/Clinic,75D ,Redhill Road ,154075,Blk 75D Redhill Road #01-116 S(154075),103.8158428,1.2885672
PACIFIC MEDICAL & DENTAL GROUP,Hospital/Clinic,716,Yishun Street 71 ,760716,Blk 716 Yishun St 71 #01-270 S(760716),103.8277414,1.4263979
Pacific Medical Clinic,Hospital/Clinic,290,ORCHARD ROAD ,238859,290 ORCHARD ROAD #12-01 THE PARAGON S(238859),103.8355203,1.3037371
PANCARE MEDICAL CLINIC,Hospital/Clinic,133,Ang Mo Kio Avenue 3 ,560133,Blk 133 Ang Mo Kio Avenue 3 #01-1643 Kebun Baru Spring  S(560133),103.8426363,1.3711479
PANHEALTH FAMILY CLINIC,Hospital/Clinic,312B,Sumang Link ,822312,Blk 312B Sumang Link #01-03 S(822312),103.9008334,1.4112124
Panhealth Family Clinic (Hougang),Hospital/Clinic,932B,HOUGANG AVENUE 9 ,532932,BLK 932B HOUGANG AVENUE 9 #01-02 HOUGANG CRIMSON S(532932),103.8823716,1.37520485
Parklane Medical Centre,Hospital/Clinic,35,SELEGIE ROAD ,188307,35 SELEGIE ROAD #02-25A PARKLANE SHOPPING MALL S(188307),103.8495358,1.3003505
PARKWAY EAST HOSPITAL,Hospital/Clinic,321,Joo Chiat Place,427990,321 Joo Chiat Place S(427990),103.902947,1.3137357
PARKWAY SHENTON MEDICAL GROUP,Hospital/Clinic,50,Robinson Road ,68882,50 Robinson Road #01-03 Robinson Suites S(068882),103.8498128,1.28091565
PARKWAY SHENTON MEDICAL GROUP,Hospital/Clinic,205,Hougang Street 21 ,530205,205 Hougang Street 21 #03-20 Heartland Mall - Kovan S(530205),103.8852177,1.35949165
PARKWAY SHENTON MEDICAL GROUP,Hospital/Clinic,681,Punggol Drive ,820681,Blk 681 Punggol Drive #01-01 S(820681),103.9132234,1.4027879
PARKWAY SHENTON MEDICAL GROUP,Hospital/Clinic,10,Eunos Road 8 ,408600,10 Eunos Road 8 #02-122 Singapore Post Centre S(408600),103.8935678,1.3189319
PARKWAY SHENTON MEDICAL GROUP,Hospital/Clinic,1,Jelebu Road ,677743,1 Jelebu Road #03-02 Bukit Panjang Plaza S(677743),103.76456,1.3796938
PARKWAY SHENTON MEDICAL GROUP,Hospital/Clinic,451,CLEMENTI AVENUE 3 ,120451,BLK 451 CLEMENTI AVENUE 3 #01-309 S(120451),103.7658379,1.3128156
Parsons Medical Clinic and Surgery Pte Ltd,Hospital/Clinic,360,ORCHARD ROAD ,238869,360 ORCHARD ROAD #04-10 INTERNATIONAL BUILDING S(238869),103.8310084,1.30604935
Pasir Ris Clinic & Surgery,Hospital/Clinic,442,PASIR RIS Drive 6 ,510442,BLK 442 PASIR RIS DR 6 #01-28 S(510442),103.9575926,1.36907275
PCS MEDICAL CENTRE,Hospital/Clinic,100,AYER MERBAU ROAD,628277,100 AYER MERBAU ROAD PCS S(628277),103.725322,1.2685377
PEAK MEDICAL CLINIC & SURGERY,Hospital/Clinic,601B,Tampines Avenue 9 ,522601,Blk 601B Tampines Avenue 9 #01-05 Tampines Greenridges S(522601),103.9375046,1.36085845
PHILIP ENG RESPIRATORY & MEDICAL CLINIC,Hospital/Clinic,3,Mount Elizabeth ,228510,3 Mount Elizabeth #14-14 Mount Elizabeth Medical Centre S(228510),103.83555,1.30544
PHOENIX MEDICAL GROUP,Hospital/Clinic,1,Seletar Road ,807011,1 Seletar Road #02-11 Greenwich V S(807011),103.8693009,1.3874746
PHOENIX MEDICAL GROUP ( NOVENA ),Hospital/Clinic,275,Thomson Road ,307645,275 Thomson Road #01-05 Novena Regency Singapore 307645,103.8418353,1.3208715
Phoenix Medical Group (Hillview),Hospital/Clinic,4,Hillview Rise ,667979,4 Hillview Rise #02-20 HillV2 S(667979),103.7643794,1.3636865
PHOENIX MEDICAL GROUP (PAYA LEBAR),Hospital/Clinic,60,Paya Lebar Road ,409051,60 Paya Lebar Road #02-09 Paya Lebar Square S(409051),103.8924825,1.3191162
PHYSICIANS PRACTICE FAMILY MEDICAL CENTER,Hospital/Clinic,101,THOMSON ROAD ,307591,101 THOMSON ROAD #01-17 UNITED SQUARE S(307591),114.173752,22.277217
PIER MEDICAL CENTRE,Hospital/Clinic,725,JURONG WEST AVE 5 ,640725,BLK 725 JURONG WEST AVE 5 #B1-164 S(640725),103.6973409,1.3454948
PINNACLE FAMILY CLINIC (BUANGKOK SQUARE),Hospital/Clinic,991,Buangkok Link ,530991,Blk 991 Buangkok Link #02-05 Buangkok Square S(530991),103.8819203,1.3844388
PINNACLE FAMILY CLINIC (COMPASSVALE),Hospital/Clinic,289C,Compassvale Crescent ,543289,Blk 289C Compassvale Crescent #01-04 S(543289),103.8968686,1.39758035
PINNACLE FAMILY CLINIC (PASIR RIS),Hospital/Clinic,571,PASIR RIS STREET 53 ,510571,BLK 571 PASIR RIS STREET 53 #01-50 S(510571),103.9456718,1.3730506
PINNACLE FAMILY CLINIC (RIVER VALLEY),Hospital/Clinic,240,River Valley Road,238297,240 River Valley Road S(238297),103.8423022,1.2941845
PINNACLE FAMILY CLINIC (SERANGOON NORTH),Hospital/Clinic,518,Serangoon North Avenue 4 ,550518,Blk 518 Serangoon North Avenue 4 #B1-208 S(550518),103.8741298,1.3716272
PINNACLE FAMILY CLINIC (WOODLANDS),Hospital/Clinic,573,Woodlands Drive 16 ,730573,Blk 573 Woodlands Drive 16 #01-06 S(730573),103.7985065,1.4311005
Pinnacle family clinic (Yew Tee),Hospital/Clinic,790,CHOA CHU KANG NORTH 6 ,680790,BLK 790 CHOA CHU KANG NORTH 6 #01-238 S(680790),103.746168,1.3966363
PIONEER MEDICARE,Hospital/Clinic,3,Soon Lee Street ,627606,Blk 3 Soon Lee Street #01-08 Pioneer Junction S(627606),103.6969479,1.3336311
PLATINUM MEDICAL CENTRE @DORM,Hospital/Clinic,28,Toh Guan Road East ,608596,28 Toh Guan Road East #01-01 (Mezzanine Floor) S(608596),103.7515863,1.33645755
PLATINUM MEDICAL CENTRE PTE LTD,Hospital/Clinic,504,YISHUN STREET 51 ,760504,BLK 504 YISHUN STREET 51 #01-02 MULTI STOREY CAR PARK S(760504),103.8445934,1.41842245
PLATINUM MEDICAL CLINIC AND SURGERY PTE LTD,Hospital/Clinic,513,Yishun Street 51 ,760513,Blk 513 Yishun Street 51 #01-03 Saraca Breeze @ Yishun S(760513),103.8440404,1.4160474
Precious Medical Centre,Hospital/Clinic,290,ORCHARD ROAD ,238859,290 ORCHARD ROAD #12-01 THE PARAGON S(238859),103.8355203,1.3037371
PROCROSS MEDICAL CENTRE,Hospital/Clinic,449,Hougang Avenue 10 ,530449,Blk 449 Hougang Avenue 10 #B1-509 S(530449),103.8963176,1.3764103
PROCROSS MEDICAL CLINIC,Hospital/Clinic,689A,Woodlands Drive 75 ,731689,Blk 689A Woodlands Drive 75 #01-86 S(731689),103.808568,1.443974
Prohealth 24-Hour Medical Clinic,Hospital/Clinic,259,BUKIT PANJANG RING RD ,671259,BLK 259 BUKIT PANJANG RING RD #01-18 S(671259),103.7729647,1.3771152
PROHEALTH MEDICAL GROUP @BUANGKOK,Hospital/Clinic,275D,Compassvale Link ,544275,Blk 275D Compassvale Link #01-01(Unit 12) S(544275),103.893946,1.3827944
PROHEALTH MEDICAL GROUP @BUKIT BATOK,Hospital/Clinic,4,BUKIT BATOK STREET 41 ,657991,4 BUKIT BATOK STREET 41 #01-76 LE QUEST S(657991),103.7405573,1.3560362
PROHEALTH MEDICAL GROUP @FERNVALE,Hospital/Clinic,33,Sengkang West Avenue ,797653,33 Sengkang West Avenue #B1-18 The Seletar Mall S(797653),103.8759844,1.391249
PROHEALTH MEDICAL GROUP @HOUGANG,Hospital/Clinic,476D,Upper Serangoon View ,537476,476D Upper Serangoon View #02-04 Hougang Capeview S(537476),103.9013717,1.3742817
PROHEALTH MEDICAL GROUP @LRT FERNVALE PTE LTD,Hospital/Clinic,437,Fernvale Road ,790437,Blk 437 Fernvale Road #01-04 Fernvale Grove S(790437),103.8762755,1.3925295
PROHEALTH MEDICAL GROUP @PUNGGOL DAMAI,Hospital/Clinic,612,Punggol Drive ,820612,Blk 612 Punggol Drive #01-05 Damai Grove S(820612),103.9085261,1.4048623
PROHEALTH MEDICAL GROUP @PUNGGOL SPECTRA PTE. LTD.,Hospital/Clinic,622D,Punggol Central ,824622,Blk 622D Punggol Central #01-02 S(824622),103.9103895,1.400339
PROHEALTH MEDICAL GROUP @TAMAN JURONG,Hospital/Clinic,399,Yung Sheng Road ,610399,399 Yung Sheng Road #01-56 Taman Jurong Shopping Centre S(610399),103.7207694,1.3344934
Prohealth Medical Group @Tampines,Hospital/Clinic,610,TAMPINES NORTH DRIVE 1 ,520610,BLK 610 TAMPINES NORTH DRIVE 1 #01-03 TAMPINES GREENWEAVE S(520610),103.9373235,1.3647233
PROVIDENCE CLINIC @ HILLFORD,Hospital/Clinic,182,Jalan Jurong Kechil ,596152,182 Jalan Jurong Kechil #01-65 The Hillford S(596152),103.7697664,1.3437473
Providence Clinic @ Novena,Hospital/Clinic,1,GOLDHILL PLAZA ,308899,1 GOLDHILL PLAZA #01-29 GOLDHILL PLAZA S(308899),103.8426847,1.3184492
PULSE CLINIC PTE LTD,Hospital/Clinic,38,Beo Crescent ,160038,Blk 38 Beo Crescent #01-32 The Beo Crescent S(160038),103.8272947,1.2885496
PUNGGOL FAMILY CLINIC PTE. LTD.,Hospital/Clinic,322,SUMANG WALK ,820322,BLK 322 SUMANG WALK #01-03 MULTI STOREY CAR PARK  S(820322),103.8975315,1.41110835
Punggol Ripples Family Clinic,Hospital/Clinic,211D,PUNGGOL WALK ,824211,BLK 211D PUNGGOL WALK #01-667 S(824211),103.8991863,1.40102065
Q & M MEDICAL & AESTHETIC CLINIC (FARRER PARK),Hospital/Clinic,180,Kitchener Road ,208539,180 Kitchener Road #B1-13/14 City Square Mall S(208539),103.8565712,1.3113537
Q & M MEDICAL & AESTHETIC CLINIC (TAMPINES CENTRAL) PTE. LTD.,Hospital/Clinic,10,Tampines Central 1 ,529536,10 Tampines Central 1 #04-18/19 Tampines One S(529536),103.9450103,1.3540771
Q & M MEDICAL CLINIC (BUANGKOK MRT) PTE. LTD.,Hospital/Clinic,10,Sengkang Central ,545061,10 Sengkang Central #01-02 Buangkok Mrt Station S(545061),103.8929445,1.3832816
Q & M MEDICAL CLINIC (BUKIT BATOK),Hospital/Clinic,151,Bukit Batok Street 11 ,650151,151 Bt Batok St 11 #01-252 S(650151),103.744257,1.34871575
Q & M MEDICAL FAMILY CLINIC,Hospital/Clinic,261,Serangoon Central Drive ,550261,Blk 261 Serangoon Central Drive #01-29 S(550261),103.8723813,1.3538627
Q & M MUTUAL HEALTHCARE MEDICAL CLINIC,Hospital/Clinic,70,Punggol Central ,828868,70 Punggol Central #01-07 Punggol Mrt Station S(828868),103.902368,1.4051559
Raffles Hospital,Hospital/Clinic,585,NORTH BRIDGE ROAD,188770,585 NORTH BRIDGE ROAD RAFFLES HOSPITAL S(188770),103.8571482,1.30113605
Raffles Japanese Clinic,Hospital/Clinic,1,SCOTTS ROAD ,228208,1 SCOTTS ROAD #05-1 to 11 SHAW CENTRE S(228208),103.8313124,1.306608
Raffles Medical,Hospital/Clinic,1,CHANGI BUSINESS PARK CRESCENT ,486025,1 CHANGI BUSINESS PARK CRESCENT #01-11 Plaza 8 S(486025),103.9655777,1.3335096
RAFFLESMEDICAL,Hospital/Clinic,6,Raffles Boulevard ,39594,6 Raffles Boulevard #01-212 Marina Square S(039594),103.8563376,1.2918874
RAFFLESMEDICAL,Hospital/Clinic,131,Jurong Gateway Road ,600131,Blk 131 Jurong Gateway Road #01-267 S(600131),103.740185,1.3346786
RAFFLESMEDICAL,Hospital/Clinic,65,Airport Boulevard ,819663,65 Airport Boulevard #B2-01 Passenger Terminal Bulding 3 S(819663),103.9863275,1.3550914
RAFFLESMEDICAL,Hospital/Clinic,1,Maritime Square ,99253,1 Maritime Square #03-56 Harbourfront Centre S(099253),103.8204657,1.2643008
RAFFLESMEDICAL,Hospital/Clinic,118,Holland Avenue ,278997,118 Holland Avenue #05-02/03/04 Raffles Holland V S(278997),103.7961496,1.310539178
RAFFLESMEDICAL,Hospital/Clinic,1,Scotts Road ,228208,1 Scotts Road #04-09 To 14 Shaw Centre S(228208),103.8313124,1.306608
RAFFLESMEDICAL,Hospital/Clinic,355,Sembawang Way ,750355,Blk 355 Sembawang Way #01-06/07 S(750355),103.8186834,1.44954385
RAFFLESMEDICAL,Hospital/Clinic,370,Alexandra Road ,159953,370 Alexandra Road #B1-41 Anchorpoint S(159953),103.8050952,1.2886745
RAFFLESMEDICAL,Hospital/Clinic,12,Marina Boulevard ,18982,12 Marina Boulevard #17-05 Marina Bay Financial Centre Tower 3 S(018982),103.8543538,1.2790316
RAFFLESMEDICAL,Hospital/Clinic,930,Yishun Avenue 2 ,769098,930 Yishun Avenue 2 #03-35 Northpoint City (North Wing) S(769098),103.8364689,1.4293632
RAFFLESMEDICAL,Hospital/Clinic,51,Anson Road ,79904,51 Anson Road #01-51 Anson Centre S(079904),103.8457109,1.27448845
RAFFLESMEDICAL,Hospital/Clinic,83,Punggol Central ,828761,83 Punggol Central #02-29 Waterway Point S(828761),103.9020102,1.40642655
RAFFLESMEDICAL,Hospital/Clinic,5,Changi Business Park Central 1 ,486038,5 Changi Business Park Central 1 #B1-55/56 Changi City Point S(486038),103.9627854,1.3345959
RAFFLESMEDICAL,Hospital/Clinic,1,Jurong West Central 2 ,648886,1 Jurong West Central 2 #B1A-19D Jurong Point Shopping Centre Jp1 S(648886),103.705254,1.33949635
RAFFLESMEDICAL,Hospital/Clinic,203,Bedok North Street 1 ,460203,Blk 203 Bedok North Street 1 #01-467 S(460203),103.9292675,1.32572745
RAFFLESMEDICAL,Hospital/Clinic,21,Choa Chu Kang North 6 ,689578,Blk 21 Choa Chu Kang North 6 #01-02 Yewtee Point S(689578),103.7467482,1.3968643
RAFFLESMEDICAL,Hospital/Clinic,3,Simei Street 6 ,528833,3 Simei Street 6 #02-27 Eastpoint Mall S(528833),103.95297,1.34281
RAFFLESMEDICAL,Hospital/Clinic,11,Rivervale Crescent ,545082,11 Rivervale Crescent #02-17 Rivervale Mall S(545082),103.904213,1.3923199
RAFFLESMEDICAL,Hospital/Clinic,17,Petir Road ,678278,17 Petir Road #02-07/08 Hillion Mall S(678278),103.7633212,1.37850815
RAFFLESMEDICAL,Hospital/Clinic,809,Hougang Central ,530809,Blk 809 Hougang Central #01-180 S(530809),103.8935517,1.3713266
RAFFLESMEDICAL,Hospital/Clinic,446,Clementi Avenue 3 ,120446,Blk 446 Clementi Avenue 3 #01-189 S(120446),103.7649253,1.31250815
RAFFLESMEDICAL,Hospital/Clinic,23,Serangoon Central ,556083,23 Serangoon Central #B2-01 Nex S(556083),103.8725819,1.3507085
RAFFLESMEDICAL,Hospital/Clinic,1,Pasir Ris Central Street 3 ,518457,Blk 1 Pasir Ris Central Street 3 #04-19 White Sands S(518457),103.9497254,1.37254305
RAFFLESMEDICAL,Hospital/Clinic,10,Tampines Central 1 ,529536,10 Tampines Central 1 #03-28 Tampines One S(529536),103.9450103,1.3540771
RAFFLESMEDICAL,Hospital/Clinic,50,Raffles Place ,48623,50 Raffles Place #01-02A Singapore Land Tower S(048623),103.8520224,1.28470965
RAFFLESMEDICAL,Hospital/Clinic,722,Ang Mo Kio Ave 8 ,560722,Blk 722 Ang Mo Kio Ave 8 #01-2825 S(560722),103.8475053,1.37238505
RAFFLESMEDICAL,Hospital/Clinic,471,Joo Chiat Road,427680,471 Joo Chiat Road S(427680),103.9047716,1.30650545
RAFFLESMEDICAL,Hospital/Clinic,10E,Sixth Avenue,276474,10E Sixth Avenue #01-03 S(276474),103.7949855,1.330971197
RAFFLESMEDICAL,Hospital/Clinic,585,North Bridge Road Level 2,188770,"585 North Bridge Road Level 2, Raffles Hospital S(188770)",103.857108,1.30115
RAFFLESMEDICAL,Hospital/Clinic,177,Toa Payoh Central ,310177,177 Toa Payoh Central #01-170 S(310177),103.8480824,1.333942
RAFFLESMEDICAL,Hospital/Clinic,1,SENGKANG SQUARE COMPASS ONE ,545078,1 SENGKANG SQUARE COMPASS ONE #04-09 545078),103.8949527,1.3920337
RAFFLESMEDICAL (BISHAN),Hospital/Clinic,283,BISHAN STREET 22 ,570283,BLK 283 BISHAN STREET 22 #01-177 S(570283),103.8448227,1.35883325
RAFFLESMEDICAL (CAUSEWAY POINT),Hospital/Clinic,1,Woodlands Square ,738099,1 Woodlands Square #05-20 Causeway Point S(738099),103.7859991,1.4361993
RAFFLESMEDICAL (LOT 1 SHOPPERS MALL),Hospital/Clinic,21,Choa Chu Kang Ave 4 ,689812,21 Choa Chu Kang Ave 4 #B1-07A Lot 1 Shoppers' Mall S(689812),103.7450277,1.38505675
RAFFLESMEDICAL (LOYANG),Hospital/Clinic,259,Pasir Ris Street 21 ,510259,Blk 259 Pasir Ris Street 21 #02-33 Loyang Point S(510259),103.9645143,1.3663512
RAFFLESMEDICAL (RAFFLES CITY),Hospital/Clinic,252,North Bridge Road ,179103,252 North Bridge Road #02-17 Raffles City Shopping Centre S(179103),103.8533428,1.2938961
RAFFLESMEDICAL (SIGLAP),Hospital/Clinic,55,Siglap Road ,455871,55 Siglap Road #02-11/12 Siglap Centre S(455871),103.9260277,1.3089103
RCMC RIVERVALE CRESCENT MEDICAL CENTRE,Hospital/Clinic,182A,RIVERVALE CRESCENT ,541182,BLK 182A RIVERVALE CRESCENT #01-04 S(541182),103.9090298,1.3901864
Red Dot Medical,Hospital/Clinic,660A,EDGEDALE PLAINS ,821660,660A EDGEDALE PLAINS #02-06 WATERWAY SUNDEW S(821660),103.9165726,1.402634
REDWOOD @ TPY CLINIC AND SURGERY PTE. LTD.,Hospital/Clinic,83,Lorong 2 Toa Payoh ,310083,Blk 83 Lorong 2 Toa Payoh #01-457 Toa Payoh Peakview S(310083),103.8468744,1.3346758
RIVERVALE FAMILY CLINIC & SURGERY,Hospital/Clinic,118,RIVERVALE DRIVE ,540118,BLK 118 RIVERVALE DRIVE #01-02 RIVERVALE PLAZA S(540118),103.9016408,1.38522125
ROCHOR CENTRE CLINIC,Hospital/Clinic,175,BENCOOLEN STREET ,189649,BLK 175 BENCOOLEN STREET #01-20 BURLINGTON SQUARE S(189649),103.852631,1.3026077
ROYAL MEDICAL CENTRE,Hospital/Clinic,111,WOODLANDS Street 13 ,730111,BLK 111 WOODLANDS ST 13 #01-84 S(730111),103.7821937,1.4378404
S & L FAMILY CLINIC,Hospital/Clinic,729,Yishun Street 71 ,760729,Blk 729 Yishun St 71 #01-105 S(760729),103.8318663,1.4260582
S AND L FAMILY CLINIC,Hospital/Clinic,235,Yishun Street 21 ,760235,Blk 235 Yishun St 21 #01-446 S(760235),103.8363747,1.4347518
S G CLINIC FAMILY PRACTICE,Hospital/Clinic,84,Serangoon Garden Way,555980,84 Serangoon Garden Way S(555980),103.8650175,1.36431495
SATA COMMHEALTH MEDICAL CENTRE,Hospital/Clinic,351,Chai Chee Street,468982,351 Chai Chee Street S(468982),103.9212924,1.32778095
SATA COMMHEALTH MEDICAL CENTRE,Hospital/Clinic,900,South Woodlands Drive,730900,900 South Woodlands Dr #04-01 Woodlands Civic Centre S(730900),103.7871926,1.4349069
SATA COMMHEALTH MEDICAL CENTRE,Hospital/Clinic,715,Ang Mo Kio Avenue 6 ,560715,Blk 715 Ang Mo Kio Avenue 6 #01-4008 & 4010 S(560715),103.845872,1.370751
SATA COMMHEALTH MEDICAL CENTRE,Hospital/Clinic,135,Jurong Gateway Road ,600135,Blk 135 Jurong Gateway Road #04-345 S(600135),103.7403709,1.334117
SATA COMMHEALTH MEDICAL CENTRE,Hospital/Clinic,1,Siang Kuang Avenue Sennett Estate,347919,1 Siang Kuang Avenue Sennett Estate S(347919),103.8700215,1.32912665
SATA COMMHEALTH MEDICAL CENTRE,Hospital/Clinic,5,Tampines Central 6 ,529482,5 Tampines Central 6 #01-01A Telepark S(529482),103.9420256,1.35328795
SAUDARA CLINIC BY A+J GENERAL PHYSICIANS,Hospital/Clinic,228,Changi Road ,419741,228 Changi Road #01-01 Icon@Changi S(419741),103.9046757,1.317263839
SEACARE MARITIME MEDICAL CENTRE PTE LTD,Hospital/Clinic,100,Tras Street ,79027,100 Tras Street #18-02/03 100Am Tower S(079027),103.8437057,1.2746436
SEMBAWANG MART MEDICAL CENTRE,Hospital/Clinic,511,Canberra Road ,750511,Blk 511 Canberra Road #02-02A Sembawang Mart S(750511),103.8195194,1.453886
SEMBCORP MARINE ADMIRALTY YARD MEDICAL CENTRE,Hospital/Clinic,,ADMIRALTY ROAD WEST,759956,ADMIRALTY ROAD WEST S(759956),103.803944,1.459181
SEMBCORP MARINE TUAS BOULEVARD YARD MEDICAL CENTRE,Hospital/Clinic,80,TUAS SOUTH BOULEVARD,637051,80 TUAS SOUTH BOULEVARD S(637051),103.6142918,1.2647764
SENGKANG FAMILY CLINIC,Hospital/Clinic,274D,Compassvale Bow ,544274,Blk 274D Compassvale Bow #01-01 S(544274),103.8911538,1.382509
Shalom Clinic & Surgery,Hospital/Clinic,123,Bukit MERAH LANE 1 ,150123,BLK 123 BT MERAH LANE 1 #01-104 ALEXANDRA VILLAGE S(150123),103.8053983,1.286545
SHANAH MEDICAL CLINIC PTE LTD,Hospital/Clinic,633,VEERASAMY ROAD ,200633,BLK 633 VEERASAMY ROAD #01-120 S(200633),103.8552663,1.30582635
Shenton Family Medical Clinic,Hospital/Clinic,102,TOWNER ROAD ,322102,BLK 102 TOWNER ROAD #01-268 (Lower Floor) TOWNERVILLE S(322102),103.8620342,1.32059105
SHENTON FAMILY MEDICAL CLINIC (BEDOK RESERVOIR),Hospital/Clinic,744,BEDOK RESERVOIR ROAD ,470744,BLK 744 BEDOK RESERVOIR ROAD #01-3065 S(470744),103.9213307,1.3375424
SHENTON MEDICAL GROUP,Hospital/Clinic,2,Changi Business Park Avenue 1 ,486015,2 Changi Business Park Avenue 1 #01-03 Ue Bizhub East S(486015),103.9630856,1.3358477
SHENTON MEDICAL GROUP,Hospital/Clinic,598,Yishun Ring Road ,768698,598 Yishun Ring Road #B1-09 The Wisteria S(768698),103.8410061,1.4180875
SHENTON MEDICAL GROUP,Hospital/Clinic,263,Serangoon Central Drive ,550263,Blk 263 Serangoon Central Drive #01-59 S(550263),103.8719618,1.35412765
SHENTON MEDICAL GROUP,Hospital/Clinic,10,Sengkang Central ,545061,10 Sengkang Central #01-04 Buangkok Nel Mrt Station S(545061),103.8929445,1.3832816
SHENTON MEDICAL GROUP,Hospital/Clinic,160,Yishun Street 11 ,760160,Blk 160 Yishun Street 11 #01-200 S(760160),103.8333368,1.43236865
SHENTON MEDICAL GROUP,Hospital/Clinic,1,Raffles Quay ,48583,1 Raffles Quay #09-02 One Raffles Quay North Tower S(048583),103.8518895,1.28118375
SHENTON MEDICAL GROUP,Hospital/Clinic,90,Bras Basah Road ,189562,90 Bras Basah Road #B1-02 Esplanade Mrt Station S(189562),103.8553908,1.29348725
SHENTON MEDICAL GROUP,Hospital/Clinic,30,Woodlands Avenue 2 ,738343,30 Woodlands Avenue 2 #01-47/48/49 Woodlands Mrt Station S(738343),103.786504,1.436998
SHENTON MEDICAL GROUP,Hospital/Clinic,11,Collyer Quay ,49317,11 Collyer Quay #19-01 The Arcade S(049317),103.851757,1.2836404
SHENTON MEDICAL GROUP,Hospital/Clinic,33,Sengkang West Avenue ,797653,33 Sengkang West Avenue #01-55/56 The Seletar Mall S(797653),103.8759844,1.391249
SHENTON MEDICAL GROUP,Hospital/Clinic,8A,Marina Boulevard ,18984,8A Marina Boulevard #B2-76 Marina Bay Link Mall S(018984),103.8530087,1.2812488
SHENTON MEDICAL GROUP,Hospital/Clinic,26,Sentosa Gateway ,98138,26 Sentosa Gateway #B2-01 S(098138),103.8199975,1.2564561
SHENTON MEDICAL GROUP,Hospital/Clinic,625,Elias Road ,510625,Blk 625 Elias Road #01-324B Elias Mall S(510625),103.9421553,1.3786288
Shenton Medical Group,Hospital/Clinic,18,TOH YI DRIVE ,590018,BLK 18 TOH YI DRIVE #01-103 TOH YI GARDENS S(590018),103.7731494,1.3399945
SHENTON MEDICAL GROUP,Hospital/Clinic,126,LORONG 1 TOA PAYOH ,310126,BLK 126 LORONG 1 TOA PAYOH #01-561 TOA PAYOH HEIGHTS S(310126),103.8450477,1.3380429
SHENTON MEDICAL GROUP,Hospital/Clinic,1,JURONG WEST CENTRAL 2 ,648886,1 JURONG WEST CENTRAL 2 #01-17E/F/G/H JURONG POINT SHOPPING CENTRE S(648886),103.705254,1.33949635
SHENTON MEDICAL GROUP,Hospital/Clinic,10,Anson Road ,79903,10 ANSON RD #36-8/9/10 INTERNATIONAL PLAZA S(079903),103.8459004,1.275755
Shenton medical group,Hospital/Clinic,1,HarbourFront Place ,98633,1 HarbourFront Place #01-04 HarbourFront Tower One S(098633),103.8191984,1.26471055
SHENTON WELLNESS CENTRE,Hospital/Clinic,460,ALEXANDRA ROAD ,119963,460 ALEXANDRA ROAD #02-15 PSA BUILDING (ALEXANDRA RETAIL CENTRE) S(119963),103.8012186,1.2737212
SHIFA CLINIC & SURGERY,Hospital/Clinic,668,Chander Road,210668,Blk 668 Chander Rd #01-18/20 S(210668),103.8515972,1.30766105
SHIM CLINIC,Hospital/Clinic,168,BEDOK SOUTH AVENUE 3 ,460168,BLK 168 BEDOK SOUTH AVENUE 3 #01-473 S(460168),103.9445768,1.3199937
SHINE FAMILY CLINIC,Hospital/Clinic,463,JURONG WEST STREET 41 ,640463,BLK 463 JURONG WEST STREET 41 #01-560 S(640463),103.7229812,1.3505812
SIA ALH Clinic,Hospital/Clinic,25,AIRLINE ROAD AIRLINE HOUSE,819829,25 AIRLINE ROAD AIRLINE HOUSE S(819829),103.9972261,1.377511945
SIA TRAINING CENTRE CLINIC,Hospital/Clinic,720,UPPER CHANGI ROAD EAST,486852,720 UPPER CHANGI ROAD EAST S(486852),103.9658384,1.34571245
SILVER CROSS MEDICAL,Hospital/Clinic,846,Yishun Ring Road,760846,Blk 846 Yishun Ring Road #01-3661 S(760846),103.83451,1.41672
SILVER CROSS MEDICAL,Hospital/Clinic,502,Jurong West Ave 1,640502,Blk 502 Jurong West Ave 1 #01-803 S(640502),103.7181864,1.3504414
SILVER CROSS MEDICAL,Hospital/Clinic,275A,Holland Avenue,278993,275A Holland Avenue S(278993),103.79528,1.311984871
SILVER CROSS MEDICAL,Hospital/Clinic,3,Cheong Chin Nam Road,599728,3 Cheong Chin Nam Road S(599728),103.7753228,1.34232475
SIMON ROAD FAMILY CLINIC,Hospital/Clinic,9,Simon Road,545895,Blk 9 Simon Road S(545895),103.8859342,1.361994715
SIMS DRIVE MEDICAL CLINIC,Hospital/Clinic,53,Sims Place,380053,Blk 53 Sims Place #01-174 S(380053),103.8801042,1.31782955
SINGAPURA CLINIC,Hospital/Clinic,27,BENCOOLEN STREET ,189620,27 Bencoolen St #01-27 Bencoolen House S(189620),103.8516212,1.3003614
"SMG DIABETES, THYROID & ENDOCRINE CLINIC",Hospital/Clinic,38,IRRAWADDY ROAD,329563,38 IRRAWADDY ROAD #05-34/35 MOUNT ELIZABETH NOVENA SPECIALIST CENTRE S(329563),103.8442653,1.3220927
SMRT MEDICAL CLINIC @ BISHAN DEPOT,Hospital/Clinic,300,Bishan Road Mrt Depot,579828,300 Bishan Road Mrt Depot S(579828),103.85508,1.352869
SMRT MEDICAL CLINIC @ WOODLANDS DEPOT,Hospital/Clinic,60,Woodlands Industrial Park E4,757705,60 Woodlands Industrial Park E4 S(757705),103.7969176,1.4474408
SOON LEE MEDICAL CLINIC,Hospital/Clinic,3,SOON LEE STREET,627606,3 SOON LEE STREET #01-15 PIONEER JUNCTION S(627606),103.6969479,1.3336311
Speedoc ,Hospital/Clinic,991C,ALEXANDRA ROAD,119971,991C ALEXANDRA ROAD #1-13b S(119971),103.8043503,1.273718933
ST Engineering In-house Clinic (Ang Mo Kio),Hospital/Clinic,24,ANG MO KIO Street 65,569061,24 ANG MO KIO ST 65 S(569061),103.8492444,1.3915825
STAMFORD MEDICAL GROUP PTE LTD,Hospital/Clinic,681,Race Course Road ,210681,Blk 681 Race Course Road #01-303 S(210681),103.8555765,1.3140025
STANDARD CLINIC & SURGERY,Hospital/Clinic,261,Punggol Way ,820261,261 Punggol Way #01-05 Multi Storey Car Park S(820261),103.8968874,1.4054147
StarMed Specialist Centre,Hospital/Clinic,500,OLD CHOA CHU KANG ROAD ,698924,500 OLD CHOA CHU KANG ROAD #01-68 SUNGEI TENGAH LODGE S(698924),103.7185358,1.3767771
STARMED SPECIALIST CENTRE PTE LTD,Hospital/Clinic,12,Farrer Park Station Road ,217565,12 Farrer Park Station Road #01- 05/06/07/08/09 S(217565),103.8546429,1.3122814
STERLING FAMILY CLINIC,Hospital/Clinic,84,BEDOK NORTH Street 4 ,460084,BLK 84 BEDOK NORTH ST 4 #01-41 S(460084),103.9399758,1.3312519
Steward Clinic,Hospital/Clinic,4A ,LOYANG LANE ,508923,BLK 4A LOYANG LANE #01-01 S(508923),103.970238,1.3714886
STREET 11 CLINIC,Hospital/Clinic,139,Tampines Street 11 ,521139,Blk 139 Tampines St 11 #01-18 S(521139),103.9450248,1.34637605
SUMMIT MEDICAL CLINIC,Hospital/Clinic,632,Ang Mo Kio Ave 4 ,560632,Blk 632 Ang Mo Kio Ave 4 #01-956 S(560632),103.8412851,1.3802356
Sunbeam Medical Anchorvale,Hospital/Clinic,318B,ANCHORVALE LINK ,542318,BLK 318B ANCHORVALE LINK #01-257 ANCHORVALE GARDENS S(542318),103.8892811,1.3939865
Sunbeam Medical Clinic,Hospital/Clinic,443C,FAJAR ROAD ,673443,BLK 443C FAJAR ROAD #01-76 S(673443),103.7697245,1.38051465
Suncare medical clinic (sengkang west),Hospital/Clinic,455,SENGKANG WEST AVENUE ,790455,BLK 455 SENGKANG WEST AVENUE #01-08 MULTI STOREY CAR PARK S(790455),103.871457,1.3918936
T MEDICAL CLINIC,Hospital/Clinic,115,Canberra Walk ,750115,Blk 115 Canberra Walk #01-05 S(750115),103.8287387,1.4460686
T MEDICAL CLINIC (CITY GATE),Hospital/Clinic,371,Beach Road ,199597,371 Beach Road #02-01 City Gate S(199597),103.8626533,1.3021342
T MEDICAL CLINIC (KALLANG),Hospital/Clinic,5,Upper Boon Keng Road ,380005,Blk 5 Upper Boon Keng Road #01-14 Kallang Heights S(380005),103.8723891,1.31259415
TAMPINES CLINIC AND SURGERY PTE LTD,Hospital/Clinic,139,TAMPINES Street 11 ,521139,BLK 139 TAMPINES ST 11 #01-10 S(521139),103.9450248,1.34637605
TAMPINES FAMILY MEDICINE CLINIC,Hospital/Clinic,1,Tampines Walk ,528523,1 Tampines Walk #03-34 Our Tampines Hub S(528523),103.9390113,1.3556049
TAMPINES MEDILIFE CLINIC,Hospital/Clinic,801,TAMPINES AVE 4 ,520801,BLK 801 TAMPINES AVE 4 #01-263 S(520801),103.9380431,1.347181
Tampines West Medical Clinic,Hospital/Clinic,801,TAMPINES AVENUE 4 ,520801,BLK 801 TAMPINES AVENUE 4 #01-269 TAMPINES POLYVIEW S(520801),103.9380431,1.347181
TAN & YIK CLINIC & SURGERY,Hospital/Clinic,116,Bishan Street 12 ,570116,Blk 116 Bishan Street 12 #01-36 S(570116),103.8495469,1.34753865
Tanâ€™s T&T Clinic and Surgery,Hospital/Clinic,152,BISHAN STREET 11 ,570152,BLK 152 BISHAN STREET 11 #01-213 BISHAN GREEN S(570152),103.8548047,1.34557175
TANGLIN MEDICAL CLINIC,Hospital/Clinic,19,TANGLIN Road ,PING C,19 TANGLIN RD #06-16/17 TANGLIN SHOPPING C,103.8268656,1.306304
TANJONG PAGAR MEDICAL CLINIC,Hospital/Clinic,1,TANJONG PAGAR PLAZA ,82001,BLK 1 TANJONG PAGAR PLAZA #01-06 S(082001),103.8429932,1.2755704
Tay Clinic,Hospital/Clinic,494,GEYLANG Road,389452,494 GEYLANG RD S(389452),103.8914974,1.3149406
TAYKA MEDICAL,Hospital/Clinic,29A,Desker Road,209562,29A Desker Road S(209562),103.8568516,1.3079446
TAYKA MEDICAL FAMILY CLINIC,Hospital/Clinic,526,Jurong West Street 52 ,640526,Blk 526 Jurong West Street 52 #01-323 S(640526),103.7170846,1.3475136
TC FAMILY CLINIC PTE LTD,Hospital/Clinic,526,Jurong West Street 52 ,640526,Blk 526 Jurong West St 52 #01-325 S(640526),103.7170846,1.3475136
TEMASEK CLINIC & SURGERY,Hospital/Clinic,73,Bedok South Avenue 3 ,460073,Blk 73 Bedok South Avenue 3 #01-460 S(460073),103.9439649,1.31982465
Temasek Medical Centre,Hospital/Clinic,624,CHOA CHU KANG Street 62 ,680624,BLK 624 CHOA CHU KANG ST 62 #01-226 S(680624),103.7469021,1.3979868
The Balmoral Clinic Family Medicine,Hospital/Clinic,271,BUKIT TIMAH Road ,259708,271 BUKIT TIMAH RD #02-12 BALMORAL PLAZA S(259708),103.8355655,1.3163433
The Breast Clinic,Hospital/Clinic,290,Orchard Road ,238859,290 Orchard Road #16-12 Paragon S(238859),103.8355203,1.3037371
THE CHELSEA CLINIC (ROCHESTER),Hospital/Clinic,35,ROCHESTER DRIVE ,138639,35 ROCHESTER DRIVE #03-21 THE ROCHESTER S(138639),103.7883792,1.305767998
THE CLINIC @ CAMPUS,Hospital/Clinic,70,Stamford Road ,178901,70 Stamford Road #B1-21 Li Ka Shing Library Building S(178901),103.8501329,1.2967868
THE CLINIC @ ONE GEORGE STREET,Hospital/Clinic,1,George Street ,49145,1 George Street #05-05 (Lobby C) S(049145),103.8478216,1.286052926
The ClinIQ@Toa Payoh,Hospital/Clinic,8,LORONG 7 TOA PAYOH ,310008,BLK 8 LORONG 7 TOA PAYOH #01-291 TOA PAYOH COURT S(310008),103.8568719,1.3376641
THE DUBLIN CLINIC,Hospital/Clinic,109,Clementi Street 11 ,120109,Blk 109 Clementi Street 11 #01-25 S(120109),103.7705791,1.3217992
THE FAMILY PHYSICIAN CLINIC,Hospital/Clinic,542B,Serangoon North Avenue 3 ,552542,Blk 542B Serangoon North Avenue 3 #01-02 S(552542),103.8714242,1.37369355
THE FLAME TREE MEDICAL CENTRE,Hospital/Clinic,225,UPPER THOMSON ROAD,574357,225 UPPER THOMSON ROAD THOMSON RIDGE ESTATE S(574357),103.8246164,1.3841449
THE GOOD CLINIC,Hospital/Clinic,5001,Beach Road ,199588,5001 Beach Road #01-13 Golden Mile Complex S(199588),103.86508,1.30272415
THE GOOD LIFE MEDICAL CENTER,Hospital/Clinic,820,THOMSON ROAD ,574623,820 THOMSON ROAD #07-57 MOUNT ALVERNIA HOSPITAL S(574623),103.8384594,1.3424871
THE ICLINIC,Hospital/Clinic,18,Jalan Membina ,164018,Blk 18 Jalan Membina #02-07 S(164018),103.8268972,1.28554555
The Integrative Medical Centre by The Iron Suites,Hospital/Clinic,491B,River Valley Road ,248373,491B River Valley Road #11-02 Valley Point S(248373),103.834147,1.2961099
"THE JAPANESE ASSOCIATION CLINIC, SINGAPORE",Hospital/Clinic,120,Adam Road,289899,120 Adam Rd S(289899),103.8160243,1.33062615
THE MEDICAL AND AESTHETIC CLINIC PTE LTD,Hospital/Clinic,270,SIMS AVENUE,387514,BLK 270 SIMS AVENUE S(387514),103.8832257,1.315080127
THE MEDICAL CLINIC PTE LTD,Hospital/Clinic,63,Chulia Street,49514,63 Chulia Street. #01-02 Ocbc Centre East S(049514),103.849759,1.2849337
THE MEDICAL PRACTICE PTE LTD,Hospital/Clinic,1,RAFFLES LINK ,39393,1 RAFFLES LINK #01-03A S(039393),103.8535632,1.2926202
THE OCCUPATIONAL AND DIVING MEDICINE CENTRE,Hospital/Clinic,20,LOWER KENT RIDGE ROAD UNIVERSITY HEALTH CENTRE,119080,20 LOWER KENT RIDGE ROAD UNIVERSITY HEALTH CENTRE S(119080),103.77632,1.298993
The Pinnacle Medical & Dental Centre @ Maritime,Hospital/Clinic,120,CANTONMENT ROAD ,89760,120 CANTONMENT ROAD #02-06 MARITIME HOUSE S(089760),103.8403599,1.27654685
The S'pore Gastroenterology & Liver Internist Centre,Hospital/Clinic,6A ,NAPIER ROAD ,258500,6A NAPIER ROAD #03-37B GLENEAGLES HOSPITAL ANNEXE BLOCK S(258500),103.8198882,1.30766543
THE TENTERAM CLINIC,Hospital/Clinic,116B,Jalan Tenteram ,322116,Blk 116B Jalan Tenteram #01-549 Tenteram Peak S(322116),103.8607382,1.32764525
Thomson GP Clinic,Hospital/Clinic,2,BALESTIER ROAD ,320002,2 BALESTIER ROAD #01-671 BALESTIER HILL SHOPPING CENTRE S(320002),103.8422163,1.3259929
THOMSON MEDICAL CENTRE,Hospital/Clinic,339,Thomson Road,307677,339 Thomson Road S(307677),103.8415182,1.3253374
TIONG BAHRU MEDICAL CENTRE,Hospital/Clinic,10,KIM TIAN ROAD,169248,10 KIM TIAN ROAD KAI FOOK MANSION S(169248),103.8274636,1.2799669
Town Clinic,Hospital/Clinic,287,BEACH ROAD ,199551,287 BEACH ROAD #01-00 S(199551),103.8605028,1.300984
TP SIM FAMILY CLINIC & SURGERY,Hospital/Clinic,509,Bishan Street 11 ,570509,Blk 509 Bishan Street 11 #01-378 S(570509),103.849527,1.34854475
TPC Medical Clinic,Hospital/Clinic,7,WALLICH STREET ,78884,7 WALLICH STREET #B1-15 TANJONG PAGAR CENTRE S(078884),103.8458412,1.2774089
TRINITY MEDICAL & AESTHETIC CLINIC,Hospital/Clinic,151,Simei Street 1 ,520151,Blk 151 Simei Street 1 #01-33 S(520151),103.9571739,1.3458442
TRINITY MEDICAL (PUNGGOL),Hospital/Clinic,273C,PUNGGOL PLACE ,823273,BLK 273C PUNGGOL PLACE #01-874 S(823273),103.9012737,1.4022354
TRINITY MEDICAL (SHENTON),Hospital/Clinic,6,Shenton Way ,68809,6 Shenton Way #21-10 Oue Downtown S(068809),103.8486797,1.27741565
TRINITY MEDICAL CLINIC,Hospital/Clinic,130,Jurong Gateway Road ,600130,Blk 130 Jurong Gateway Road #02-205/207 S(600130),103.7391045,1.33488305
Trucare Medical and Surgery,Hospital/Clinic,51,Havelock Road,161051,"51 Havelock Road, #01-04 161051)",103.8276779,1.2899426
TRUCARE MEDICAL AND SURGERY,Hospital/Clinic,1187,Upper Serangoon Road ,533971,1187 Upper Serangoon Road #01-53 The Midtown S(533971),103.8705004,1.3433118
TRUCARE MEDICAL AND SURGERY,Hospital/Clinic,226A,Ang Mo Kio Avenue 1 ,561226,Blk 226A Ang Mo Kio Avenue 1 #01-631 Kebun Baru Mall S(561226),103.8392767,1.3674912
TRUE MEDICAL CLINIC PAYA LEBAR QUARTER,Hospital/Clinic,10,Paya Lebar Road ,409057,10 Paya Lebar Road #04-26 Paya Lebar Quarter S(409057),103.8929956,1.317775
TRUE MEDICAL CLINIC TAMPINES WEST,Hospital/Clinic,824,Tampines Street 81 ,520824,824 Tampines Street 81 #01-26 Tampines Grove S(520824),103.9323126,1.3494714
TrueCare Clinic (Eastpoint),Hospital/Clinic,3,SIMEI STREET 6 ,528833,3 SIMEI STREET 6 #01-09/10/11 EASTPOINT MALL S(528833),103.95297,1.34281
TUAS SOUTH MEDICAL CENTRE,Hospital/Clinic,6,Tuas South Street 15 ,636906,6 Tuas South Street 15 #01-103 Cdpl (Tuas) Dormitory S(636906),103.6369428,1.2723545
Tuas View Medical Centre,Hospital/Clinic,70,TUAS SOUTH AVENUE 1 ,637285,70 TUAS SOUTH AVENUE 1 #02-00 TUAS VIEW DORMITORY S(637285),103.6294373,1.3205851
TWIN CITY MEDICAL CENTRE,Hospital/Clinic,1,Kim Seng Promenade ,237994,1 Kim Seng Promenade #01-136 Great World City S(237994),103.8319923,1.2939643
UBI FAMILY CLINIC & SURGERY,Hospital/Clinic,305,UBI AVENUE 1 ,400305,BLK 305 UBI AVENUE 1 #01-167 S(400305),103.9023481,1.3294804
UNIHEALTH 24-HR CLINIC (JURONG EAST),Hospital/Clinic,135,Jurong Gateway Road ,600135,Blk 135 Jurong Gateway Road #01-317 S(600135),103.7403709,1.334117
UNIHEALTH 24-HR CLINIC (TOA PAYOH),Hospital/Clinic,178,Toa Payoh Central ,310178,Blk 178 Toa Payoh Central #01-218 S(310178),103.8494768,1.3335413
University Health Centre,Hospital/Clinic,20,LOWER KENT RIDGE ROAD ,119080,20 LOWER KENT RIDGE ROAD #01-00 S(119080),103.7805713,1.2974121
Urgent Care Clinic International,Hospital/Clinic,181,KITCHENER ROAD ,208533,181 KITCHENER ROAD #01-01 PARKROYAL ON KITCHENER ROAD S(208533),103.855623,1.3106252
VICTORY CLINIC AND SURGERY,Hospital/Clinic,21,Ghim Moh Road ,270021,Blk 21 Ghim Moh Road #01-205 S(270021),103.789086,1.3103391
VISTA MEDICAL CENTRE,Hospital/Clinic,3,SOUTH BUONA VISTA ROAD ,118136,3 SOUTH BUONA VISTA ROAD #01-30/31 VIVA VISTA S(118136),103.7858028,1.294831
VITACARE FAMILY CLINIC @ CANBERRA PTE. LTD.,Hospital/Clinic,361,SEMBAWANG CRESCENT ,750361,BLK 361 SEMBAWANG CRESCENT #01-06 S(750361),103.8143512,1.4462194
VITAL-CARE CLINIC AND SURGERY PTE LTD,Hospital/Clinic,525,Ang Mo Kio Avenue 10 ,560525,Blk 525 Ang Mo Kio Avenue 10 #01-2399 Cheng San Centre  S(560525),103.8538715,1.3726391
VIVA MEDICAL GROUP (CANBERRA PLAZA),Hospital/Clinic,133,CANBERRA VIEW ,750133,BLK 133 CANBERRA VIEW #02-14 CANBERRA PLAZA S(750133),103.830618,1.4431568
Vivien@Robinson.Practice,Hospital/Clinic,80,ROBINSON ROAD ,68898,80 ROBINSON ROAD #01-01A S(068898),103.8494279,1.280473448
WAN MEDICAL CLINIC,Hospital/Clinic,416,BEDOK NORTH AVENUE 2 ,460416,BLK 416 BEDOK NORTH AVENUE 2 #01-21 S(460416),103.9308553,1.3278193
WELL FAMILY CLINIC & SURGERY,Hospital/Clinic,555,ANG MO KIO AVENUE 10 ,560555,BLK 555 ANG MO KIO AVENUE 10 #01-1948 S(560555),103.8570215,1.3712299
WEN & WENG FAMILY CLINIC,Hospital/Clinic,505,CANBERRA LINK ,750505,BLK 505 CANBERRA LINK #01-03 S(750505),103.8225328,1.4502799
West Point Clinic & Surgery,Hospital/Clinic,130,JURONG GATEWAY ROAD ,600130,BLK 130 JURONG GATEWAY ROAD #01-235 S(600130),103.7391045,1.33488305
WL&H MEDICAL,Hospital/Clinic,1,Scotts Road ,228208,1 Scotts Road #20-11 Shaw Centre S(228208),103.8313124,1.306608
WONG CLINIC,Hospital/Clinic,539,Bedok North Street 3 ,460539,Blk 539 Bedok North Street 3 #01-603 S(460539),103.9248334,1.3316124
Woodgrove Medical,Hospital/Clinic,30,WOODLANDS AVENUE 1 ,739065,30 WOODLANDS AVENUE 1 #02-03/04 THE WOODGROVE S(739065),103.7811686,1.4290442
Woodlands Clinic,Hospital/Clinic,131,MARSILING RISE ,730131,BLK 131 MARSILING RISE #01-204 S(730131),103.7786171,1.4384946
WOODLANDS MEDICAL CENTRE,Hospital/Clinic,210,Marsiling Crescent ,730210,Blk 210 Marsiling Crescent #01-09 S(730210),103.7736707,1.4462146
Yang & Yap Clinic & Surgery,Hospital/Clinic,537,BEDOK NORTH ST 3 ,460537,BLK 537 BEDOK NORTH ST 3 #01-571 S(460537),103.923692,1.332013
YAO MEDICAL CLINIC,Hospital/Clinic,419,TAMPINES STREET 41 ,520419,BLK 419 TAMPINES STREET 41 #01-96 S(520419),103.9464942,1.35803665
YAP MEDICARE CLINIC & SURGERY,Hospital/Clinic,8,EMPRESS Road,260008,BLK 8 EMPRESS RD #01-03 S(260008),103.8056323,1.3166554
Yarra Medical Clinic,Hospital/Clinic,1,WEST COAST DRIVE ,128020,1 WEST COAST DRIVE #01-11 NEWEST S(128020),103.7575199,1.3159464
YIM CLINIC,Hospital/Clinic,11A,Boon Tiong Road ,161011,11A Boon Tiong Road #02-03/04/05 S(161011),103.8289178,1.28611055
YIM MEDICAL CENTRE (ADMIRALTY MRT),Hospital/Clinic,678,Woodlands Ave 6 ,730678,678 Woodlands Ave 6 #01-722 S(730678),103.8017118,1.4405121
ZENITH MEDICAL CLINIC,Hospital/Clinic,266C,Punggol Way ,823266,Blk 266C Punggol Way #01-374 S(823266),103.8975981,1.4051692
