Location_Name,Location_Type,Blk_No,Address,Postal_Code,Full_Address,Long,Lat
BUKIT MERAH,HDB 4 ROOM,50,MOH GUAN TER,,,103.8306218,1.2838767
CENTRAL AREA,HDB 5 ROOM,1D,CANTONMENT RD,,,103.84149595,1.2769187
TOA PAYOH,HDB 5 ROOM,139B,LOR 1A TOA PAYOH,,,103.843992,1.336714
BISHAN,HDB 5 ROOM,273B,BISHAN ST 24,,,103.84347035831968,1.3560851
BUKIT MERAH,HDB 5 ROOM,95C,HENDERSON RD,,,103.82205117375094,1.28741125
TOA PAYOH,HDB 5 ROOM,139B,LOR 1A TOA PAYOH,,,103.843992,1.336714
QUEENSTOWN,HDB 5 ROOM,92,DAWSON RD,,,103.81114874168577,1.2951394
CENTRAL AREA,HDB 4 ROOM,1B,CANTONMENT RD,,,103.84140360852476,1.2777916500000002
BUKIT MERAH,HDB 5 ROOM,96A,HENDERSON RD,,,103.82194338895745,1.2879795500000002
CENTRAL AREA,HDB 5 ROOM,1G,CANTONMENT RD,,,103.84130749625815,1.2755656499999999
CENTRAL AREA,HDB 4 ROOM,1C,CANTONMENT RD,,,103.84166719999999,1.27743925
CENTRAL AREA,HDB 5 ROOM,1G,CANTONMENT RD,,,103.84130749625815,1.2755656499999999
BISHAN,HDB 5 ROOM,273A,BISHAN ST 24,,,103.84393683957725,1.35638725
BISHAN,HDB 5 ROOM,273A,BISHAN ST 24,,,103.84393683957725,1.35638725
CENTRAL AREA,HDB 5 ROOM,1F,CANTONMENT RD,,,103.84120937106636,1.2759757
TOA PAYOH,HDB 5 ROOM,138A,LOR 1A TOA PAYOH,,,103.845592,1.336712
BUKIT MERAH,HDB 5 ROOM,96A,HENDERSON RD,,,103.82194338895745,1.2879795500000002
CENTRAL AREA,HDB 5 ROOM,1E,CANTONMENT RD,,,103.84115963216871,1.2766102
TOA PAYOH,HDB 5 ROOM,138C,LOR 1A TOA PAYOH,,,103.844796,1.336258
TOA PAYOH,HDB 5 ROOM,138C,LOR 1A TOA PAYOH,,,103.844796,1.336258
BUKIT MERAH,HDB 5 ROOM,96A,HENDERSON RD,,,103.82194338895745,1.2879795500000002
CENTRAL AREA,HDB 4 ROOM,1D,CANTONMENT RD,,,103.84149595,1.2769187
TOA PAYOH,HDB 5 ROOM,138A,LOR 1A TOA PAYOH,,,103.845592,1.336712
BISHAN,HDB 5 ROOM,273B,BISHAN ST 24,,,103.84347035831968,1.3560851
TOA PAYOH,HDB 5 ROOM,138A,LOR 1A TOA PAYOH,,,103.845592,1.336712
CENTRAL AREA,HDB 5 ROOM,1E,CANTONMENT RD,,,103.84115963216871,1.2766102
TOA PAYOH,HDB 5 ROOM,138C,LOR 1A TOA PAYOH,,,103.844796,1.336258
CENTRAL AREA,HDB 5 ROOM,1B,CANTONMENT RD,,,103.84140360852476,1.2777916500000002
CENTRAL AREA,HDB 5 ROOM,1E,CANTONMENT RD,,,103.84115963216871,1.2766102
BISHAN,HDB 5 ROOM,273A,BISHAN ST 24,,,103.84393683957725,1.35638725
CENTRAL AREA,HDB 5 ROOM,1C,CANTONMENT RD,,,103.84166719999999,1.27743925
TOA PAYOH,HDB 5 ROOM,138B,LOR 1A TOA PAYOH,,,103.845503,1.336272
BISHAN,HDB 5 ROOM,273A,BISHAN ST 24,,,103.84393683957725,1.35638725
TOA PAYOH,HDB 5 ROOM,138A,LOR 1A TOA PAYOH,,,103.845592,1.336712
QUEENSTOWN,HDB 5 ROOM,92,DAWSON RD,,,103.81114874168577,1.2951394
TOA PAYOH,HDB 5 ROOM,138C,LOR 1A TOA PAYOH,,,103.844796,1.336258
BUKIT MERAH,HDB 5 ROOM,9B,BOON TIONG RD,,,103.8312372,1.2864563
BUKIT MERAH,HDB 5 ROOM,96A,HENDERSON RD,,,103.82194338895745,1.2879795500000002
BUKIT MERAH,HDB 5 ROOM,126A,KIM TIAN RD,,,103.82954689078773,1.2828631499999998
CENTRAL AREA,HDB 4 ROOM,1B,CANTONMENT RD,,,103.84140360852476,1.2777916500000002
CENTRAL AREA,HDB 4 ROOM,1G,CANTONMENT RD,,,103.84130749625815,1.2755656499999999
BISHAN,HDB 5 ROOM,273A,BISHAN ST 24,,,103.84393683957725,1.35638725
BISHAN,HDB 5 ROOM,275A,BISHAN ST 24,,,103.8433771625958,1.35673585
CENTRAL AREA,HDB 5 ROOM,1B,CANTONMENT RD,,,103.84140360852476,1.2777916500000002
CENTRAL AREA,HDB 4 ROOM,1G,CANTONMENT RD,,,103.84130749625815,1.2755656499999999
CENTRAL AREA,HDB 5 ROOM,1E,CANTONMENT RD,,,103.84115963216871,1.2766102
CENTRAL AREA,HDB 4 ROOM,1G,CANTONMENT RD,,,103.84130749625815,1.2755656499999999
QUEENSTOWN,HDB 5 ROOM,88,DAWSON RD,,,103.80946052594598,1.29587985
BUKIT TIMAH,HDB EXECUTIVE,2,TOH YI DR,,,103.77544139072614,1.3390216000000001
TOA PAYOH,HDB 5 ROOM,139A,LOR 1A TOA PAYOH,,,103.843925,1.336275
BISHAN,HDB 5 ROOM,273A,BISHAN ST 24,,,103.84393683957725,1.35638725
BISHAN,HDB 5 ROOM,273A,BISHAN ST 24,,,103.84393683957725,1.35638725
BUKIT TIMAH,HDB EXECUTIVE,3,TOH YI DR,,,103.77094288747772,1.3352358500000001
BISHAN,HDB 5 ROOM,273B,BISHAN ST 24,,,103.84347035831968,1.3560851
BUKIT MERAH,HDB 5 ROOM,9B,BOON TIONG RD,,,103.8312372,1.2864563
CENTRAL AREA,HDB 4 ROOM,1B,CANTONMENT RD,,,103.84140360852476,1.2777916500000002
KALLANG/WHAMPOA,HDB 5 ROOM,7,BOON KENG RD,,,103.86189918155178,1.31677585
CENTRAL AREA,HDB 5 ROOM,1C,CANTONMENT RD,,,103.84166719999999,1.27743925
TOA PAYOH,HDB 5 ROOM,152,LOR 2 TOA PAYOH,,,103.845894,1.334172
CENTRAL AREA,HDB 5 ROOM,1B,CANTONMENT RD,,,103.84140360852476,1.2777916500000002
BISHAN,HDB EXECUTIVE,101,BISHAN ST 12,,,103.84839169561744,1.34485265
TOA PAYOH,HDB 5 ROOM,139A,LOR 1A TOA PAYOH,,,103.843925,1.336275
QUEENSTOWN,HDB EXECUTIVE,150,MEI LING ST,,,103.80349801615912,1.2949669
BUKIT TIMAH,HDB EXECUTIVE,3,TOH YI DR,,,103.77094288747772,1.3352358500000001
BISHAN,HDB 5 ROOM,275A,BISHAN ST 24,,,103.8433771625958,1.35673585
CENTRAL AREA,HDB 5 ROOM,1D,CANTONMENT RD,,,103.84149595,1.2769187
TOA PAYOH,HDB 5 ROOM,139A,LOR 1A TOA PAYOH,,,103.843925,1.336275
BISHAN,HDB EXECUTIVE,453,SIN MING AVE,,,103.8295354,1.3593594
BUKIT MERAH,HDB 5 ROOM,9B,BOON TIONG RD,,,103.8312372,1.2864563
BUKIT TIMAH,HDB EXECUTIVE,6,TOH YI DR,,,103.77536274494624,1.3377003
KALLANG/WHAMPOA,HDB 5 ROOM,7,BOON KENG RD,,,103.86189918155178,1.31677585
TOA PAYOH,HDB 5 ROOM,138B,LOR 1A TOA PAYOH,,,103.845503,1.336272
CENTRAL AREA,HDB 5 ROOM,1A,CANTONMENT RD,,,103.84095280047099,1.2778303
CENTRAL AREA,HDB 5 ROOM,1B,CANTONMENT RD,,,103.84140360852476,1.2777916500000002
CLEMENTI,HDB 5 ROOM,441A,CLEMENTI AVE 3,,,103.7635208,1.3145027
CLEMENTI,HDB 5 ROOM,440C,CLEMENTI AVE 3,,,103.7635208,1.3145027
BUKIT MERAH,HDB 5 ROOM,9B,BOON TIONG RD,,,103.8312372,1.2864563
BUKIT TIMAH,HDB EXECUTIVE,3,TOH YI DR,,,103.77094288747772,1.3352358500000001
BISHAN,HDB 5 ROOM,273B,BISHAN ST 24,,,103.84347035831968,1.3560851
BISHAN,HDB 5 ROOM,273B,BISHAN ST 24,,,103.84347035831968,1.3560851
TOA PAYOH,HDB 5 ROOM,139A,LOR 1A TOA PAYOH,,,103.843925,1.336275
QUEENSTOWN,HDB 5 ROOM,88,DAWSON RD,,,103.80946052594598,1.29587985
BISHAN,HDB EXECUTIVE,135,BISHAN ST 12,,,103.85128034561743,1.34456145
CENTRAL AREA,HDB 4 ROOM,1E,CANTONMENT RD,,,103.84115963216871,1.2766102
QUEENSTOWN,HDB 5 ROOM,88,DAWSON RD,,,103.80946052594598,1.29587985
KALLANG/WHAMPOA,HDB 3 ROOM,39,JLN BAHAGIA,,,103.85611200749386,1.3271959
KALLANG/WHAMPOA,HDB 5 ROOM,8,BOON KENG RD,,,103.861626131257,1.3164065
CENTRAL AREA,HDB 5 ROOM,1C,CANTONMENT RD,,,103.84166719999999,1.27743925
BISHAN,HDB 5 ROOM,275A,BISHAN ST 24,,,103.8433771625958,1.35673585
TOA PAYOH,HDB 5 ROOM,139B,LOR 1A TOA PAYOH,,,103.843992,1.336714
KALLANG/WHAMPOA,HDB 5 ROOM,8,BOON KENG RD,,,103.861626131257,1.3164065
CENTRAL AREA,HDB 5 ROOM,1C,CANTONMENT RD,,,103.84166719999999,1.27743925
BISHAN,HDB 5 ROOM,273B,BISHAN ST 24,,,103.84347035831968,1.3560851
CENTRAL AREA,HDB 5 ROOM,1A,CANTONMENT RD,,,103.84095280047099,1.2778303
TOA PAYOH,HDB 5 ROOM,138A,LOR 1A TOA PAYOH,,,103.845592,1.336712
QUEENSTOWN,HDB EXECUTIVE,150,MEI LING ST,,,103.80349801615912,1.2949669
CENTRAL AREA,HDB 5 ROOM,1C,CANTONMENT RD,,,103.84166719999999,1.27743925
QUEENSTOWN,HDB EXECUTIVE,149,MEI LING ST,,,103.8049261955866,1.29486925
BUKIT MERAH,HDB 5 ROOM,125,KIM TIAN RD,,,103.828282666071,1.2836184
CENTRAL AREA,HDB 5 ROOM,1B,CANTONMENT RD,,,103.84140360852476,1.2777916500000002
BUKIT MERAH,HDB 5 ROOM,96A,HENDERSON RD,,,103.82194338895745,1.2879795500000002
CENTRAL AREA,HDB 5 ROOM,1B,CANTONMENT RD,,,103.84140360852476,1.2777916500000002
BISHAN,HDB 5 ROOM,273B,BISHAN ST 24,,,103.84347035831968,1.3560851
TOA PAYOH,HDB 5 ROOM,138C,LOR 1A TOA PAYOH,,,103.844796,1.336258
BISHAN,HDB 5 ROOM,273B,BISHAN ST 24,,,103.84347035831968,1.3560851
QUEENSTOWN,HDB EXECUTIVE,148,MEI LING ST,,,103.80448307932465,1.2943763
CENTRAL AREA,HDB 4 ROOM,1A,CANTONMENT RD,,,103.84095280047099,1.2778303
QUEENSTOWN,HDB 5 ROOM,93,DAWSON RD,,,103.81159928670759,1.2950553
QUEENSTOWN,HDB 5 ROOM,86,DAWSON RD,,,103.8104373980855,1.2957434
CENTRAL AREA,HDB 4 ROOM,1E,CANTONMENT RD,,,103.84115963216871,1.2766102
QUEENSTOWN,HDB 5 ROOM,18C,HOLLAND DR,,,103.79185364147031,1.31040465
CENTRAL AREA,HDB 5 ROOM,1A,CANTONMENT RD,,,103.84095280047099,1.2778303
BUKIT TIMAH,HDB EXECUTIVE,3,TOH YI DR,,,103.77094288747772,1.3352358500000001
BUKIT MERAH,HDB 5 ROOM,56,HAVELOCK RD,,,103.82898160794349,1.2901179
KALLANG/WHAMPOA,HDB 5 ROOM,9,BOON KENG RD,,,103.86133085459377,1.31605155
CLEMENTI,HDB 5 ROOM,312C,CLEMENTI AVE 4,,,103.76413876822087,1.3195394500000002
BISHAN,HDB 5 ROOM,273A,BISHAN ST 24,,,103.84393683957725,1.35638725
TOA PAYOH,HDB 5 ROOM,138B,LOR 1A TOA PAYOH,,,103.845503,1.336272
CLEMENTI,HDB 5 ROOM,440C,CLEMENTI AVE 3,,,103.7635208,1.3145027
KALLANG/WHAMPOA,HDB 5 ROOM,9,BOON KENG RD,,,103.86133085459377,1.31605155
BISHAN,HDB 5 ROOM,273A,BISHAN ST 24,,,103.84393683957725,1.35638725
BUKIT TIMAH,HDB EXECUTIVE,6,TOH YI DR,,,103.77536274494624,1.3377003
TOA PAYOH,HDB 5 ROOM,138A,LOR 1A TOA PAYOH,,,103.845592,1.336712
QUEENSTOWN,HDB 5 ROOM,93,DAWSON RD,,,103.81159928670759,1.2950553
BISHAN,HDB 5 ROOM,273B,BISHAN ST 24,,,103.84347035831968,1.3560851
BISHAN,HDB EXECUTIVE,222,BISHAN ST 23,,,103.8481948,1.3580767
PASIR RIS,HDB EXECUTIVE,130,PASIR RIS ST 11,,,103.95700127679359,1.3654297999999998
CENTRAL AREA,HDB 4 ROOM,1E,CANTONMENT RD,,,103.84115963216871,1.2766102
KALLANG/WHAMPOA,HDB 3 ROOM,46,JLN BAHAGIA,,,103.6465685,1.5987548
QUEENSTOWN,HDB EXECUTIVE,150,MEI LING ST,,,103.80349801615912,1.2949669
CENTRAL AREA,HDB 5 ROOM,1B,CANTONMENT RD,,,103.84140360852476,1.2777916500000002
QUEENSTOWN,HDB 5 ROOM,146,MEI LING ST,,,103.8045221037272,1.2939101000000002
CENTRAL AREA,HDB 4 ROOM,1C,CANTONMENT RD,,,103.84166719999999,1.27743925
CENTRAL AREA,HDB 5 ROOM,1B,CANTONMENT RD,,,103.84140360852476,1.2777916500000002
KALLANG/WHAMPOA,HDB 5 ROOM,9,BOON KENG RD,,,103.86133085459377,1.31605155
QUEENSTOWN,HDB 5 ROOM,50,C'WEALTH DR,,,174.762055,-36.851505
KALLANG/WHAMPOA,HDB 5 ROOM,7,BOON KENG RD,,,103.86189918155178,1.31677585
TOA PAYOH,HDB 5 ROOM,138A,LOR 1A TOA PAYOH,,,103.845592,1.336712
KALLANG/WHAMPOA,HDB 5 ROOM,8B,UPP BOON KENG RD,,,103.861165,1.31641
KALLANG/WHAMPOA,HDB 5 ROOM,8B,UPP BOON KENG RD,,,103.861165,1.31641
CENTRAL AREA,HDB 4 ROOM,1D,CANTONMENT RD,,,103.84149595,1.2769187
CENTRAL AREA,HDB 4 ROOM,1F,CANTONMENT RD,,,103.84120937106636,1.2759757
CENTRAL AREA,HDB 4 ROOM,1E,CANTONMENT RD,,,103.84115963216871,1.2766102
CENTRAL AREA,HDB 4 ROOM,1F,CANTONMENT RD,,,103.84120937106636,1.2759757
CENTRAL AREA,HDB 5 ROOM,1G,CANTONMENT RD,,,103.84130749625815,1.2755656499999999
CENTRAL AREA,HDB 4 ROOM,1B,CANTONMENT RD,,,103.84140360852476,1.2777916500000002
BISHAN,HDB EXECUTIVE,187,BISHAN ST 13,,,103.85135067846807,1.3497022
BISHAN,HDB 5 ROOM,273B,BISHAN ST 24,,,103.84347035831968,1.3560851
CENTRAL AREA,HDB 4 ROOM,1B,CANTONMENT RD,,,103.84140360852476,1.2777916500000002
CENTRAL AREA,HDB 5 ROOM,1B,CANTONMENT RD,,,103.84140360852476,1.2777916500000002
CENTRAL AREA,HDB 4 ROOM,1F,CANTONMENT RD,,,103.84120937106636,1.2759757
BISHAN,HDB EXECUTIVE,452,SIN MING AVE,,,103.8390037,1.3620254
QUEENSTOWN,HDB 5 ROOM,22,GHIM MOH LINK,,,103.78569743583037,1.3092395
KALLANG/WHAMPOA,HDB 5 ROOM,7,BOON KENG RD,,,103.86189918155178,1.31677585
BISHAN,HDB 5 ROOM,273B,BISHAN ST 24,,,103.84347035831968,1.3560851
BUKIT MERAH,HDB 5 ROOM,96A,HENDERSON RD,,,103.82194338895745,1.2879795500000002
TOA PAYOH,HDB 5 ROOM,139A,LOR 1A TOA PAYOH,,,103.843925,1.336275
CENTRAL AREA,HDB 4 ROOM,1G,CANTONMENT RD,,,103.84130749625815,1.2755656499999999
BISHAN,HDB EXECUTIVE,219,BISHAN ST 23,,,103.8496611717976,1.3572264500000002
PUNGGOL,HDB 5 ROOM,268B,PUNGGOL FIELD,,,103.89752028985265,1.4037191
CENTRAL AREA,HDB 4 ROOM,1B,CANTONMENT RD,,,103.84140360852476,1.2777916500000002
BUKIT MERAH,HDB 5 ROOM,8B,BOON TIONG RD,,,103.8312372,1.2864563
BISHAN,HDB 5 ROOM,273B,BISHAN ST 24,,,103.84347035831968,1.3560851
BISHAN,HDB 5 ROOM,275A,BISHAN ST 24,,,103.8433771625958,1.35673585
CENTRAL AREA,HDB 4 ROOM,1E,CANTONMENT RD,,,103.84115963216871,1.2766102
CENTRAL AREA,HDB 4 ROOM,1A,CANTONMENT RD,,,103.84095280047099,1.2778303
BISHAN,HDB EXECUTIVE,450,SIN MING AVE,,,103.8390037,1.3620254
BISHAN,HDB 5 ROOM,273A,BISHAN ST 24,,,103.84393683957725,1.35638725
BUKIT TIMAH,HDB EXECUTIVE,2,TOH YI DR,,,103.77544139072614,1.3390216000000001
CENTRAL AREA,HDB 5 ROOM,1G,CANTONMENT RD,,,103.84130749625815,1.2755656499999999
QUEENSTOWN,HDB 5 ROOM,18C,HOLLAND DR,,,103.79185364147031,1.31040465
CENTRAL AREA,HDB 4 ROOM,1F,CANTONMENT RD,,,103.84120937106636,1.2759757
BUKIT TIMAH,HDB EXECUTIVE,7,TOH YI DR,,,103.77096579006239,1.335348
BUKIT TIMAH,HDB EXECUTIVE,10,TOH YI DR,,,103.7733116230985,1.33782765
KALLANG/WHAMPOA,HDB 5 ROOM,8,BOON KENG RD,,,103.861626131257,1.3164065
CENTRAL AREA,HDB 5 ROOM,1A,CANTONMENT RD,,,103.84095280047099,1.2778303
BISHAN,HDB 5 ROOM,275A,BISHAN ST 24,,,103.8433771625958,1.35673585
BISHAN,HDB 5 ROOM,273B,BISHAN ST 24,,,103.84347035831968,1.3560851
KALLANG/WHAMPOA,HDB 5 ROOM,7,BOON KENG RD,,,103.86189918155178,1.31677585
BUKIT MERAH,HDB 5 ROOM,9B,BOON TIONG RD,,,103.8312372,1.2864563
KALLANG/WHAMPOA,HDB 5 ROOM,8,BOON KENG RD,,,103.861626131257,1.3164065
CENTRAL AREA,HDB 4 ROOM,1F,CANTONMENT RD,,,103.84120937106636,1.2759757
BUKIT TIMAH,HDB EXECUTIVE,2,TOH YI DR,,,103.77544139072614,1.3390216000000001
KALLANG/WHAMPOA,HDB 5 ROOM,9,BOON KENG RD,,,103.86133085459377,1.31605155
QUEENSTOWN,HDB 5 ROOM,90,DAWSON RD,,,103.81219264113793,1.29540805
BUKIT MERAH,HDB 5 ROOM,9A,BOON TIONG RD,,,103.8312372,1.2864563
CENTRAL AREA,HDB 5 ROOM,1C,CANTONMENT RD,,,103.84166719999999,1.27743925
KALLANG/WHAMPOA,HDB 5 ROOM,9,BOON KENG RD,,,103.86133085459377,1.31605155
BUKIT MERAH,HDB 5 ROOM,9A,BOON TIONG RD,,,103.8312372,1.2864563
CENTRAL AREA,HDB 5 ROOM,1D,CANTONMENT RD,,,103.84149595,1.2769187
CENTRAL AREA,HDB 4 ROOM,1D,CANTONMENT RD,,,103.84149595,1.2769187
KALLANG/WHAMPOA,HDB 5 ROOM,7,BOON KENG RD,,,103.86189918155178,1.31677585
KALLANG/WHAMPOA,HDB 5 ROOM,7,BOON KENG RD,,,103.86189918155178,1.31677585
TOA PAYOH,HDB 5 ROOM,138A,LOR 1A TOA PAYOH,,,103.845592,1.336712
QUEENSTOWN,HDB 5 ROOM,88,DAWSON RD,,,103.80946052594598,1.29587985
CENTRAL AREA,HDB 5 ROOM,1D,CANTONMENT RD,,,103.84149595,1.2769187
BISHAN,HDB 5 ROOM,275A,BISHAN ST 24,,,103.8433771625958,1.35673585
QUEENSTOWN,HDB 5 ROOM,50,C'WEALTH DR,,,174.762055,-36.851505
CENTRAL AREA,HDB 4 ROOM,1G,CANTONMENT RD,,,103.84130749625815,1.2755656499999999
TOA PAYOH,HDB 5 ROOM,138A,LOR 1A TOA PAYOH,,,103.845592,1.336712
QUEENSTOWN,HDB 5 ROOM,3,HOLLAND CL,,,-0.16953543438369567,51.6390631
BUKIT TIMAH,HDB EXECUTIVE,7,TOH YI DR,,,103.77096579006239,1.335348
CENTRAL AREA,HDB 5 ROOM,1G,CANTONMENT RD,,,103.84130749625815,1.2755656499999999
BISHAN,HDB 5 ROOM,275A,BISHAN ST 24,,,103.8433771625958,1.35673585
CENTRAL AREA,HDB 4 ROOM,1E,CANTONMENT RD,,,103.84115963216871,1.2766102
KALLANG/WHAMPOA,HDB 5 ROOM,816,JELLICOE RD,,,103.86103736586314,1.30702695
QUEENSTOWN,HDB 5 ROOM,86,DAWSON RD,,,103.8104373980855,1.2957434
QUEENSTOWN,HDB EXECUTIVE,149,MEI LING ST,,,103.8049261955866,1.29486925
TOA PAYOH,HDB 5 ROOM,153,LOR 2 TOA PAYOH,,,103.845687,1.333674
CENTRAL AREA,HDB 4 ROOM,1G,CANTONMENT RD,,,103.84130749625815,1.2755656499999999
QUEENSTOWN,HDB 5 ROOM,7A,C'WEALTH AVE,,,-71.442818,41.827248
CENTRAL AREA,HDB 4 ROOM,1F,CANTONMENT RD,,,103.84120937106636,1.2759757
CLEMENTI,HDB 5 ROOM,311C,CLEMENTI AVE 4,,,103.76574775613031,1.3199674
BUKIT TIMAH,HDB EXECUTIVE,2,TOH YI DR,,,103.77544139072614,1.3390216000000001
QUEENSTOWN,HDB 5 ROOM,86,DAWSON RD,,,103.8104373980855,1.2957434
ANG MO KIO,HDB EXECUTIVE,418,ANG MO KIO AVE 10,,,103.85404460496275,1.36496055
BUKIT MERAH,HDB 5 ROOM,19,JLN MEMBINA,,,103.8260893,1.285634
BUKIT TIMAH,HDB EXECUTIVE,10,TOH YI DR,,,103.7733116230985,1.33782765
CENTRAL AREA,HDB 4 ROOM,1F,CANTONMENT RD,,,103.84120937106636,1.2759757
TOA PAYOH,HDB 5 ROOM,154,LOR 2 TOA PAYOH,,,103.846161,1.333255
BUKIT TIMAH,HDB EXECUTIVE,2,TOH YI DR,,,103.77544139072614,1.3390216000000001
PUNGGOL,HDB 5 ROOM,268C,PUNGGOL FIELD,,,103.89768398768688,1.40355645
KALLANG/WHAMPOA,HDB 5 ROOM,8B,UPP BOON KENG RD,,,103.861165,1.31641
BISHAN,HDB EXECUTIVE,168,BISHAN ST 13,,,103.85415870980921,1.34734
QUEENSTOWN,HDB 5 ROOM,86,DAWSON RD,,,103.8104373980855,1.2957434
CENTRAL AREA,HDB 4 ROOM,1C,CANTONMENT RD,,,103.84166719999999,1.27743925
CENTRAL AREA,HDB 4 ROOM,1C,CANTONMENT RD,,,103.84166719999999,1.27743925
CLEMENTI,HDB 5 ROOM,312A,CLEMENTI AVE 4,,,103.76463635387721,1.31895745
QUEENSTOWN,HDB 4 ROOM,91,DAWSON RD,,,103.81259075967662,1.29535175
CENTRAL AREA,HDB 5 ROOM,1C,CANTONMENT RD,,,103.84166719999999,1.27743925
CENTRAL AREA,HDB 5 ROOM,1F,CANTONMENT RD,,,103.84120937106636,1.2759757
CLEMENTI,HDB 5 ROOM,440C,CLEMENTI AVE 3,,,103.7635208,1.3145027
CENTRAL AREA,HDB 5 ROOM,1E,CANTONMENT RD,,,103.84115963216871,1.2766102
CENTRAL AREA,HDB 4 ROOM,1B,CANTONMENT RD,,,103.84140360852476,1.2777916500000002
KALLANG/WHAMPOA,HDB 3 ROOM,41,JLN BAHAGIA,,,103.85659525,1.3270424
KALLANG/WHAMPOA,HDB 5 ROOM,9,BOON KENG RD,,,103.86133085459377,1.31605155
CENTRAL AREA,HDB 5 ROOM,1A,CANTONMENT RD,,,103.84095280047099,1.2778303
QUEENSTOWN,HDB 5 ROOM,86,DAWSON RD,,,103.8104373980855,1.2957434
BISHAN,HDB 5 ROOM,273B,BISHAN ST 24,,,103.84347035831968,1.3560851
BISHAN,HDB 5 ROOM,275A,BISHAN ST 24,,,103.8433771625958,1.35673585
TOA PAYOH,HDB 5 ROOM,139B,LOR 1A TOA PAYOH,,,103.843992,1.336714
KALLANG/WHAMPOA,HDB 5 ROOM,9,BOON KENG RD,,,103.86133085459377,1.31605155
QUEENSTOWN,HDB 5 ROOM,18C,HOLLAND DR,,,103.79185364147031,1.31040465
QUEENSTOWN,HDB 5 ROOM,18C,HOLLAND DR,,,103.79185364147031,1.31040465
QUEENSTOWN,HDB EXECUTIVE,150,MEI LING ST,,,103.80349801615912,1.2949669
TOA PAYOH,HDB 5 ROOM,138C,LOR 1A TOA PAYOH,,,103.844796,1.336258
TOA PAYOH,HDB 5 ROOM,139A,LOR 1A TOA PAYOH,,,103.843925,1.336275
CLEMENTI,HDB 5 ROOM,440C,CLEMENTI AVE 3,,,103.7635208,1.3145027
BISHAN,HDB EXECUTIVE,187,BISHAN ST 13,,,103.85135067846807,1.3497022
BISHAN,HDB EXECUTIVE,223,BISHAN ST 23,,,103.84830756862081,1.3584372
TOA PAYOH,HDB 5 ROOM,139A,LOR 1A TOA PAYOH,,,103.843925,1.336275
CLEMENTI,HDB 5 ROOM,312B,CLEMENTI AVE 4,,,103.7645293148418,1.31965005
QUEENSTOWN,HDB EXECUTIVE,148,MEI LING ST,,,103.80448307932465,1.2943763
ANG MO KIO,HDB EXECUTIVE,457,ANG MO KIO AVE 10,,,103.85863834839887,1.36586385
TOA PAYOH,HDB EXECUTIVE,101A,LOR 2 TOA PAYOH,,,103.847263,1.339753
BUKIT MERAH,HDB 5 ROOM,122,KIM TIAN RD,,,103.8288891860162,1.2834077499999998
CENTRAL AREA,HDB 5 ROOM,1B,CANTONMENT RD,,,103.84140360852476,1.2777916500000002
CLEMENTI,HDB 5 ROOM,311C,CLEMENTI AVE 4,,,103.76574775613031,1.3199674
QUEENSTOWN,HDB 5 ROOM,18C,HOLLAND DR,,,103.79185364147031,1.31040465
CENTRAL AREA,HDB 5 ROOM,1A,CANTONMENT RD,,,103.84095280047099,1.2778303
CENTRAL AREA,HDB 5 ROOM,1G,CANTONMENT RD,,,103.84130749625815,1.2755656499999999
CENTRAL AREA,HDB 5 ROOM,1A,CANTONMENT RD,,,103.84095280047099,1.2778303
QUEENSTOWN,HDB 5 ROOM,53,C'WEALTH DR,,,19.541108,49.331482
KALLANG/WHAMPOA,HDB 5 ROOM,8B,UPP BOON KENG RD,,,103.861165,1.31641
KALLANG/WHAMPOA,HDB 5 ROOM,7,BOON KENG RD,,,103.86189918155178,1.31677585
CLEMENTI,HDB 5 ROOM,311B,CLEMENTI AVE 4,,,103.76552678342165,1.31948065
CENTRAL AREA,HDB 5 ROOM,1D,CANTONMENT RD,,,103.84149595,1.2769187
BUKIT MERAH,HDB 5 ROOM,9A,BOON TIONG RD,,,103.8312372,1.2864563
KALLANG/WHAMPOA,HDB 5 ROOM,9,BOON KENG RD,,,103.86133085459377,1.31605155
CLEMENTI,HDB 5 ROOM,312B,CLEMENTI AVE 4,,,103.7645293148418,1.31965005
CENTRAL AREA,HDB 4 ROOM,1G,CANTONMENT RD,,,103.84130749625815,1.2755656499999999
BUKIT MERAH,HDB 5 ROOM,127D,KIM TIAN RD,,,103.82995250055936,1.2810986999999998
CENTRAL AREA,HDB 5 ROOM,1G,CANTONMENT RD,,,103.84130749625815,1.2755656499999999
BISHAN,HDB EXECUTIVE,261,BISHAN ST 22,,,103.84355977543319,1.3592269
TOA PAYOH,HDB 5 ROOM,139A,LOR 1A TOA PAYOH,,,103.843925,1.336275
QUEENSTOWN,HDB EXECUTIVE,148,MEI LING ST,,,103.80448307932465,1.2943763
TOA PAYOH,HDB 5 ROOM,139A,LOR 1A TOA PAYOH,,,103.843925,1.336275
BISHAN,HDB 5 ROOM,275A,BISHAN ST 24,,,103.8433771625958,1.35673585
BUKIT TIMAH,HDB EXECUTIVE,6,TOH YI DR,,,103.77536274494624,1.3377003
CENTRAL AREA,HDB 5 ROOM,1F,CANTONMENT RD,,,103.84120937106636,1.2759757
TOA PAYOH,HDB 5 ROOM,139A,LOR 1A TOA PAYOH,,,103.843925,1.336275
TOA PAYOH,HDB 5 ROOM,139A,LOR 1A TOA PAYOH,,,103.843925,1.336275
QUEENSTOWN,HDB 4 ROOM,90,DAWSON RD,,,103.81219264113793,1.29540805
CENTRAL AREA,HDB 5 ROOM,1G,CANTONMENT RD,,,103.84130749625815,1.2755656499999999
CLEMENTI,HDB 5 ROOM,440C,CLEMENTI AVE 3,,,103.7635208,1.3145027
TOA PAYOH,HDB 5 ROOM,138B,LOR 1A TOA PAYOH,,,103.845503,1.336272
CENTRAL AREA,HDB 5 ROOM,1F,CANTONMENT RD,,,103.84120937106636,1.2759757
TOA PAYOH,HDB 5 ROOM,139B,LOR 1A TOA PAYOH,,,103.843992,1.336714
BISHAN,HDB EXECUTIVE,187,BISHAN ST 13,,,103.85135067846807,1.3497022
BUKIT MERAH,HDB 5 ROOM,126,BT MERAH VIEW,,,103.822593,1.285221
BUKIT MERAH,HDB 5 ROOM,122,KIM TIAN RD,,,103.8288891860162,1.2834077499999998
QUEENSTOWN,HDB 5 ROOM,18C,HOLLAND DR,,,103.79185364147031,1.31040465
BUKIT MERAH,HDB 4 ROOM,10B,BOON TIONG RD,,,103.8312372,1.2864563
CENTRAL AREA,HDB 5 ROOM,1C,CANTONMENT RD,,,103.84166719999999,1.27743925
BUKIT MERAH,HDB 5 ROOM,9A,BOON TIONG RD,,,103.8312372,1.2864563
CENTRAL AREA,HDB 4 ROOM,1E,CANTONMENT RD,,,103.84115963216871,1.2766102
ANG MO KIO,HDB 5 ROOM,455B,ANG MO KIO ST 44,,,103.85853452668769,1.36833335
CENTRAL AREA,HDB 4 ROOM,1C,CANTONMENT RD,,,103.84166719999999,1.27743925
BUKIT MERAH,HDB 5 ROOM,9A,BOON TIONG RD,,,103.8312372,1.2864563
CENTRAL AREA,HDB 5 ROOM,1G,CANTONMENT RD,,,103.84130749625815,1.2755656499999999
KALLANG/WHAMPOA,HDB 5 ROOM,7,BOON KENG RD,,,103.86189918155178,1.31677585
QUEENSTOWN,HDB EXECUTIVE,148,MEI LING ST,,,103.80448307932465,1.2943763
BUKIT MERAH,HDB 5 ROOM,9A,BOON TIONG RD,,,103.8312372,1.2864563
TOA PAYOH,HDB 5 ROOM,138A,LOR 1A TOA PAYOH,,,103.845592,1.336712
TOA PAYOH,HDB 5 ROOM,139B,LOR 1A TOA PAYOH,,,103.843992,1.336714
QUEENSTOWN,HDB EXECUTIVE,148,MEI LING ST,,,103.80448307932465,1.2943763
QUEENSTOWN,HDB 5 ROOM,50,C'WEALTH DR,,,174.762055,-36.851505
CENTRAL AREA,HDB 5 ROOM,1F,CANTONMENT RD,,,103.84120937106636,1.2759757
CENTRAL AREA,HDB 5 ROOM,1B,CANTONMENT RD,,,103.84140360852476,1.2777916500000002
CENTRAL AREA,HDB 4 ROOM,1B,CANTONMENT RD,,,103.84140360852476,1.2777916500000002
TOA PAYOH,HDB 5 ROOM,139B,LOR 1A TOA PAYOH,,,103.843992,1.336714
SERANGOON,HDB EXECUTIVE,232A,SERANGOON AVE 2,,,103.86842707771481,1.35433855
CENTRAL AREA,HDB 4 ROOM,1E,CANTONMENT RD,,,103.84115963216871,1.2766102
TOA PAYOH,HDB 5 ROOM,138C,LOR 1A TOA PAYOH,,,103.844796,1.336258
ANG MO KIO,HDB 5 ROOM,260A,ANG MO KIO ST 21,,,103.83408467223104,1.3692568500000002
CLEMENTI,HDB 5 ROOM,440C,CLEMENTI AVE 3,,,103.7635208,1.3145027
KALLANG/WHAMPOA,HDB 5 ROOM,7,BOON KENG RD,,,103.86189918155178,1.31677585
QUEENSTOWN,HDB 5 ROOM,86,DAWSON RD,,,103.8104373980855,1.2957434
BISHAN,HDB EXECUTIVE,187,BISHAN ST 13,,,103.85135067846807,1.3497022
CENTRAL AREA,HDB 5 ROOM,1C,CANTONMENT RD,,,103.84166719999999,1.27743925
BISHAN,HDB EXECUTIVE,245,BISHAN ST 22,,,103.843911181924,1.3604704
BUKIT MERAH,HDB 5 ROOM,9,CANTONMENT CL,,,103.83920520576453,1.27531455
CENTRAL AREA,HDB 4 ROOM,1F,CANTONMENT RD,,,103.84120937106636,1.2759757
CLEMENTI,HDB 5 ROOM,311C,CLEMENTI AVE 4,,,103.76574775613031,1.3199674
BUKIT MERAH,HDB 5 ROOM,56,HAVELOCK RD,,,103.82898160794349,1.2901179
BISHAN,HDB EXECUTIVE,187,BISHAN ST 13,,,103.85135067846807,1.3497022
KALLANG/WHAMPOA,HDB 5 ROOM,7,BOON KENG RD,,,103.86189918155178,1.31677585
QUEENSTOWN,HDB 5 ROOM,28D,DOVER CRES,,,103.78242657193742,1.3061805
WOODLANDS,HDB EXECUTIVE,816,WOODLANDS ST 82,,,103.7901386661017,1.4420518
BISHAN,HDB EXECUTIVE,119,BISHAN ST 12,,,103.85049333887234,1.3473414
BUKIT TIMAH,HDB EXECUTIVE,7,TOH YI DR,,,103.77096579006239,1.335348
CENTRAL AREA,HDB 5 ROOM,1A,CANTONMENT RD,,,103.84095280047099,1.2778303
KALLANG/WHAMPOA,HDB EXECUTIVE,46,BENDEMEER RD,,,103.86602064317196,1.3229285
CENTRAL AREA,HDB 5 ROOM,1B,CANTONMENT RD,,,103.84140360852476,1.2777916500000002
BISHAN,HDB EXECUTIVE,173,BISHAN ST 13,,,103.85425864853633,1.3477640499999999
CLEMENTI,HDB 5 ROOM,312B,CLEMENTI AVE 4,,,103.7645293148418,1.31965005
BUKIT MERAH,HDB 5 ROOM,53,HAVELOCK RD,,,103.82892079770646,1.28939675
BUKIT MERAH,HDB 5 ROOM,9B,BOON TIONG RD,,,103.8312372,1.2864563
BISHAN,HDB 5 ROOM,273B,BISHAN ST 24,,,103.84347035831968,1.3560851
BUKIT MERAH,HDB 5 ROOM,53,HAVELOCK RD,,,103.82892079770646,1.28939675
KALLANG/WHAMPOA,HDB 3 ROOM,51,JLN BAHAGIA,,,103.85603622577119,1.3277174999999999
KALLANG/WHAMPOA,HDB 3 ROOM,50,JLN BAHAGIA,,,103.85620702403486,1.32769355
QUEENSTOWN,HDB 5 ROOM,88,DAWSON RD,,,103.80946052594598,1.29587985
QUEENSTOWN,HDB 5 ROOM,48,STRATHMORE AVE,,,103.80781216400966,1.2938117
PASIR RIS,HDB EXECUTIVE,156,PASIR RIS ST 13,,,103.9617562,1.3634306
QUEENSTOWN,HDB EXECUTIVE,150,MEI LING ST,,,103.80349801615912,1.2949669
CENTRAL AREA,HDB 5 ROOM,1E,CANTONMENT RD,,,103.84115963216871,1.2766102
BISHAN,HDB EXECUTIVE,179,BISHAN ST 13,,,103.8518466420586,1.3486161
BUKIT MERAH,HDB 5 ROOM,9A,BOON TIONG RD,,,103.8312372,1.2864563
CENTRAL AREA,HDB 5 ROOM,1B,CANTONMENT RD,,,103.84140360852476,1.2777916500000002
QUEENSTOWN,HDB 5 ROOM,53,C'WEALTH DR,,,19.541108,49.331482
ANG MO KIO,HDB EXECUTIVE,104A,ANG MO KIO ST 11,,,103.83918212563815,1.3715978999999998
KALLANG/WHAMPOA,HDB 5 ROOM,8B,UPP BOON KENG RD,,,103.861165,1.31641
CENTRAL AREA,HDB 5 ROOM,1B,CANTONMENT RD,,,103.84140360852476,1.2777916500000002
TOA PAYOH,HDB 5 ROOM,138C,LOR 1A TOA PAYOH,,,103.844796,1.336258
TOA PAYOH,HDB 5 ROOM,138B,LOR 1A TOA PAYOH,,,103.845503,1.336272
KALLANG/WHAMPOA,HDB 5 ROOM,7,BOON KENG RD,,,103.86189918155178,1.31677585
CENTRAL AREA,HDB 5 ROOM,1C,CANTONMENT RD,,,103.84166719999999,1.27743925
CENTRAL AREA,HDB 5 ROOM,1A,CANTONMENT RD,,,103.84095280047099,1.2778303
BUKIT MERAH,HDB 5 ROOM,2C,BOON TIONG RD,,,103.8312372,1.2864563
CENTRAL AREA,HDB 4 ROOM,1G,CANTONMENT RD,,,103.84130749625815,1.2755656499999999
QUEENSTOWN,HDB 5 ROOM,53,C'WEALTH DR,,,19.541108,49.331482
TOA PAYOH,HDB 5 ROOM,138C,LOR 1A TOA PAYOH,,,103.844796,1.336258
CENTRAL AREA,HDB 5 ROOM,1C,CANTONMENT RD,,,103.84166719999999,1.27743925
CENTRAL AREA,HDB 5 ROOM,1C,CANTONMENT RD,,,103.84166719999999,1.27743925
CENTRAL AREA,HDB 4 ROOM,1C,CANTONMENT RD,,,103.84166719999999,1.27743925
QUEENSTOWN,HDB EXECUTIVE,148,MEI LING ST,,,103.80448307932465,1.2943763
QUEENSTOWN,HDB 4 ROOM,92,DAWSON RD,,,103.81114874168577,1.2951394
SERANGOON,HDB EXECUTIVE,234A,SERANGOON AVE 2,,,103.8690572777148,1.35437345
BISHAN,HDB 5 ROOM,275A,BISHAN ST 24,,,103.8433771625958,1.35673585
BISHAN,HDB EXECUTIVE,173,BISHAN ST 13,,,103.85425864853633,1.3477640499999999
BUKIT TIMAH,HDB EXECUTIVE,3,TOH YI DR,,,103.77094288747772,1.3352358500000001
CENTRAL AREA,HDB 5 ROOM,1D,CANTONMENT RD,,,103.84149595,1.2769187
BISHAN,HDB EXECUTIVE,186,BISHAN ST 13,,,103.8522869844987,1.34940615
QUEENSTOWN,HDB 5 ROOM,7A,C'WEALTH AVE,,,-71.442818,41.827248
BUKIT TIMAH,HDB EXECUTIVE,7,TOH YI DR,,,103.77096579006239,1.335348
CENTRAL AREA,HDB 5 ROOM,1D,CANTONMENT RD,,,103.84149595,1.2769187
CENTRAL AREA,HDB 5 ROOM,1E,CANTONMENT RD,,,103.84115963216871,1.2766102
KALLANG/WHAMPOA,HDB 5 ROOM,8,BOON KENG RD,,,103.861626131257,1.3164065
CENTRAL AREA,HDB 4 ROOM,1E,CANTONMENT RD,,,103.84115963216871,1.2766102
BUKIT MERAH,HDB 5 ROOM,53,HAVELOCK RD,,,103.82892079770646,1.28939675
QUEENSTOWN,HDB 5 ROOM,3,HOLLAND CL,,,-0.16953543438369567,51.6390631
CENTRAL AREA,HDB 5 ROOM,1D,CANTONMENT RD,,,103.84149595,1.2769187
BISHAN,HDB EXECUTIVE,231,BISHAN ST 23,,,103.84581315505883,1.35731545
TOA PAYOH,HDB 5 ROOM,139B,LOR 1A TOA PAYOH,,,103.843992,1.336714
BUKIT TIMAH,HDB EXECUTIVE,2,TOH YI DR,,,103.77544139072614,1.3390216000000001
KALLANG/WHAMPOA,HDB 5 ROOM,7,BOON KENG RD,,,103.86189918155178,1.31677585
TOA PAYOH,HDB 5 ROOM,138C,LOR 1A TOA PAYOH,,,103.844796,1.336258
BUKIT MERAH,HDB 5 ROOM,9A,BOON TIONG RD,,,103.8312372,1.2864563
KALLANG/WHAMPOA,HDB 5 ROOM,9,BOON KENG RD,,,103.86133085459377,1.31605155
BISHAN,HDB EXECUTIVE,117,BISHAN ST 12,,,103.84998825238746,1.3470286
CENTRAL AREA,HDB 5 ROOM,1E,CANTONMENT RD,,,103.84115963216871,1.2766102
CENTRAL AREA,HDB 4 ROOM,1B,CANTONMENT RD,,,103.84140360852476,1.2777916500000002
CENTRAL AREA,HDB 5 ROOM,1E,CANTONMENT RD,,,103.84115963216871,1.2766102
CENTRAL AREA,HDB 4 ROOM,1B,CANTONMENT RD,,,103.84140360852476,1.2777916500000002
QUEENSTOWN,HDB 5 ROOM,93,DAWSON RD,,,103.81159928670759,1.2950553
BUKIT TIMAH,HDB EXECUTIVE,6,TOH YI DR,,,103.77536274494624,1.3377003
ANG MO KIO,HDB EXECUTIVE,104A,ANG MO KIO ST 11,,,103.83918212563815,1.3715978999999998
BISHAN,HDB EXECUTIVE,257,BISHAN ST 22,,,103.8434496,1.359469
BUKIT MERAH,HDB 5 ROOM,4A,BOON TIONG RD,,,103.8312372,1.2864563
TOA PAYOH,HDB 5 ROOM,138C,LOR 1A TOA PAYOH,,,103.844796,1.336258
TOA PAYOH,HDB EXECUTIVE,99A,LOR 2 TOA PAYOH,,,103.846872,1.33879
TOA PAYOH,HDB EXECUTIVE,128,POTONG PASIR AVE 1,,,103.86587055000001,1.3347840999999998
CENTRAL AREA,HDB 4 ROOM,1F,CANTONMENT RD,,,103.84120937106636,1.2759757
BUKIT MERAH,HDB 5 ROOM,7,KIM TIAN PL,,,103.82709236614535,1.2834804499999999
CENTRAL AREA,HDB EXECUTIVE,633,VEERASAMY RD,,,103.85526634099989,1.30582635
CENTRAL AREA,HDB 5 ROOM,1G,CANTONMENT RD,,,103.84130749625815,1.2755656499999999
CENTRAL AREA,HDB 4 ROOM,1B,CANTONMENT RD,,,103.84140360852476,1.2777916500000002
ANG MO KIO,HDB 5 ROOM,455B,ANG MO KIO ST 44,,,103.85853452668769,1.36833335
TOA PAYOH,HDB 5 ROOM,121,POTONG PASIR AVE 1,,,103.86584107878771,1.3356302
BEDOK,HDB EXECUTIVE,10B,BEDOK STH AVE 2,,,103.93622302738137,1.32243025
KALLANG/WHAMPOA,HDB 5 ROOM,8,BOON KENG RD,,,103.861626131257,1.3164065
CENTRAL AREA,HDB 4 ROOM,1F,CANTONMENT RD,,,103.84120937106636,1.2759757
QUEENSTOWN,HDB 5 ROOM,86,DAWSON RD,,,103.8104373980855,1.2957434
ANG MO KIO,HDB 5 ROOM,588B,ANG MO KIO ST 52,,,103.8523889,1.3727536
ANG MO KIO,HDB 5 ROOM,455B,ANG MO KIO ST 44,,,103.85853452668769,1.36833335
BUKIT MERAH,HDB 5 ROOM,44,LENGKOK BAHRU,,,103.81192415923778,1.28680895
CENTRAL AREA,HDB 5 ROOM,1B,CANTONMENT RD,,,103.84140360852476,1.2777916500000002
CENTRAL AREA,HDB 5 ROOM,1B,CANTONMENT RD,,,103.84140360852476,1.2777916500000002
BISHAN,HDB EXECUTIVE,245,BISHAN ST 22,,,103.843911181924,1.3604704
BUKIT MERAH,HDB 5 ROOM,8B,BOON TIONG RD,,,103.8312372,1.2864563
GEYLANG,HDB 5 ROOM,62,DAKOTA CRES,,,103.88887287566604,1.30785825
SERANGOON,HDB EXECUTIVE,232A,SERANGOON AVE 2,,,103.86842707771481,1.35433855
CENTRAL AREA,HDB 5 ROOM,1A,CANTONMENT RD,,,103.84095280047099,1.2778303
CENTRAL AREA,HDB 5 ROOM,1E,CANTONMENT RD,,,103.84115963216871,1.2766102
QUEENSTOWN,HDB 5 ROOM,18C,HOLLAND DR,,,103.79185364147031,1.31040465
CENTRAL AREA,HDB 5 ROOM,1A,CANTONMENT RD,,,103.84095280047099,1.2778303
QUEENSTOWN,HDB 5 ROOM,18D,HOLLAND DR,,,103.79252334722321,1.30995105
CENTRAL AREA,HDB 5 ROOM,1A,CANTONMENT RD,,,103.84095280047099,1.2778303
QUEENSTOWN,HDB 5 ROOM,50,C'WEALTH DR,,,174.762055,-36.851505
CENTRAL AREA,HDB 5 ROOM,1F,CANTONMENT RD,,,103.84120937106636,1.2759757
CENTRAL AREA,HDB 5 ROOM,1C,CANTONMENT RD,,,103.84166719999999,1.27743925
CENTRAL AREA,HDB 4 ROOM,1C,CANTONMENT RD,,,103.84166719999999,1.27743925
QUEENSTOWN,HDB 5 ROOM,18C,HOLLAND DR,,,103.79185364147031,1.31040465
ANG MO KIO,HDB 5 ROOM,310A,ANG MO KIO AVE 1,,,103.8438180100004,1.3649558499999999
BISHAN,HDB EXECUTIVE,443,SIN MING AVE,,,103.8292882,1.3594297
BUKIT MERAH,HDB 5 ROOM,126A,KIM TIAN RD,,,103.82954689078773,1.2828631499999998
CENTRAL AREA,HDB 5 ROOM,1D,CANTONMENT RD,,,103.84149595,1.2769187
CENTRAL AREA,HDB 5 ROOM,1A,CANTONMENT RD,,,103.84095280047099,1.2778303
CENTRAL AREA,HDB 4 ROOM,1F,CANTONMENT RD,,,103.84120937106636,1.2759757
CENTRAL AREA,HDB 4 ROOM,1D,CANTONMENT RD,,,103.84149595,1.2769187
KALLANG/WHAMPOA,HDB 3 ROOM,61,JLN TENTERAM,,,103.7687399,1.4612545
QUEENSTOWN,HDB 5 ROOM,86,DAWSON RD,,,103.8104373980855,1.2957434
QUEENSTOWN,HDB 5 ROOM,86,DAWSON RD,,,103.8104373980855,1.2957434
TOA PAYOH,HDB 5 ROOM,138C,LOR 1A TOA PAYOH,,,103.844796,1.336258
TOA PAYOH,HDB 5 ROOM,138B,LOR 1A TOA PAYOH,,,103.845503,1.336272
ANG MO KIO,HDB 5 ROOM,588B,ANG MO KIO ST 52,,,103.8523889,1.3727536
BISHAN,HDB EXECUTIVE,285,BISHAN ST 22,,,103.84385347762068,1.3588413
CENTRAL AREA,HDB 4 ROOM,1B,CANTONMENT RD,,,103.84140360852476,1.2777916500000002
KALLANG/WHAMPOA,HDB 5 ROOM,9,BOON KENG RD,,,103.86133085459377,1.31605155
TOA PAYOH,HDB 5 ROOM,138A,LOR 1A TOA PAYOH,,,103.845592,1.336712
BISHAN,HDB EXECUTIVE,238,BISHAN ST 22,,,103.84453090425157,1.3598696499999998
CENTRAL AREA,HDB 5 ROOM,1A,CANTONMENT RD,,,103.84095280047099,1.2778303
ANG MO KIO,HDB 5 ROOM,260A,ANG MO KIO ST 21,,,103.83408467223104,1.3692568500000002
BISHAN,HDB EXECUTIVE,219,BISHAN ST 23,,,103.8496611717976,1.3572264500000002
BUKIT MERAH,HDB 5 ROOM,13,CANTONMENT CL,,,103.84052804252133,1.274708
TOA PAYOH,HDB 5 ROOM,152,LOR 2 TOA PAYOH,,,103.845894,1.334172
ANG MO KIO,HDB 5 ROOM,260A,ANG MO KIO ST 21,,,103.83408467223104,1.3692568500000002
QUEENSTOWN,HDB EXECUTIVE,150,MEI LING ST,,,103.80349801615912,1.2949669
BISHAN,HDB EXECUTIVE,238,BISHAN ST 22,,,103.84453090425157,1.3598696499999998
ANG MO KIO,HDB EXECUTIVE,614,ANG MO KIO AVE 4,,,103.83939348606418,1.3780483499999998
BUKIT MERAH,HDB 5 ROOM,19,JLN MEMBINA,,,103.8260893,1.285634
GEYLANG,HDB 5 ROOM,7,PINE CL,,,103.88270849147649,1.3074550999999999
QUEENSTOWN,HDB 5 ROOM,52,STRATHMORE AVE,,,103.80825663256502,1.2933132
TOA PAYOH,HDB EXECUTIVE,101A,LOR 2 TOA PAYOH,,,103.847263,1.339753
WOODLANDS,HDB EXECUTIVE,834,WOODLANDS ST 83,,,103.79108149911028,1.44008975
CENTRAL AREA,HDB 4 ROOM,1C,CANTONMENT RD,,,103.84166719999999,1.27743925
QUEENSTOWN,HDB EXECUTIVE,148,MEI LING ST,,,103.80448307932465,1.2943763
CENTRAL AREA,HDB 4 ROOM,1B,CANTONMENT RD,,,103.84140360852476,1.2777916500000002
SERANGOON,HDB EXECUTIVE,418,SERANGOON CTRL,,,103.8752430009876,1.3496877
BISHAN,HDB EXECUTIVE,245,BISHAN ST 22,,,103.843911181924,1.3604704
KALLANG/WHAMPOA,HDB 4 ROOM,8B,UPP BOON KENG RD,,,103.861165,1.31641
BUKIT MERAH,HDB 5 ROOM,73A,REDHILL RD,,,103.81674901048444,1.28798455
CENTRAL AREA,HDB 4 ROOM,1G,CANTONMENT RD,,,103.84130749625815,1.2755656499999999
SERANGOON,HDB EXECUTIVE,418,SERANGOON CTRL,,,103.8752430009876,1.3496877
TOA PAYOH,HDB 4 ROOM,131A,LOR 1 TOA PAYOH,,,103.843295,1.338392
ANG MO KIO,HDB 5 ROOM,260B,ANG MO KIO ST 21,,,103.8338372238754,1.36895025
ANG MO KIO,HDB EXECUTIVE,614,ANG MO KIO AVE 4,,,103.83939348606418,1.3780483499999998
BUKIT MERAH,HDB 4 ROOM,80A,TELOK BLANGAH ST 31,,,103.80656804316428,1.2736569
CLEMENTI,HDB EXECUTIVE,112,CLEMENTI ST 13,,,103.7697691544669,1.32332005
CLEMENTI,HDB EXECUTIVE,115,CLEMENTI ST 13,,,103.77124597932868,1.3237269
BUKIT TIMAH,HDB 5 ROOM,16,TOH YI DR,,,103.7725436,1.33936885
SERANGOON,HDB EXECUTIVE,236A,SERANGOON AVE 2,,,103.8677965,1.3551991
BISHAN,HDB EXECUTIVE,179,BISHAN ST 13,,,103.8518466420586,1.3486161
QUEENSTOWN,HDB 5 ROOM,88,DAWSON RD,,,103.80946052594598,1.29587985
TOA PAYOH,HDB 5 ROOM,79C,TOA PAYOH CTRL,,,103.84857618885223,1.33461305
ANG MO KIO,HDB 5 ROOM,588B,ANG MO KIO ST 52,,,103.8523889,1.3727536
QUEENSTOWN,HDB 5 ROOM,86,DAWSON RD,,,103.8104373980855,1.2957434
SERANGOON,HDB EXECUTIVE,319,SERANGOON AVE 2,,,103.86811868277891,1.3525743000000001
QUEENSTOWN,HDB EXECUTIVE,148,MEI LING ST,,,103.80448307932465,1.2943763
CLEMENTI,HDB 5 ROOM,440C,CLEMENTI AVE 3,,,103.7646163,1.3119428
QUEENSTOWN,HDB 5 ROOM,92,DAWSON RD,,,103.81114874168577,1.2951394
TOA PAYOH,HDB 5 ROOM,138A,LOR 1A TOA PAYOH,,,103.845592,1.336712
KALLANG/WHAMPOA,HDB EXECUTIVE,48,BENDEMEER RD,,,103.86625007702727,1.32329165
ANG MO KIO,HDB 5 ROOM,455B,ANG MO KIO ST 44,,,103.85853452668769,1.36833335
BISHAN,HDB EXECUTIVE,446,BRIGHT HILL DR,,,103.8332315,1.359374
QUEENSTOWN,HDB 4 ROOM,93,DAWSON RD,,,103.81159928670759,1.2950553
BUKIT MERAH,HDB 5 ROOM,25A,JLN MEMBINA,,,103.82604575339411,1.28349635
BUKIT MERAH,HDB 5 ROOM,9A,BOON TIONG RD,,,103.8312372,1.2864563
TOA PAYOH,HDB 5 ROOM,139A,LOR 1A TOA PAYOH,,,103.843925,1.336275
BISHAN,HDB EXECUTIVE,223,BISHAN ST 23,,,103.84830756862081,1.3584372
QUEENSTOWN,HDB 5 ROOM,88,DAWSON RD,,,103.80946052594598,1.29587985
SERANGOON,HDB EXECUTIVE,321,SERANGOON AVE 2,,,103.86779065846642,1.3512899
BISHAN,HDB EXECUTIVE,245,BISHAN ST 22,,,103.843911181924,1.3604704
ANG MO KIO,HDB 5 ROOM,455B,ANG MO KIO ST 44,,,103.85853452668769,1.36833335
QUEENSTOWN,HDB 5 ROOM,50,C'WEALTH DR,,,174.762055,-36.851505
WOODLANDS,HDB EXECUTIVE,830,WOODLANDS ST 83,,,103.7940081,1.4409042
TOA PAYOH,HDB EXECUTIVE,129,POTONG PASIR AVE 1,,,103.86559484959862,1.3347213500000001
KALLANG/WHAMPOA,HDB 4 ROOM,8A,UPP BOON KENG RD,,,103.861381,1.316691
BISHAN,HDB 4 ROOM,291,BISHAN ST 24,,,103.84516399580886,1.3559282499999998
TOA PAYOH,HDB EXECUTIVE,131,POTONG PASIR AVE 1,,,103.86532674834172,1.3343647
CENTRAL AREA,HDB 5 ROOM,1G,CANTONMENT RD,,,103.84130749625815,1.2755656499999999
CENTRAL AREA,HDB 5 ROOM,1G,CANTONMENT RD,,,103.84130749625815,1.2755656499999999
CENTRAL AREA,HDB 4 ROOM,1E,CANTONMENT RD,,,103.84115963216871,1.2766102
TOA PAYOH,HDB EXECUTIVE,124,POTONG PASIR AVE 1,,,103.86549585,1.3353046
BUKIT MERAH,HDB 4 ROOM,95C,HENDERSON RD,,,103.82205117375094,1.28741125
BISHAN,HDB EXECUTIVE,186,BISHAN ST 13,,,103.8522869844987,1.34940615
BUKIT MERAH,HDB 5 ROOM,9B,BOON TIONG RD,,,103.8312372,1.2864563
BUKIT MERAH,HDB 4 ROOM,43,MOH GUAN TER,,,103.8301452,1.2836697
CENTRAL AREA,HDB 5 ROOM,1F,CANTONMENT RD,,,103.84120937106636,1.2759757
CENTRAL AREA,HDB 5 ROOM,1D,CANTONMENT RD,,,103.84149595,1.2769187
BISHAN,HDB EXECUTIVE,454,SIN MING AVE,,,103.8307045,1.3593394
SERANGOON,HDB EXECUTIVE,317,SERANGOON AVE 2,,,103.8680585,1.3539339
BISHAN,HDB EXECUTIVE,446,BRIGHT HILL DR,,,103.8332315,1.359374
BISHAN,HDB EXECUTIVE,219,BISHAN ST 23,,,103.8496611717976,1.3572264500000002
KALLANG/WHAMPOA,HDB 5 ROOM,9,BOON KENG RD,,,103.86133085459377,1.31605155
BISHAN,HDB 4 ROOM,273A,BISHAN ST 24,,,103.84393683957725,1.35638725
BISHAN,HDB EXECUTIVE,257,BISHAN ST 22,,,103.8434496,1.359469
BUKIT BATOK,HDB EXECUTIVE,289D,BUKIT BATOK ST 25,,,103.75925101424917,1.34351825
BISHAN,HDB EXECUTIVE,119,BISHAN ST 12,,,103.85049333887234,1.3473414
CENTRAL AREA,HDB 4 ROOM,1D,CANTONMENT RD,,,103.84149595,1.2769187
QUEENSTOWN,HDB 5 ROOM,88,DAWSON RD,,,103.80946052594598,1.29587985
TOA PAYOH,HDB 5 ROOM,153A,LOR 1 TOA PAYOH,,,103.845233,1.333722
SERANGOON,HDB EXECUTIVE,418,SERANGOON CTRL,,,103.8752430009876,1.3496877
BISHAN,HDB 5 ROOM,273B,BISHAN ST 24,,,103.84347035831968,1.3560851
ANG MO KIO,HDB 5 ROOM,455A,ANG MO KIO ST 44,,,103.85754896424143,1.3681798
BISHAN,HDB 5 ROOM,273B,BISHAN ST 24,,,103.84347035831968,1.3560851
WOODLANDS,HDB EXECUTIVE,805,WOODLANDS ST 81,,,103.78740086444435,1.44065865
CENTRAL AREA,HDB 5 ROOM,1D,CANTONMENT RD,,,103.84149595,1.2769187
CENTRAL AREA,HDB 5 ROOM,1D,CANTONMENT RD,,,103.84149595,1.2769187
BISHAN,HDB EXECUTIVE,190,BISHAN ST 13,,,103.85204851205881,1.3505661999999998
QUEENSTOWN,HDB EXECUTIVE,148,MEI LING ST,,,103.80448307932465,1.2943763
CENTRAL AREA,HDB 5 ROOM,1E,CANTONMENT RD,,,103.84115963216871,1.2766102
CENTRAL AREA,HDB 5 ROOM,1D,CANTONMENT RD,,,103.84149595,1.2769187
BISHAN,HDB 5 ROOM,273B,BISHAN ST 24,,,103.84347035831968,1.3560851
BISHAN,HDB 5 ROOM,275A,BISHAN ST 24,,,103.8433771625958,1.35673585
QUEENSTOWN,HDB 5 ROOM,50,C'WEALTH DR,,,174.762055,-36.851505
BISHAN,HDB EXECUTIVE,128,BISHAN ST 12,,,103.85046513297596,1.3460976
BISHAN,HDB 5 ROOM,275A,BISHAN ST 24,,,103.8433771625958,1.35673585
CENTRAL AREA,HDB 5 ROOM,1G,CANTONMENT RD,,,103.84130749625815,1.2755656499999999
CENTRAL AREA,HDB 4 ROOM,1G,CANTONMENT RD,,,103.84130749625815,1.2755656499999999
CENTRAL AREA,HDB 4 ROOM,1E,CANTONMENT RD,,,103.84115963216871,1.2766102
CLEMENTI,HDB 5 ROOM,440C,CLEMENTI AVE 3,,,103.7646163,1.3119428
KALLANG/WHAMPOA,HDB 5 ROOM,7,BOON KENG RD,,,103.86189918155178,1.31677585
QUEENSTOWN,HDB 5 ROOM,86,DAWSON RD,,,103.8104373980855,1.2957434
TOA PAYOH,HDB 5 ROOM,138B,LOR 1A TOA PAYOH,,,103.845503,1.336272
BISHAN,HDB EXECUTIVE,187,BISHAN ST 13,,,103.85135067846807,1.3497022
QUEENSTOWN,HDB EXECUTIVE,148,MEI LING ST,,,103.80448307932465,1.2943763
BISHAN,HDB EXECUTIVE,245,BISHAN ST 22,,,103.843911181924,1.3604704
BUKIT MERAH,HDB 5 ROOM,6A,BOON TIONG RD,,,103.8312372,1.2864563
BISHAN,HDB EXECUTIVE,238,BISHAN ST 22,,,103.84453090425157,1.3598696499999998
CLEMENTI,HDB 5 ROOM,311B,CLEMENTI AVE 4,,,103.76552678342165,1.31948065
HOUGANG,HDB EXECUTIVE,237,HOUGANG ST 21,,,103.8887515,1.3594518
SERANGOON,HDB EXECUTIVE,318,SERANGOON AVE 2,,,103.8675894,1.3529683
MARINE PARADE,HDB 5 ROOM,1,MARINE TER,,,147.3366487,-42.891510249999996
YISHUN,HDB MULTI-GENERATION,666,YISHUN AVE 4,,,103.84058447202246,1.41900665
WOODLANDS,HDB EXECUTIVE,808,WOODLANDS ST 81,,,103.78710780125323,1.4423866
BISHAN,HDB EXECUTIVE,201,BISHAN ST 23,,,103.84688240431143,1.35517855
KALLANG/WHAMPOA,HDB 5 ROOM,8,BOON KENG RD,,,103.861626131257,1.3164065
ANG MO KIO,HDB 5 ROOM,455B,ANG MO KIO ST 44,,,103.85853452668769,1.36833335
ANG MO KIO,HDB EXECUTIVE,616,ANG MO KIO AVE 4,,,103.83932784155203,1.3775341
BUKIT MERAH,HDB 4 ROOM,95A,HENDERSON RD,,,103.8213624397755,1.2866077
CENTRAL AREA,HDB 4 ROOM,1C,CANTONMENT RD,,,103.84166719999999,1.27743925
GEYLANG,HDB 5 ROOM,60,DAKOTA CRES,,,103.8885715,1.3078658
TOA PAYOH,HDB EXECUTIVE,236,LOR 1 TOA PAYOH,,,103.852178,1.340434
TOA PAYOH,HDB 5 ROOM,138A,LOR 1A TOA PAYOH,,,103.845592,1.336712
QUEENSTOWN,HDB EXECUTIVE,149,MEI LING ST,,,103.8049261955866,1.29486925
CENTRAL AREA,HDB 4 ROOM,1C,CANTONMENT RD,,,103.84166719999999,1.27743925
YISHUN,HDB EXECUTIVE,661,YISHUN AVE 4,,,103.84079092463381,1.4222066500000001
HOUGANG,HDB EXECUTIVE,373,HOUGANG ST 31,,,103.89060350231586,1.3626173000000001
KALLANG/WHAMPOA,HDB 4 ROOM,10B,BENDEMEER RD,,,103.86020990698296,1.3155904
BISHAN,HDB 5 ROOM,275A,BISHAN ST 24,,,103.8433771625958,1.35673585
BISHAN,HDB 5 ROOM,275A,BISHAN ST 24,,,103.8433771625958,1.35673585
BISHAN,HDB 4 ROOM,273A,BISHAN ST 24,,,103.84393683957725,1.35638725
CLEMENTI,HDB 5 ROOM,312C,CLEMENTI AVE 4,,,103.76413876822087,1.3195394500000002
HOUGANG,HDB EXECUTIVE,852,HOUGANG CTRL,,,103.89375436735747,1.3697100500000001
TOA PAYOH,HDB 5 ROOM,121,POTONG PASIR AVE 1,,,103.86584107878771,1.3356302
BEDOK,HDB EXECUTIVE,10D,BEDOK STH AVE 2,,,103.93641385448154,1.3217892500000001
TOA PAYOH,HDB EXECUTIVE,99A,LOR 2 TOA PAYOH,,,103.846872,1.33879
BISHAN,HDB 5 ROOM,273A,BISHAN ST 24,,,103.84393683957725,1.35638725
CENTRAL AREA,HDB 4 ROOM,1G,CANTONMENT RD,,,103.84130749625815,1.2755656499999999
CENTRAL AREA,HDB 4 ROOM,1G,CANTONMENT RD,,,103.84130749625815,1.2755656499999999
QUEENSTOWN,HDB 5 ROOM,22,GHIM MOH LINK,,,103.78569743583037,1.3092395
BUKIT MERAH,HDB 5 ROOM,126,BT MERAH VIEW,,,103.822593,1.285221
BUKIT TIMAH,HDB EXECUTIVE,8,TOH YI DR,,,103.77401090008142,1.3379367
CLEMENTI,HDB 5 ROOM,312C,CLEMENTI AVE 4,,,103.76413876822087,1.3195394500000002
ANG MO KIO,HDB 5 ROOM,588C,ANG MO KIO ST 52,,,103.8523889,1.3727536
ANG MO KIO,HDB 5 ROOM,260A,ANG MO KIO ST 21,,,103.83408467223104,1.3692568500000002
ANG MO KIO,HDB 5 ROOM,588D,ANG MO KIO ST 52,,,103.8523889,1.3727536
HOUGANG,HDB EXECUTIVE,407,HOUGANG AVE 10,,,103.89596086941245,1.3731602500000002
KALLANG/WHAMPOA,HDB 5 ROOM,7,BOON KENG RD,,,103.86189918155178,1.31677585
TOA PAYOH,HDB 5 ROOM,138A,LOR 1A TOA PAYOH,,,103.845592,1.336712
CENTRAL AREA,HDB 5 ROOM,1G,CANTONMENT RD,,,103.84130749625815,1.2755656499999999
CLEMENTI,HDB 5 ROOM,311A,CLEMENTI AVE 4,,,103.7656917946758,1.3190035
KALLANG/WHAMPOA,HDB 4 ROOM,8A,UPP BOON KENG RD,,,103.861381,1.316691
BUKIT MERAH,HDB 5 ROOM,7,KIM TIAN PL,,,103.82709236614535,1.2834804499999999
BISHAN,HDB 5 ROOM,273B,BISHAN ST 24,,,103.84347035831968,1.3560851
CLEMENTI,HDB 5 ROOM,441A,CLEMENTI AVE 3,,,103.7635208,1.3145027
TOA PAYOH,HDB 5 ROOM,139B,LOR 1A TOA PAYOH,,,103.843992,1.336714
BUKIT MERAH,HDB 5 ROOM,53,HAVELOCK RD,,,103.82892079770646,1.28939675
CENTRAL AREA,HDB 4 ROOM,1F,CANTONMENT RD,,,103.84120937106636,1.2759757
CENTRAL AREA,HDB 5 ROOM,1G,CANTONMENT RD,,,103.84130749625815,1.2755656499999999
KALLANG/WHAMPOA,HDB 5 ROOM,8A,UPP BOON KENG RD,,,103.861381,1.316691
CENTRAL AREA,HDB 4 ROOM,1C,CANTONMENT RD,,,103.84166719999999,1.27743925
KALLANG/WHAMPOA,HDB 5 ROOM,8C,UPP BOON KENG RD,,,103.861017,1.316577
QUEENSTOWN,HDB 5 ROOM,62A,STRATHMORE AVE,,,103.8114222239035,1.29438085
BUKIT MERAH,HDB 5 ROOM,4A,BOON TIONG RD,,,103.8312372,1.2864563
BISHAN,HDB EXECUTIVE,201,BISHAN ST 23,,,103.84688240431143,1.35517855
QUEENSTOWN,HDB 5 ROOM,89,TANGLIN HALT RD,,,103.79892899734304,1.30118995
SERANGOON,HDB EXECUTIVE,236A,SERANGOON AVE 2,,,103.8677965,1.3551991
BISHAN,HDB EXECUTIVE,257,BISHAN ST 22,,,103.8434496,1.359469
KALLANG/WHAMPOA,HDB 3 ROOM,46,JLN BAHAGIA,,,103.6465685,1.5987548
YISHUN,HDB EXECUTIVE,652,YISHUN AVE 4,,,103.8401623982173,1.4236131
TOA PAYOH,HDB 5 ROOM,138C,LOR 1A TOA PAYOH,,,103.844796,1.336258
BISHAN,HDB EXECUTIVE,162,BISHAN ST 13,,,103.85598106983178,1.34762545
KALLANG/WHAMPOA,HDB 5 ROOM,108C,MCNAIR RD,,,103.85964024666566,1.31977
BEDOK,HDB 5 ROOM,748A,BEDOK RESERVOIR CRES,,,103.92104417325812,1.3364314
TOA PAYOH,HDB 5 ROOM,138B,LOR 1A TOA PAYOH,,,103.845503,1.336272
TOA PAYOH,HDB 5 ROOM,139B,LOR 1A TOA PAYOH,,,103.843992,1.336714
QUEENSTOWN,HDB EXECUTIVE,148,MEI LING ST,,,103.80448307932465,1.2943763
BISHAN,HDB 5 ROOM,273B,BISHAN ST 24,,,103.84347035831968,1.3560851
BUKIT MERAH,HDB 5 ROOM,9B,BOON TIONG RD,,,103.8312372,1.2864563
BISHAN,HDB EXECUTIVE,102,BISHAN ST 12,,,103.84797974274343,1.34513835
CENTRAL AREA,HDB 4 ROOM,1B,CANTONMENT RD,,,103.84140360852476,1.2777916500000002
TOA PAYOH,HDB 5 ROOM,153,LOR 2 TOA PAYOH,,,103.845687,1.333674
TOA PAYOH,HDB 5 ROOM,153,LOR 2 TOA PAYOH,,,103.845687,1.333674
SERANGOON,HDB EXECUTIVE,234A,SERANGOON AVE 2,,,103.8690572777148,1.35437345
YISHUN,HDB MULTI-GENERATION,666,YISHUN AVE 4,,,103.84058447202246,1.41900665
BISHAN,HDB 5 ROOM,275A,BISHAN ST 24,,,103.8433771625958,1.35673585
BISHAN,HDB EXECUTIVE,443,SIN MING AVE,,,103.8292882,1.3594297
BISHAN,HDB EXECUTIVE,231,BISHAN ST 23,,,103.84581315505883,1.35731545
BUKIT MERAH,HDB 5 ROOM,126A,KIM TIAN RD,,,103.82954689078773,1.2828631499999998
BUKIT TIMAH,HDB EXECUTIVE,6,TOH YI DR,,,103.77536274494624,1.3377003
CENTRAL AREA,HDB 4 ROOM,1B,CANTONMENT RD,,,103.84140360852476,1.2777916500000002
CENTRAL AREA,HDB 4 ROOM,1A,CANTONMENT RD,,,103.84095280047099,1.2778303
QUEENSTOWN,HDB 5 ROOM,86,DAWSON RD,,,103.8104373980855,1.2957434
QUEENSTOWN,HDB 5 ROOM,93,DAWSON RD,,,103.81159928670759,1.2950553
QUEENSTOWN,HDB 5 ROOM,18C,HOLLAND DR,,,103.79185364147031,1.31040465
CLEMENTI,HDB 5 ROOM,312C,CLEMENTI AVE 4,,,103.76413876822087,1.3195394500000002
CLEMENTI,HDB 5 ROOM,312B,CLEMENTI AVE 4,,,103.7645293148418,1.31965005
BISHAN,HDB EXECUTIVE,231,BISHAN ST 23,,,103.84581315505883,1.35731545
BUKIT MERAH,HDB 5 ROOM,63B,LENGKOK BAHRU,,,103.81554423916955,1.2892428
KALLANG/WHAMPOA,HDB 5 ROOM,2D,UPP BOON KENG RD,,,103.872453,1.313214
BUKIT MERAH,HDB 5 ROOM,53,HAVELOCK RD,,,103.82892079770646,1.28939675
KALLANG/WHAMPOA,HDB EXECUTIVE,110,MCNAIR RD,,,103.85874063334425,1.32195385
QUEENSTOWN,HDB 5 ROOM,18D,HOLLAND DR,,,103.79252334722321,1.30995105
WOODLANDS,HDB EXECUTIVE,849,WOODLANDS ST 82,,,103.7933269,1.4443687
BUKIT MERAH,HDB 5 ROOM,11,CANTONMENT CL,,,103.83972925747867,1.2744195
BUKIT MERAH,HDB 5 ROOM,125,BT MERAH VIEW,,,103.822593,1.285221
CENTRAL AREA,HDB 5 ROOM,1F,CANTONMENT RD,,,103.84120937106636,1.2759757
BUKIT TIMAH,HDB EXECUTIVE,10,TOH YI DR,,,103.7733116230985,1.33782765
BISHAN,HDB EXECUTIVE,190,BISHAN ST 13,,,103.85204851205881,1.3505661999999998
ANG MO KIO,HDB 5 ROOM,588A,ANG MO KIO ST 52,,,103.8523889,1.3727536
TOA PAYOH,HDB 5 ROOM,122,LOR 2 TOA PAYOH,,,103.84635,1.33987
GEYLANG,HDB 5 ROOM,7,PINE CL,,,103.88270849147649,1.3074550999999999
BUKIT MERAH,HDB 5 ROOM,73A,REDHILL RD,,,103.81674901048444,1.28798455
CENTRAL AREA,HDB 4 ROOM,1F,CANTONMENT RD,,,103.84120937106636,1.2759757
BISHAN,HDB 5 ROOM,273B,BISHAN ST 24,,,103.84347035831968,1.3560851
SERANGOON,HDB EXECUTIVE,418,SERANGOON CTRL,,,103.8752430009876,1.3496877
BISHAN,HDB 5 ROOM,273B,BISHAN ST 24,,,103.84347035831968,1.3560851
CENTRAL AREA,HDB 5 ROOM,1G,CANTONMENT RD,,,103.84130749625815,1.2755656499999999
QUEENSTOWN,HDB EXECUTIVE,148,MEI LING ST,,,103.80448307932465,1.2943763
CENTRAL AREA,HDB 4 ROOM,1B,CANTONMENT RD,,,103.84140360852476,1.2777916500000002
TOA PAYOH,HDB 5 ROOM,139B,LOR 1A TOA PAYOH,,,103.843992,1.336714
BUKIT MERAH,HDB 5 ROOM,127D,KIM TIAN RD,,,103.82995250055936,1.2810986999999998
BUKIT MERAH,HDB 5 ROOM,44,LENGKOK BAHRU,,,103.81192415923778,1.28680895
BUKIT MERAH,HDB 5 ROOM,4B,BOON TIONG RD,,,103.8312372,1.2864563
KALLANG/WHAMPOA,HDB 3 ROOM,65,JLN MA'MOR,,,103.85794908392694,1.3283176
QUEENSTOWN,HDB 5 ROOM,91,DAWSON RD,,,103.81259075967662,1.29535175
TOA PAYOH,HDB 5 ROOM,153,LOR 2 TOA PAYOH,,,103.845687,1.333674
BUKIT MERAH,HDB 5 ROOM,56,HAVELOCK RD,,,103.82898160794349,1.2901179
CENTRAL AREA,HDB 5 ROOM,1A,CANTONMENT RD,,,103.84095280047099,1.2778303
YISHUN,HDB EXECUTIVE,661,YISHUN AVE 4,,,103.84079092463381,1.4222066500000001
ANG MO KIO,HDB 5 ROOM,588C,ANG MO KIO ST 52,,,103.8523889,1.3727536
BUKIT MERAH,HDB 5 ROOM,127D,KIM TIAN RD,,,103.82995250055936,1.2810986999999998
BISHAN,HDB 5 ROOM,275A,BISHAN ST 24,,,103.8433771625958,1.35673585
TOA PAYOH,HDB 5 ROOM,138A,LOR 1A TOA PAYOH,,,103.845592,1.336712
TOA PAYOH,HDB 5 ROOM,139A,LOR 1A TOA PAYOH,,,103.843925,1.336275
QUEENSTOWN,HDB EXECUTIVE,149,MEI LING ST,,,103.8049261955866,1.29486925
BISHAN,HDB EXECUTIVE,301,SHUNFU RD,,,103.83880649735408,1.3494366
CENTRAL AREA,HDB 5 ROOM,1A,CANTONMENT RD,,,103.84095280047099,1.2778303
CENTRAL AREA,HDB 5 ROOM,1F,CANTONMENT RD,,,103.84120937106636,1.2759757
BISHAN,HDB 5 ROOM,273B,BISHAN ST 24,,,103.84347035831968,1.3560851
BUKIT MERAH,HDB 5 ROOM,126A,KIM TIAN RD,,,103.82954689078773,1.2828631499999998
BUKIT MERAH,HDB 4 ROOM,9B,BOON TIONG RD,,,103.8312372,1.2864563
TOA PAYOH,HDB 5 ROOM,139B,LOR 1A TOA PAYOH,,,103.843992,1.336714
TOA PAYOH,HDB 5 ROOM,139B,LOR 1A TOA PAYOH,,,103.843992,1.336714
BISHAN,HDB 5 ROOM,273B,BISHAN ST 24,,,103.84347035831968,1.3560851
BUKIT MERAH,HDB 5 ROOM,9B,BOON TIONG RD,,,103.8312372,1.2864563
CENTRAL AREA,HDB 5 ROOM,1E,CANTONMENT RD,,,103.84115963216871,1.2766102
ANG MO KIO,HDB 5 ROOM,588B,ANG MO KIO ST 52,,,103.8523889,1.3727536
BUKIT MERAH,HDB 5 ROOM,126,BT MERAH VIEW,,,103.822593,1.285221
BUKIT TIMAH,HDB EXECUTIVE,6,TOH YI DR,,,103.77536274494624,1.3377003
BUKIT TIMAH,HDB EXECUTIVE,7,TOH YI DR,,,103.77096579006239,1.335348
CENTRAL AREA,HDB 5 ROOM,1A,CANTONMENT RD,,,103.84095280047099,1.2778303
CENTRAL AREA,HDB 5 ROOM,1D,CANTONMENT RD,,,103.84149595,1.2769187
CENTRAL AREA,HDB 4 ROOM,1C,CANTONMENT RD,,,103.84166719999999,1.27743925
CENTRAL AREA,HDB 5 ROOM,1D,CANTONMENT RD,,,103.84149595,1.2769187
CENTRAL AREA,HDB 4 ROOM,1B,CANTONMENT RD,,,103.84140360852476,1.2777916500000002
KALLANG/WHAMPOA,HDB 5 ROOM,8,BOON KENG RD,,,103.861626131257,1.3164065
QUEENSTOWN,HDB 5 ROOM,22,GHIM MOH LINK,,,103.78569743583037,1.3092395
QUEENSTOWN,HDB EXECUTIVE,150,MEI LING ST,,,103.80349801615912,1.2949669
QUEENSTOWN,HDB 5 ROOM,86,DAWSON RD,,,103.8104373980855,1.2957434
QUEENSTOWN,HDB 5 ROOM,90,DAWSON RD,,,103.81219264113793,1.29540805
TOA PAYOH,HDB 5 ROOM,138C,LOR 1A TOA PAYOH,,,103.844796,1.336258
TOA PAYOH,HDB 5 ROOM,139B,LOR 1A TOA PAYOH,,,103.843992,1.336714
QUEENSTOWN,HDB 5 ROOM,28,GHIM MOH LINK,,,103.7850542325032,1.30893615
TOA PAYOH,HDB 5 ROOM,138A,LOR 1A TOA PAYOH,,,103.845592,1.336712
ANG MO KIO,HDB 5 ROOM,260A,ANG MO KIO ST 21,,,103.83408467223104,1.3692568500000002
KALLANG/WHAMPOA,HDB 5 ROOM,7,BOON KENG RD,,,103.86189918155178,1.31677585
SERANGOON,HDB EXECUTIVE,234A,SERANGOON AVE 2,,,103.8690572777148,1.35437345
BISHAN,HDB 4 ROOM,273B,BISHAN ST 24,,,103.84347035831968,1.3560851
CLEMENTI,HDB 5 ROOM,311C,CLEMENTI AVE 4,,,103.76574775613031,1.3199674
QUEENSTOWN,HDB 5 ROOM,59,STRATHMORE AVE,,,103.81139312358758,1.2931142000000002
ANG MO KIO,HDB 5 ROOM,455B,ANG MO KIO ST 44,,,103.85853452668769,1.36833335
BUKIT MERAH,HDB 5 ROOM,4A,BOON TIONG RD,,,103.8312372,1.2864563
BUKIT MERAH,HDB 5 ROOM,8,KIM TIAN PL,,,103.82732198940028,1.28300305
CLEMENTI,HDB 5 ROOM,312A,CLEMENTI AVE 4,,,103.76463635387721,1.31895745
TOA PAYOH,HDB 5 ROOM,139A,LOR 1A TOA PAYOH,,,103.843925,1.336275
GEYLANG,HDB 5 ROOM,60,DAKOTA CRES,,,103.8885715,1.3078658
KALLANG/WHAMPOA,HDB EXECUTIVE,48,BENDEMEER RD,,,103.86625007702727,1.32329165
TOA PAYOH,HDB EXECUTIVE,131,POTONG PASIR AVE 1,,,103.86532674834172,1.3343647
KALLANG/WHAMPOA,HDB EXECUTIVE,108,JLN RAJAH,,,103.8555040608502,1.3281288
QUEENSTOWN,HDB 5 ROOM,50,STRATHMORE AVE,,,103.80876501193279,1.29384705
QUEENSTOWN,HDB 4 ROOM,18A,HOLLAND DR,,,103.79195255576951,1.31104385
TOA PAYOH,HDB 4 ROOM,131A,LOR 1 TOA PAYOH,,,103.843295,1.338392
WOODLANDS,HDB EXECUTIVE,807,WOODLANDS ST 81,,,103.78733544142435,1.4421061499999999
BISHAN,HDB EXECUTIVE,257,BISHAN ST 22,,,103.8434496,1.359469
GEYLANG,HDB 5 ROOM,60,DAKOTA CRES,,,103.8885715,1.3078658
BISHAN,HDB EXECUTIVE,212,BISHAN ST 23,,,103.84806592328593,1.3564943
KALLANG/WHAMPOA,HDB EXECUTIVE,105,JLN RAJAH,,,103.85402941639364,1.32837265
TOA PAYOH,HDB EXECUTIVE,257,KIM KEAT AVE,,,103.85731470410815,1.33260935
KALLANG/WHAMPOA,HDB 4 ROOM,8B,UPP BOON KENG RD,,,103.861165,1.31641
KALLANG/WHAMPOA,HDB EXECUTIVE,105,JLN RAJAH,,,103.85402941639364,1.32837265
YISHUN,HDB EXECUTIVE,661,YISHUN AVE 4,,,103.84079092463381,1.4222066500000001
QUEENSTOWN,HDB 4 ROOM,29,GHIM MOH LINK,,,103.78421974813246,1.3086386499999998
TOA PAYOH,HDB EXECUTIVE,240,LOR 1 TOA PAYOH,,,103.850815,1.34081
BISHAN,HDB 4 ROOM,273A,BISHAN ST 24,,,103.84393683957725,1.35638725
BUKIT TIMAH,HDB 5 ROOM,17,TOH YI DR,,,103.77268797940391,1.3396678
TOA PAYOH,HDB 5 ROOM,138C,LOR 1A TOA PAYOH,,,103.844796,1.336258
SERANGOON,HDB EXECUTIVE,322,SERANGOON AVE 3,,,103.86844783293458,1.351601
BEDOK,HDB EXECUTIVE,629,BEDOK RESERVOIR RD,,,103.9149474,1.3341018
QUEENSTOWN,HDB 5 ROOM,50,C'WEALTH DR,,,174.762055,-36.851505
CENTRAL AREA,HDB 4 ROOM,1F,CANTONMENT RD,,,103.84120937106636,1.2759757
KALLANG/WHAMPOA,HDB 5 ROOM,7,BOON KENG RD,,,103.86189918155178,1.31677585
QUEENSTOWN,HDB 5 ROOM,86,DAWSON RD,,,103.8104373980855,1.2957434
HOUGANG,HDB EXECUTIVE,221,HOUGANG ST 21,,,103.88406190695807,1.3568202
CENTRAL AREA,HDB 4 ROOM,1C,CANTONMENT RD,,,103.84166719999999,1.27743925
TOA PAYOH,HDB 5 ROOM,86,LOR 2 TOA PAYOH,,,103.847688,1.335767
CENTRAL AREA,HDB 5 ROOM,1D,CANTONMENT RD,,,103.84149595,1.2769187
QUEENSTOWN,HDB EXECUTIVE,150,MEI LING ST,,,103.80349801615912,1.2949669
BISHAN,HDB 5 ROOM,275A,BISHAN ST 24,,,103.8433771625958,1.35673585
CLEMENTI,HDB 5 ROOM,311C,CLEMENTI AVE 4,,,103.76574775613031,1.3199674
TOA PAYOH,HDB 5 ROOM,139B,LOR 1A TOA PAYOH,,,103.843992,1.336714
TOA PAYOH,HDB 5 ROOM,139A,LOR 1A TOA PAYOH,,,103.843925,1.336275
QUEENSTOWN,HDB 4 ROOM,89,DAWSON RD,,,103.81178906367273,1.2954712
BISHAN,HDB EXECUTIVE,245,BISHAN ST 22,,,103.843911181924,1.3604704
ANG MO KIO,HDB 5 ROOM,588B,ANG MO KIO ST 52,,,103.8523889,1.3727536
QUEENSTOWN,HDB 5 ROOM,23,GHIM MOH LINK,,,103.78608887143942,1.3087602999999999
CLEMENTI,HDB 5 ROOM,441A,CLEMENTI AVE 3,,,103.7635208,1.3145027
TOA PAYOH,HDB 5 ROOM,139B,LOR 1A TOA PAYOH,,,103.843992,1.336714
BISHAN,HDB EXECUTIVE,301,SHUNFU RD,,,103.83880649735408,1.3494366
CENTRAL AREA,HDB 4 ROOM,1C,CANTONMENT RD,,,103.84166719999999,1.27743925
KALLANG/WHAMPOA,HDB 5 ROOM,7,BOON KENG RD,,,103.86189918155178,1.31677585
CLEMENTI,HDB 5 ROOM,441A,CLEMENTI AVE 3,,,103.7635208,1.3145027
BUKIT MERAH,HDB 5 ROOM,9A,BOON TIONG RD,,,103.8312372,1.2864563
CENTRAL AREA,HDB 5 ROOM,1E,CANTONMENT RD,,,103.84115963216871,1.2766102
TOA PAYOH,HDB 5 ROOM,139B,LOR 1A TOA PAYOH,,,103.843992,1.336714
TOA PAYOH,HDB 5 ROOM,139B,LOR 1A TOA PAYOH,,,103.843992,1.336714
WOODLANDS,HDB EXECUTIVE,832,WOODLANDS ST 83,,,103.7940081,1.4409042
QUEENSTOWN,HDB 4 ROOM,32,GHIM MOH LINK,,,103.7844896017217,1.3100456999999999
BUKIT MERAH,HDB 4 ROOM,95C,HENDERSON RD,,,103.82205117375094,1.28741125
KALLANG/WHAMPOA,HDB 4 ROOM,113C,MCNAIR RD,,,103.86021022808282,1.3208015
QUEENSTOWN,HDB 4 ROOM,32,GHIM MOH LINK,,,103.7844896017217,1.3100456999999999
CENTRAL AREA,HDB 4 ROOM,1F,CANTONMENT RD,,,103.84120937106636,1.2759757
BUKIT MERAH,HDB 4 ROOM,96B,HENDERSON RD,,,103.82149418062977,1.2881168
MARINE PARADE,HDB 5 ROOM,6,MARINE TER,,,-2.1016918,57.1380866
BUKIT MERAH,HDB 5 ROOM,20,JLN MEMBINA,,,103.8256617,1.2855981
KALLANG/WHAMPOA,HDB 4 ROOM,10C,BENDEMEER RD,,,103.86077824070716,1.3159003
QUEENSTOWN,HDB 5 ROOM,50,C'WEALTH DR,,,174.762055,-36.851505
BISHAN,HDB 5 ROOM,273A,BISHAN ST 24,,,103.84393683957725,1.35638725
QUEENSTOWN,HDB 5 ROOM,50,C'WEALTH DR,,,174.762055,-36.851505
BUKIT TIMAH,HDB EXECUTIVE,10,TOH YI DR,,,103.7733116230985,1.33782765
BISHAN,HDB EXECUTIVE,301,SHUNFU RD,,,103.83880649735408,1.3494366
QUEENSTOWN,HDB 5 ROOM,53,C'WEALTH DR,,,19.541108,49.331482
BUKIT TIMAH,HDB EXECUTIVE,2,TOH YI DR,,,103.77544139072614,1.3390216000000001
CENTRAL AREA,HDB 4 ROOM,1B,CANTONMENT RD,,,103.84140360852476,1.2777916500000002
CLEMENTI,HDB 5 ROOM,441A,CLEMENTI AVE 3,,,103.7635208,1.3145027
CENTRAL AREA,HDB 5 ROOM,1F,CANTONMENT RD,,,103.84120937106636,1.2759757
QUEENSTOWN,HDB 5 ROOM,89,DAWSON RD,,,103.81178906367273,1.2954712
TOA PAYOH,HDB 5 ROOM,138C,LOR 1A TOA PAYOH,,,103.844796,1.336258
BUKIT MERAH,HDB 5 ROOM,4B,BOON TIONG RD,,,103.8312372,1.2864563
BUKIT TIMAH,HDB EXECUTIVE,2,TOH YI DR,,,103.77544139072614,1.3390216000000001
BUKIT TIMAH,HDB EXECUTIVE,2,TOH YI DR,,,103.77544139072614,1.3390216000000001
CENTRAL AREA,HDB 4 ROOM,1C,CANTONMENT RD,,,103.84166719999999,1.27743925
CLEMENTI,HDB 5 ROOM,311C,CLEMENTI AVE 4,,,103.76574775613031,1.3199674
SERANGOON,HDB EXECUTIVE,232A,SERANGOON AVE 2,,,103.86842707771481,1.35433855
CLEMENTI,HDB 5 ROOM,311B,CLEMENTI AVE 4,,,103.76552678342165,1.31948065
CLEMENTI,HDB 5 ROOM,311A,CLEMENTI AVE 4,,,103.7656917946758,1.3190035
YISHUN,HDB EXECUTIVE,652,YISHUN AVE 4,,,103.8401623982173,1.4236131
BUKIT MERAH,HDB 5 ROOM,6A,BOON TIONG RD,,,103.8312372,1.2864563
SERANGOON,HDB EXECUTIVE,319,SERANGOON AVE 2,,,103.86811868277891,1.3525743000000001
CENTRAL AREA,HDB 4 ROOM,1F,CANTONMENT RD,,,103.84120937106636,1.2759757
BUKIT MERAH,HDB 5 ROOM,127D,KIM TIAN RD,,,103.82995250055936,1.2810986999999998
WOODLANDS,HDB EXECUTIVE,412,WOODLANDS ST 41,,,103.77281969514635,1.4281484
TOA PAYOH,HDB 5 ROOM,153,LOR 2 TOA PAYOH,,,103.845687,1.333674
TOA PAYOH,HDB EXECUTIVE,236,LOR 1 TOA PAYOH,,,103.852178,1.340434
HOUGANG,HDB EXECUTIVE,221,HOUGANG ST 21,,,103.88406190695807,1.3568202
SERANGOON,HDB EXECUTIVE,236A,SERANGOON AVE 2,,,103.8677965,1.3551991
BISHAN,HDB EXECUTIVE,212,BISHAN ST 23,,,103.84806592328593,1.3564943
BUKIT MERAH,HDB 5 ROOM,4B,BOON TIONG RD,,,103.8312372,1.2864563
CLEMENTI,HDB 5 ROOM,311C,CLEMENTI AVE 4,,,103.76574775613031,1.3199674
BUKIT MERAH,HDB 5 ROOM,22,JLN MEMBINA,,,103.82649489269834,1.28483305
QUEENSTOWN,HDB 4 ROOM,93,DAWSON RD,,,103.81159928670759,1.2950553
CLEMENTI,HDB 5 ROOM,312C,CLEMENTI AVE 4,,,103.76413876822087,1.3195394500000002
KALLANG/WHAMPOA,HDB 4 ROOM,10B,BENDEMEER RD,,,103.86020990698296,1.3155904
QUEENSTOWN,HDB 5 ROOM,50,C'WEALTH DR,,,174.762055,-36.851505
TOA PAYOH,HDB 5 ROOM,138B,LOR 1A TOA PAYOH,,,103.845503,1.336272
KALLANG/WHAMPOA,HDB 5 ROOM,9,BOON KENG RD,,,103.86133085459377,1.31605155
QUEENSTOWN,HDB 5 ROOM,93,DAWSON RD,,,103.81159928670759,1.2950553
TOA PAYOH,HDB 5 ROOM,138C,LOR 1A TOA PAYOH,,,103.844796,1.336258
BISHAN,HDB EXECUTIVE,445,SIN MING AVE,,,103.83195479734303,1.35862345
CENTRAL AREA,HDB 5 ROOM,1G,CANTONMENT RD,,,103.84130749625815,1.2755656499999999
QUEENSTOWN,HDB 5 ROOM,88,DAWSON RD,,,103.80946052594598,1.29587985
BISHAN,HDB 5 ROOM,237,BISHAN ST 22,,,103.8478793,1.3538152
TOA PAYOH,HDB EXECUTIVE,124,POTONG PASIR AVE 1,,,103.86549585,1.3353046
BEDOK,HDB EXECUTIVE,29A,CHAI CHEE AVE,,,103.9238311336324,1.3247048000000001
TOA PAYOH,HDB 5 ROOM,139A,LOR 1A TOA PAYOH,,,103.843925,1.336275
CENTRAL AREA,HDB 5 ROOM,1G,CANTONMENT RD,,,103.84130749625815,1.2755656499999999
QUEENSTOWN,HDB 5 ROOM,28A,DOVER CRES,,,103.78217037439873,1.30495405
QUEENSTOWN,HDB 4 ROOM,91,DAWSON RD,,,103.81259075967662,1.29535175
CENTRAL AREA,HDB 5 ROOM,1E,CANTONMENT RD,,,103.84115963216871,1.2766102
CENTRAL AREA,HDB 4 ROOM,1G,CANTONMENT RD,,,103.84130749625815,1.2755656499999999
CENTRAL AREA,HDB 4 ROOM,1E,CANTONMENT RD,,,103.84115963216871,1.2766102
CENTRAL AREA,HDB 5 ROOM,1G,CANTONMENT RD,,,103.84130749625815,1.2755656499999999
QUEENSTOWN,HDB 5 ROOM,18D,HOLLAND DR,,,103.79252334722321,1.30995105
BISHAN,HDB 5 ROOM,275A,BISHAN ST 24,,,103.8433771625958,1.35673585
BISHAN,HDB 5 ROOM,273A,BISHAN ST 24,,,103.84393683957725,1.35638725
TOA PAYOH,HDB 5 ROOM,139A,LOR 1A TOA PAYOH,,,103.843925,1.336275
CENTRAL AREA,HDB 4 ROOM,1B,CANTONMENT RD,,,103.84140360852476,1.2777916500000002
CENTRAL AREA,HDB 5 ROOM,1D,CANTONMENT RD,,,103.84149595,1.2769187
QUEENSTOWN,HDB 5 ROOM,50,C'WEALTH DR,,,174.762055,-36.851505
CENTRAL AREA,HDB 4 ROOM,1E,CANTONMENT RD,,,103.84115963216871,1.2766102
QUEENSTOWN,HDB EXECUTIVE,148,MEI LING ST,,,103.80448307932465,1.2943763
ANG MO KIO,HDB EXECUTIVE,608,ANG MO KIO AVE 5,,,103.83694926889964,1.37873095
CENTRAL AREA,HDB 4 ROOM,1A,CANTONMENT RD,,,103.84095280047099,1.2778303
CENTRAL AREA,HDB 5 ROOM,1C,CANTONMENT RD,,,103.84166719999999,1.27743925
QUEENSTOWN,HDB 5 ROOM,91,DAWSON RD,,,103.81259075967662,1.29535175
BISHAN,HDB 5 ROOM,273B,BISHAN ST 24,,,103.84347035831968,1.3560851
BISHAN,HDB EXECUTIVE,245,BISHAN ST 22,,,103.843911181924,1.3604704
BISHAN,HDB EXECUTIVE,446,BRIGHT HILL DR,,,103.8332315,1.359374
BUKIT MERAH,HDB 4 ROOM,96B,HENDERSON RD,,,103.82149418062977,1.2881168
CENTRAL AREA,HDB 4 ROOM,1B,CANTONMENT RD,,,103.84140360852476,1.2777916500000002
CENTRAL AREA,HDB 4 ROOM,1F,CANTONMENT RD,,,103.84120937106636,1.2759757
CLEMENTI,HDB 5 ROOM,311C,CLEMENTI AVE 4,,,103.76574775613031,1.3199674
CLEMENTI,HDB 5 ROOM,312B,CLEMENTI AVE 4,,,103.7645293148418,1.31965005
QUEENSTOWN,HDB 5 ROOM,50,C'WEALTH DR,,,174.762055,-36.851505
QUEENSTOWN,HDB 5 ROOM,88,DAWSON RD,,,103.80946052594598,1.29587985
QUEENSTOWN,HDB 5 ROOM,92,DAWSON RD,,,103.81114874168577,1.2951394
SERANGOON,HDB EXECUTIVE,236A,SERANGOON AVE 2,,,103.8680585,1.3539339
BUKIT MERAH,HDB 5 ROOM,8,KIM TIAN PL,,,103.82732198940028,1.28300305
CLEMENTI,HDB 5 ROOM,312B,CLEMENTI AVE 4,,,103.7645293148418,1.31965005
WOODLANDS,HDB EXECUTIVE,805,WOODLANDS ST 81,,,103.78740086444435,1.44065865
BUKIT MERAH,HDB 5 ROOM,8,CANTONMENT CL,,,103.83901794252134,1.2758331
BUKIT MERAH,HDB 5 ROOM,125,KIM TIAN RD,,,103.828282666071,1.2836184
BISHAN,HDB EXECUTIVE,119,BISHAN ST 12,,,103.85049333887234,1.3473414
TOA PAYOH,HDB 5 ROOM,154,LOR 2 TOA PAYOH,,,103.846161,1.333255
ANG MO KIO,HDB 5 ROOM,260B,ANG MO KIO ST 21,,,103.8338372238754,1.36895025
BISHAN,HDB EXECUTIVE,134,BISHAN ST 12,,,103.85213300772813,1.3455328
CENTRAL AREA,HDB 4 ROOM,1A,CANTONMENT RD,,,103.84095280047099,1.2778303
BEDOK,HDB EXECUTIVE,665,JLN DAMAI,,,103.90812306443013,1.33412555
BUKIT MERAH,HDB 5 ROOM,76A,REDHILL RD,,,103.81680679306015,1.2887526
CLEMENTI,HDB EXECUTIVE,104,CLEMENTI ST 14,,,103.76921741844055,1.32294575
TOA PAYOH,HDB EXECUTIVE,99C,LOR 2 TOA PAYOH,,,103.84758,1.339155
BUKIT MERAH,HDB 5 ROOM,19,CANTONMENT CL,,,103.83902539090099,1.2738632
SERANGOON,HDB EXECUTIVE,542,SERANGOON NTH AVE 4,,,103.872104,1.374027
TOA PAYOH,HDB 5 ROOM,121,LOR 2 TOA PAYOH,,,103.846198,1.339134
QUEENSTOWN,HDB 5 ROOM,52,STRATHMORE AVE,,,103.80825663256502,1.2933132
KALLANG/WHAMPOA,HDB 4 ROOM,113B,MCNAIR RD,,,103.86056912808283,1.321301
SERANGOON,HDB EXECUTIVE,234A,SERANGOON AVE 2,,,103.8690572777148,1.35437345
BUKIT MERAH,HDB 4 ROOM,54,HAVELOCK RD,,,103.82933623199524,1.2893554
TOA PAYOH,HDB 4 ROOM,130B,LOR 1 TOA PAYOH,,,103.842595,1.337456
BISHAN,HDB 5 ROOM,275A,BISHAN ST 24,,,103.8433771625958,1.35673585
BISHAN,HDB 5 ROOM,275A,BISHAN ST 24,,,103.8433771625958,1.35673585
QUEENSTOWN,HDB 5 ROOM,53,C'WEALTH DR,,,19.541108,49.331482
ANG MO KIO,HDB 5 ROOM,588C,ANG MO KIO ST 52,,,103.8523889,1.3727536
KALLANG/WHAMPOA,HDB 5 ROOM,8,BOON KENG RD,,,103.861626131257,1.3164065
TOA PAYOH,HDB 5 ROOM,147,LOR 2 TOA PAYOH,,,103.845363,1.334661
CENTRAL AREA,HDB 5 ROOM,1E,CANTONMENT RD,,,103.84115963216871,1.2766102
QUEENSTOWN,HDB 5 ROOM,50,C'WEALTH DR,,,174.762055,-36.851505
QUEENSTOWN,HDB 5 ROOM,83,STRATHMORE AVE,,,103.8082496754429,1.2947918999999999
CENTRAL AREA,HDB 5 ROOM,1A,CANTONMENT RD,,,103.84095280047099,1.2778303
CENTRAL AREA,HDB 4 ROOM,1B,CANTONMENT RD,,,103.84140360852476,1.2777916500000002
KALLANG/WHAMPOA,HDB 5 ROOM,7,BOON KENG RD,,,103.86189918155178,1.31677585
BISHAN,HDB EXECUTIVE,301,SHUNFU RD,,,103.83880649735408,1.3494366
BISHAN,HDB EXECUTIVE,173,BISHAN ST 13,,,103.85425864853633,1.3477640499999999
BISHAN,HDB EXECUTIVE,134,BISHAN ST 12,,,103.85213300772813,1.3455328
BISHAN,HDB EXECUTIVE,301,SHUNFU RD,,,103.83880649735408,1.3494366
BISHAN,HDB EXECUTIVE,245,BISHAN ST 22,,,103.843911181924,1.3604704
CENTRAL AREA,HDB 4 ROOM,1A,CANTONMENT RD,,,103.84095280047099,1.2778303
CENTRAL AREA,HDB 4 ROOM,1D,CANTONMENT RD,,,103.84149595,1.2769187
BUKIT MERAH,HDB 5 ROOM,126,BT MERAH VIEW,,,103.822593,1.285221
SERANGOON,HDB EXECUTIVE,318,SERANGOON AVE 2,,,103.8675894,1.3529683
ANG MO KIO,HDB 5 ROOM,260A,ANG MO KIO ST 21,,,103.83408467223104,1.3692568500000002
MARINE PARADE,HDB 5 ROOM,78,MARINE DR,,,-123.53932082082257,48.69086215
CENTRAL AREA,HDB 4 ROOM,1E,CANTONMENT RD,,,103.84115963216871,1.2766102
BEDOK,HDB 5 ROOM,747A,BEDOK RESERVOIR CRES,,,103.92126219728519,1.33661545
GEYLANG,HDB EXECUTIVE,132,GEYLANG EAST AVE 1,,,103.88594620170632,1.31637345
CENTRAL AREA,HDB 4 ROOM,1B,CANTONMENT RD,,,103.84140360852476,1.2777916500000002
TOA PAYOH,HDB EXECUTIVE,99B,LOR 2 TOA PAYOH,,,103.847264,1.338738
CENTRAL AREA,HDB 4 ROOM,1F,CANTONMENT RD,,,103.84120937106636,1.2759757
SERANGOON,HDB EXECUTIVE,232A,SERANGOON AVE 2,,,103.86842707771481,1.35433855
TOA PAYOH,HDB 5 ROOM,138C,LOR 1A TOA PAYOH,,,103.844796,1.336258
ANG MO KIO,HDB 5 ROOM,260B,ANG MO KIO ST 21,,,103.8338372238754,1.36895025
ANG MO KIO,HDB 5 ROOM,260B,ANG MO KIO ST 21,,,103.8338372238754,1.36895025
HOUGANG,HDB EXECUTIVE,374,HOUGANG ST 31,,,103.88983184931763,1.36288995
ANG MO KIO,HDB 5 ROOM,588C,ANG MO KIO ST 52,,,103.8523889,1.3727536
BUKIT MERAH,HDB 4 ROOM,10B,BOON TIONG RD,,,103.8312372,1.2864563
CLEMENTI,HDB EXECUTIVE,115,CLEMENTI ST 13,,,103.77124597932868,1.3237269
TAMPINES,HDB EXECUTIVE,156,TAMPINES ST 12,,,103.94483179021856,1.3515453
CENTRAL AREA,HDB 4 ROOM,1A,CANTONMENT RD,,,103.84095280047099,1.2778303
WOODLANDS,HDB EXECUTIVE,820,WOODLANDS ST 82,,,103.7933269,1.4443687
CENTRAL AREA,HDB 4 ROOM,1A,CANTONMENT RD,,,103.84095280047099,1.2778303
QUEENSTOWN,HDB 5 ROOM,23,GHIM MOH LINK,,,103.78608887143942,1.3087602999999999
CLEMENTI,HDB 5 ROOM,441A,CLEMENTI AVE 3,,,103.7635208,1.3145027
BISHAN,HDB 5 ROOM,273B,BISHAN ST 24,,,103.84347035831968,1.3560851
CENTRAL AREA,HDB 4 ROOM,1F,CANTONMENT RD,,,103.84120937106636,1.2759757
BISHAN,HDB 5 ROOM,273B,BISHAN ST 24,,,103.84347035831968,1.3560851
QUEENSTOWN,HDB 5 ROOM,3,HOLLAND CL,,,-0.16953543438369567,51.6390631
CENTRAL AREA,HDB 5 ROOM,1E,CANTONMENT RD,,,103.84115963216871,1.2766102
BUKIT TIMAH,HDB EXECUTIVE,6,TOH YI DR,,,103.77536274494624,1.3377003
CENTRAL AREA,HDB 4 ROOM,1A,CANTONMENT RD,,,103.84095280047099,1.2778303
BUKIT MERAH,HDB 4 ROOM,10A,BOON TIONG RD,,,103.8312372,1.2864563
CENTRAL AREA,HDB 4 ROOM,1E,CANTONMENT RD,,,103.84115963216871,1.2766102
BISHAN,HDB 5 ROOM,275A,BISHAN ST 24,,,103.8433771625958,1.35673585
BISHAN,HDB EXECUTIVE,212,BISHAN ST 23,,,103.84806592328593,1.3564943
BUKIT MERAH,HDB 5 ROOM,56,HAVELOCK RD,,,103.82898160794349,1.2901179
BUKIT TIMAH,HDB EXECUTIVE,3,TOH YI DR,,,103.77094288747772,1.3352358500000001
CENTRAL AREA,HDB 4 ROOM,1A,CANTONMENT RD,,,103.84095280047099,1.2778303
CENTRAL AREA,HDB 4 ROOM,1C,CANTONMENT RD,,,103.84166719999999,1.27743925
CENTRAL AREA,HDB 5 ROOM,1C,CANTONMENT RD,,,103.84166719999999,1.27743925
QUEENSTOWN,HDB 5 ROOM,18D,HOLLAND DR,,,103.79252334722321,1.30995105
SERANGOON,HDB EXECUTIVE,236A,SERANGOON AVE 2,,,103.8680585,1.3539339
GEYLANG,HDB 5 ROOM,5,PINE CL,,,1.0714440393538156,51.85405315
QUEENSTOWN,HDB 5 ROOM,81,STRATHMORE AVE,,,103.80922688808316,1.29469995
BUKIT MERAH,HDB 5 ROOM,4B,BOON TIONG RD,,,103.8312372,1.2864563
ANG MO KIO,HDB 5 ROOM,260B,ANG MO KIO ST 21,,,103.8338372238754,1.36895025
KALLANG/WHAMPOA,HDB 5 ROOM,9,BOON KENG RD,,,103.86133085459377,1.31605155
SERANGOON,HDB EXECUTIVE,424,SERANGOON CTRL,,,103.87558581006166,1.3481472499999998
ANG MO KIO,HDB 5 ROOM,455B,ANG MO KIO ST 44,,,103.85853452668769,1.36833335
BUKIT MERAH,HDB 5 ROOM,125,KIM TIAN RD,,,103.828282666071,1.2836184
TOA PAYOH,HDB 5 ROOM,81,LOR 4 TOA PAYOH,,,103.85002,1.335606
WOODLANDS,HDB EXECUTIVE,308,WOODLANDS AVE 1,,,103.77656170059089,1.4298359999999999
KALLANG/WHAMPOA,HDB 5 ROOM,2D,UPP BOON KENG RD,,,103.872453,1.313214
BISHAN,HDB EXECUTIVE,401,SIN MING AVE,,,103.83316330585285,1.362515
GEYLANG,HDB 5 ROOM,62,DAKOTA CRES,,,103.88887287566604,1.30785825
KALLANG/WHAMPOA,HDB EXECUTIVE,46,BENDEMEER RD,,,103.86602064317196,1.3229285
GEYLANG,HDB EXECUTIVE,132,GEYLANG EAST AVE 1,,,103.88594620170632,1.31637345
WOODLANDS,HDB EXECUTIVE,807,WOODLANDS ST 81,,,103.78733544142435,1.4421061499999999
GEYLANG,HDB 5 ROOM,417,EUNOS RD 5,,,103.896901593693,1.3181764
KALLANG/WHAMPOA,HDB EXECUTIVE,110,MCNAIR RD,,,103.85874063334425,1.32195385
ANG MO KIO,HDB 5 ROOM,700C,ANG MO KIO AVE 6,,,103.8465557939056,1.3695505
BUKIT MERAH,HDB 5 ROOM,8A,BOON TIONG RD,,,103.8312372,1.2864563
TOA PAYOH,HDB 4 ROOM,130B,LOR 1 TOA PAYOH,,,103.842595,1.337456
BUKIT MERAH,HDB 4 ROOM,55,HAVELOCK RD,,,103.82930573596938,1.2900801
KALLANG/WHAMPOA,HDB 4 ROOM,113B,MCNAIR RD,,,103.86056912808283,1.321301
MARINE PARADE,HDB 5 ROOM,78,MARINE DR,,,-123.53932082082257,48.69086215
BUKIT PANJANG,HDB EXECUTIVE,181,JELEBU RD,,,103.7644873,1.3785469
JURONG EAST,HDB EXECUTIVE,287B,JURONG EAST ST 21,,,103.74445354916035,1.3383444500000001
QUEENSTOWN,HDB EXECUTIVE,22,DOVER CRES,,,103.78360274213586,1.3071047999999998
TOA PAYOH,HDB 5 ROOM,152,LOR 2 TOA PAYOH,,,103.845894,1.334172
BUKIT TIMAH,HDB EXECUTIVE,6,TOH YI DR,,,103.77536274494624,1.3377003
BISHAN,HDB EXECUTIVE,451,SIN MING AVE,,,103.8390037,1.3620254
BUKIT MERAH,HDB 4 ROOM,10A,BOON TIONG RD,,,103.8312372,1.2864563
BUKIT MERAH,HDB 5 ROOM,7,KIM TIAN PL,,,103.82709236614535,1.2834804499999999
CENTRAL AREA,HDB 4 ROOM,1C,CANTONMENT RD,,,103.84166719999999,1.27743925
CLEMENTI,HDB 5 ROOM,311C,CLEMENTI AVE 4,,,103.76574775613031,1.3199674
QUEENSTOWN,HDB 4 ROOM,32,GHIM MOH LINK,,,103.7844896017217,1.3100456999999999
BISHAN,HDB EXECUTIVE,301,SHUNFU RD,,,103.83880649735408,1.3494366
QUEENSTOWN,HDB 5 ROOM,30,HOLLAND CL,,,103.7972687,1.3067757
TOA PAYOH,HDB 5 ROOM,84B,LOR 2 TOA PAYOH,,,103.846773,1.33577
TOA PAYOH,HDB 4 ROOM,131A,LOR 1 TOA PAYOH,,,103.843295,1.338392
TOA PAYOH,HDB EXECUTIVE,236,LOR 1 TOA PAYOH,,,103.852178,1.340434
ANG MO KIO,HDB 5 ROOM,455A,ANG MO KIO ST 44,,,103.85754896424143,1.3681798
JURONG EAST,HDB EXECUTIVE,285C,TOH GUAN RD,,,103.74662028591035,1.3378836
JURONG EAST,HDB EXECUTIVE,285C,TOH GUAN RD,,,103.74662028591035,1.3378836
TOA PAYOH,HDB 5 ROOM,138B,LOR 1A TOA PAYOH,,,103.845503,1.336272
WOODLANDS,HDB EXECUTIVE,807,WOODLANDS ST 81,,,103.78733544142435,1.4421061499999999
ANG MO KIO,HDB 5 ROOM,455B,ANG MO KIO ST 44,,,103.85853452668769,1.36833335
BUKIT TIMAH,HDB EXECUTIVE,2,TOH YI DR,,,103.77544139072614,1.3390216000000001
TOA PAYOH,HDB 5 ROOM,139B,LOR 1A TOA PAYOH,,,103.843992,1.336714
CENTRAL AREA,HDB 4 ROOM,1G,CANTONMENT RD,,,103.84130749625815,1.2755656499999999
BISHAN,HDB EXECUTIVE,222,BISHAN ST 23,,,103.8481948,1.3580767
CENTRAL AREA,HDB 5 ROOM,1G,CANTONMENT RD,,,103.84130749625815,1.2755656499999999
SERANGOON,HDB EXECUTIVE,321,SERANGOON AVE 2,,,103.86779065846642,1.3512899
CLEMENTI,HDB 5 ROOM,311B,CLEMENTI AVE 4,,,103.76552678342165,1.31948065
BISHAN,HDB 5 ROOM,263,BISHAN ST 22,,,103.84241943382229,1.3589468
QUEENSTOWN,HDB 5 ROOM,7,C'WEALTH AVE,,,-71.4434215,41.8272005
KALLANG/WHAMPOA,HDB 4 ROOM,8A,UPP BOON KENG RD,,,103.861381,1.316691
QUEENSTOWN,HDB 5 ROOM,132,CLARENCE LANE,,,103.81497048804914,1.2922213999999999
WOODLANDS,HDB EXECUTIVE,849,WOODLANDS ST 82,,,103.7933269,1.4443687
BUKIT MERAH,HDB 4 ROOM,10A,BOON TIONG RD,,,103.8312372,1.2864563
TAMPINES,HDB EXECUTIVE,856D,TAMPINES ST 82,,,103.9388144464327,1.35218925
CENTRAL AREA,HDB 4 ROOM,1B,CANTONMENT RD,,,103.84140360852476,1.2777916500000002
TOA PAYOH,HDB 4 ROOM,131B,LOR 1 TOA PAYOH,,,103.842848,1.338386
CENTRAL AREA,HDB 4 ROOM,1C,CANTONMENT RD,,,103.84166719999999,1.27743925
CENTRAL AREA,HDB 5 ROOM,1B,CANTONMENT RD,,,103.84140360852476,1.2777916500000002
BUKIT MERAH,HDB 5 ROOM,126,BT MERAH VIEW,,,103.822593,1.285221
MARINE PARADE,HDB 5 ROOM,28,MARINE CRES,,,103.91335220110804,1.3034572500000001
TOA PAYOH,HDB 4 ROOM,131B,LOR 1 TOA PAYOH,,,103.842848,1.338386
QUEENSTOWN,HDB 5 ROOM,90,DAWSON RD,,,103.81219264113793,1.29540805
BISHAN,HDB EXECUTIVE,186,BISHAN ST 13,,,103.8522869844987,1.34940615
TOA PAYOH,HDB 5 ROOM,139A,LOR 1A TOA PAYOH,,,103.843925,1.336275
BISHAN,HDB EXECUTIVE,135,BISHAN ST 12,,,103.85128034561743,1.34456145
KALLANG/WHAMPOA,HDB 5 ROOM,8,BOON KENG RD,,,103.861626131257,1.3164065
CENTRAL AREA,HDB 4 ROOM,1E,CANTONMENT RD,,,103.84115963216871,1.2766102
BISHAN,HDB EXECUTIVE,444,SIN MING AVE,,,103.8390037,1.3620254
QUEENSTOWN,HDB 5 ROOM,90,DAWSON RD,,,103.81219264113793,1.29540805
QUEENSTOWN,HDB 5 ROOM,86,DAWSON RD,,,103.8104373980855,1.2957434
BUKIT MERAH,HDB 5 ROOM,127D,KIM TIAN RD,,,103.82995250055936,1.2810986999999998
BUKIT MERAH,HDB 4 ROOM,9A,BOON TIONG RD,,,103.8312372,1.2864563
BUKIT TIMAH,HDB EXECUTIVE,3,TOH YI DR,,,103.77094288747772,1.3352358500000001
CENTRAL AREA,HDB 5 ROOM,1C,CANTONMENT RD,,,103.84166719999999,1.27743925
TOA PAYOH,HDB 5 ROOM,79C,TOA PAYOH CTRL,,,103.84857618885223,1.33461305
KALLANG/WHAMPOA,HDB 5 ROOM,104,TOWNER RD,,,103.86095352497469,1.3198089
CLEMENTI,HDB EXECUTIVE,111,CLEMENTI ST 13,,,103.77108632181287,1.32321315
CLEMENTI,HDB 5 ROOM,311C,CLEMENTI AVE 4,,,103.76574775613031,1.3199674
SERANGOON,HDB EXECUTIVE,317,SERANGOON AVE 2,,,103.8680585,1.3539339
WOODLANDS,HDB EXECUTIVE,807,WOODLANDS ST 81,,,103.78733544142435,1.4421061499999999
BUKIT MERAH,HDB 4 ROOM,56,HAVELOCK RD,,,103.82898160794349,1.2901179
BUKIT MERAH,HDB 5 ROOM,120,KIM TIAN PL,,,103.82801552453225,1.28293415
HOUGANG,HDB EXECUTIVE,222,HOUGANG ST 21,,,103.8887515,1.3594518
TOA PAYOH,HDB EXECUTIVE,125,POTONG PASIR AVE 1,,,103.8651772097497,1.3354678
KALLANG/WHAMPOA,HDB 4 ROOM,9,BOON KENG RD,,,103.86133085459377,1.31605155
TOA PAYOH,HDB 5 ROOM,138A,LOR 1A TOA PAYOH,,,103.845592,1.336712
BISHAN,HDB EXECUTIVE,212,BISHAN ST 23,,,103.84806592328593,1.3564943
CLEMENTI,HDB 5 ROOM,311A,CLEMENTI AVE 4,,,103.7656917946758,1.3190035
BUKIT MERAH,HDB 4 ROOM,10B,BOON TIONG RD,,,103.8312372,1.2864563
CLEMENTI,HDB EXECUTIVE,201,CLEMENTI AVE 6,,,103.7624183,1.3174562
CLEMENTI,HDB 5 ROOM,311C,CLEMENTI AVE 4,,,103.76574775613031,1.3199674
BUKIT MERAH,HDB 4 ROOM,9B,BOON TIONG RD,,,103.8312372,1.2864563
TOA PAYOH,HDB 5 ROOM,138C,LOR 1A TOA PAYOH,,,103.844796,1.336258
ANG MO KIO,HDB 5 ROOM,310B,ANG MO KIO AVE 1,,,103.84422109983103,1.36477835
GEYLANG,HDB 5 ROOM,60,DAKOTA CRES,,,103.8885715,1.3078658
BUKIT MERAH,HDB 5 ROOM,121A,KIM TIAN PL,,,103.82824461838399,1.28262025
BUKIT BATOK,HDB EXECUTIVE,289A,BUKIT BATOK ST 25,,,103.76067726025718,1.3446019
TOA PAYOH,HDB 4 ROOM,131B,LOR 1 TOA PAYOH,,,103.842848,1.338386
BISHAN,HDB EXECUTIVE,401,SIN MING AVE,,,103.83316330585285,1.362515
BUKIT MERAH,HDB 4 ROOM,10A,BOON TIONG RD,,,103.8312372,1.2864563
TOA PAYOH,HDB 5 ROOM,139A,LOR 1A TOA PAYOH,,,103.843925,1.336275
BISHAN,HDB EXECUTIVE,168,BISHAN ST 13,,,103.85415870980921,1.34734
BUKIT MERAH,HDB 4 ROOM,10A,BOON TIONG RD,,,103.8312372,1.2864563
BUKIT MERAH,HDB 4 ROOM,10A,BOON TIONG RD,,,103.8312372,1.2864563
BUKIT MERAH,HDB 4 ROOM,10A,BOON TIONG RD,,,103.8312372,1.2864563
CENTRAL AREA,HDB 4 ROOM,1A,CANTONMENT RD,,,103.84095280047099,1.2778303
KALLANG/WHAMPOA,HDB 5 ROOM,7,BOON KENG RD,,,103.86189918155178,1.31677585
TOA PAYOH,HDB EXECUTIVE,124,POTONG PASIR AVE 1,,,103.86549585,1.3353046
ANG MO KIO,HDB 5 ROOM,455A,ANG MO KIO ST 44,,,103.85754896424143,1.3681798
ANG MO KIO,HDB 5 ROOM,700C,ANG MO KIO AVE 6,,,103.8465557939056,1.3695505
JURONG EAST,HDB EXECUTIVE,287C,JURONG EAST ST 21,,,103.74499410415032,1.337998
QUEENSTOWN,HDB 4 ROOM,86,DAWSON RD,,,103.8104373980855,1.2957434
TOA PAYOH,HDB 5 ROOM,97,LOR 3 TOA PAYOH,,,103.847747,1.338514
BISHAN,HDB 4 ROOM,273A,BISHAN ST 24,,,103.84393683957725,1.35638725
QUEENSTOWN,HDB 5 ROOM,146,MEI LING ST,,,103.8045221037272,1.2939101000000002
BUKIT MERAH,HDB 5 ROOM,20,JLN MEMBINA,,,103.8256617,1.2855981
ANG MO KIO,HDB EXECUTIVE,104A,ANG MO KIO ST 11,,,103.83918212563815,1.3715978999999998
BISHAN,HDB 5 ROOM,273B,BISHAN ST 24,,,103.84347035831968,1.3560851
KALLANG/WHAMPOA,HDB 5 ROOM,7,BOON KENG RD,,,103.86189918155178,1.31677585
BISHAN,HDB 5 ROOM,273B,BISHAN ST 24,,,103.84347035831968,1.3560851
CLEMENTI,HDB 5 ROOM,311C,CLEMENTI AVE 4,,,103.76574775613031,1.3199674
QUEENSTOWN,HDB 5 ROOM,28,GHIM MOH LINK,,,103.7850542325032,1.30893615
QUEENSTOWN,HDB 5 ROOM,3,HOLLAND CL,,,-0.16953543438369567,51.6390631
BUKIT BATOK,HDB EXECUTIVE,289D,BUKIT BATOK ST 25,,,103.75925101424917,1.34351825
BEDOK,HDB EXECUTIVE,108,LENGKONG TIGA,,,103.9099231589536,1.3247023
WOODLANDS,HDB EXECUTIVE,835,WOODLANDS ST 83,,,103.79104789882044,1.44046985
BUKIT MERAH,HDB 5 ROOM,56,HAVELOCK RD,,,103.82898160794349,1.2901179
BUKIT MERAH,HDB 5 ROOM,74A,REDHILL RD,,,103.816317039474,1.2880105
BISHAN,HDB EXECUTIVE,451,SIN MING AVE,,,103.8390037,1.3620254
KALLANG/WHAMPOA,HDB 4 ROOM,8C,UPP BOON KENG RD,,,103.861017,1.316577
BISHAN,HDB EXECUTIVE,454,SIN MING AVE,,,103.8321247,1.360309
HOUGANG,HDB EXECUTIVE,851,HOUGANG CTRL,,,103.89368140416127,1.3701647499999998
TAMPINES,HDB EXECUTIVE,858,TAMPINES AVE 5,,,103.937899725,1.3542732
BUKIT MERAH,HDB 5 ROOM,4B,BOON TIONG RD,,,103.8312372,1.2864563
YISHUN,HDB EXECUTIVE,664,YISHUN AVE 4,,,103.84067062130987,1.4201996000000001
GEYLANG,HDB 5 ROOM,9,PINE CL,,,1.0715841029829551,51.85363655
CLEMENTI,HDB 5 ROOM,311C,CLEMENTI AVE 4,,,103.76574775613031,1.3199674
BISHAN,HDB 5 ROOM,275A,BISHAN ST 24,,,103.8433771625958,1.35673585
BISHAN,HDB 5 ROOM,273A,BISHAN ST 24,,,103.84393683957725,1.35638725
BISHAN,HDB 5 ROOM,275A,BISHAN ST 24,,,103.8433771625958,1.35673585
CENTRAL AREA,HDB 5 ROOM,1A,CANTONMENT RD,,,103.84095280047099,1.2778303
BISHAN,HDB EXECUTIVE,186,BISHAN ST 13,,,103.8522869844987,1.34940615
CENTRAL AREA,HDB 5 ROOM,1E,CANTONMENT RD,,,103.84115963216871,1.2766102
KALLANG/WHAMPOA,HDB 5 ROOM,7,BOON KENG RD,,,103.86189918155178,1.31677585
SERANGOON,HDB EXECUTIVE,317,SERANGOON AVE 2,,,103.8680585,1.3539339
TOA PAYOH,HDB 5 ROOM,139B,LOR 1A TOA PAYOH,,,103.843992,1.336714
HOUGANG,HDB EXECUTIVE,851,HOUGANG CTRL,,,103.89368140416127,1.3701647499999998
TOA PAYOH,HDB 5 ROOM,139B,LOR 1A TOA PAYOH,,,103.843992,1.336714
CENTRAL AREA,HDB 4 ROOM,1B,CANTONMENT RD,,,103.84140360852476,1.2777916500000002
KALLANG/WHAMPOA,HDB 5 ROOM,7,BOON KENG RD,,,103.86189918155178,1.31677585
BISHAN,HDB 5 ROOM,275A,BISHAN ST 24,,,103.8433771625958,1.35673585
KALLANG/WHAMPOA,HDB 5 ROOM,9,BOON KENG RD,,,103.86133085459377,1.31605155
TOA PAYOH,HDB 5 ROOM,138A,LOR 1A TOA PAYOH,,,103.845592,1.336712
BUKIT TIMAH,HDB EXECUTIVE,7,TOH YI DR,,,103.77096579006239,1.335348
QUEENSTOWN,HDB 5 ROOM,3,HOLLAND CL,,,-0.16953543438369567,51.6390631
BUKIT MERAH,HDB 4 ROOM,9A,BOON TIONG RD,,,103.8312372,1.2864563
CENTRAL AREA,HDB 5 ROOM,1B,CANTONMENT RD,,,103.84140360852476,1.2777916500000002
QUEENSTOWN,HDB 5 ROOM,28,GHIM MOH LINK,,,103.7850542325032,1.30893615
CENTRAL AREA,HDB 5 ROOM,1G,CANTONMENT RD,,,103.84130749625815,1.2755656499999999
BUKIT TIMAH,HDB EXECUTIVE,6,TOH YI DR,,,103.77536274494624,1.3377003
CENTRAL AREA,HDB 4 ROOM,1C,CANTONMENT RD,,,103.84166719999999,1.27743925
BISHAN,HDB 5 ROOM,275A,BISHAN ST 24,,,103.8433771625958,1.35673585
BISHAN,HDB 5 ROOM,275A,BISHAN ST 24,,,103.8433771625958,1.35673585
QUEENSTOWN,HDB 5 ROOM,28,GHIM MOH LINK,,,103.7850542325032,1.30893615
CLEMENTI,HDB 5 ROOM,441A,CLEMENTI AVE 3,,,103.7635208,1.3145027
QUEENSTOWN,HDB EXECUTIVE,149,MEI LING ST,,,103.8049261955866,1.29486925
KALLANG/WHAMPOA,HDB 3 ROOM,55,JLN BAHAGIA,,,103.5766547,1.4538135
BUKIT MERAH,HDB 4 ROOM,95C,HENDERSON RD,,,103.82205117375094,1.28741125
QUEENSTOWN,HDB EXECUTIVE,148,MEI LING ST,,,103.80448307932465,1.2943763
ANG MO KIO,HDB EXECUTIVE,151,ANG MO KIO AVE 5,,,103.84112121995105,1.3767260000000001
BISHAN,HDB EXECUTIVE,186,BISHAN ST 13,,,103.8522869844987,1.34940615
BISHAN,HDB EXECUTIVE,257,BISHAN ST 22,,,103.8434496,1.359469
BISHAN,HDB EXECUTIVE,441,SIN MING AVE,,,103.83205193227091,1.35919065
BISHAN,HDB EXECUTIVE,446,BRIGHT HILL DR,,,103.8332315,1.359374
BUKIT MERAH,HDB 5 ROOM,126A,KIM TIAN RD,,,103.82954689078773,1.2828631499999998
BUKIT MERAH,HDB 4 ROOM,10A,BOON TIONG RD,,,103.8312372,1.2864563
BUKIT MERAH,HDB 4 ROOM,10A,BOON TIONG RD,,,103.8312372,1.2864563
BUKIT TIMAH,HDB EXECUTIVE,2,TOH YI DR,,,103.77544139072614,1.3390216000000001
CENTRAL AREA,HDB 4 ROOM,1B,CANTONMENT RD,,,103.84140360852476,1.2777916500000002
CENTRAL AREA,HDB 4 ROOM,1E,CANTONMENT RD,,,103.84115963216871,1.2766102
CENTRAL AREA,HDB 4 ROOM,1A,CANTONMENT RD,,,103.84095280047099,1.2778303
CENTRAL AREA,HDB 4 ROOM,1B,CANTONMENT RD,,,103.84140360852476,1.2777916500000002
CENTRAL AREA,HDB 4 ROOM,1C,CANTONMENT RD,,,103.84166719999999,1.27743925
CLEMENTI,HDB 5 ROOM,311A,CLEMENTI AVE 4,,,103.7656917946758,1.3190035
KALLANG/WHAMPOA,HDB 5 ROOM,8,BOON KENG RD,,,103.861626131257,1.3164065
KALLANG/WHAMPOA,HDB 5 ROOM,7,BOON KENG RD,,,103.86189918155178,1.31677585
QUEENSTOWN,HDB 5 ROOM,86,DAWSON RD,,,103.8104373980855,1.2957434
QUEENSTOWN,HDB 5 ROOM,49,STRATHMORE AVE,,,103.80822458251313,1.2940192499999998
SERANGOON,HDB EXECUTIVE,232A,SERANGOON AVE 2,,,103.86842707771481,1.35433855
SERANGOON,HDB EXECUTIVE,232A,SERANGOON AVE 2,,,103.86842707771481,1.35433855
TOA PAYOH,HDB 5 ROOM,138C,LOR 1A TOA PAYOH,,,103.844796,1.336258
TOA PAYOH,HDB EXECUTIVE,101A,LOR 2 TOA PAYOH,,,103.847263,1.339753
TOA PAYOH,HDB 5 ROOM,138C,LOR 1A TOA PAYOH,,,103.844796,1.336258
TOA PAYOH,HDB EXECUTIVE,99C,LOR 2 TOA PAYOH,,,103.84758,1.339155
TOA PAYOH,HDB 5 ROOM,138C,LOR 1A TOA PAYOH,,,103.844796,1.336258
QUEENSTOWN,HDB 5 ROOM,86,DAWSON RD,,,103.8104373980855,1.2957434
BISHAN,HDB EXECUTIVE,186,BISHAN ST 13,,,103.8522869844987,1.34940615
TOA PAYOH,HDB 5 ROOM,154,LOR 2 TOA PAYOH,,,103.846161,1.333255
ANG MO KIO,HDB 5 ROOM,455B,ANG MO KIO ST 44,,,103.85853452668769,1.36833335
BISHAN,HDB EXECUTIVE,187,BISHAN ST 13,,,103.85135067846807,1.3497022
TOA PAYOH,HDB 5 ROOM,79C,TOA PAYOH CTRL,,,103.84857618885223,1.33461305
BUKIT MERAH,HDB 5 ROOM,25A,JLN MEMBINA,,,103.82604575339411,1.28349635
CLEMENTI,HDB 5 ROOM,425,CLEMENTI AVE 1,,,103.77133130904953,1.3096679500000001
TOA PAYOH,HDB 5 ROOM,138C,LOR 1A TOA PAYOH,,,103.844796,1.336258
ANG MO KIO,HDB 5 ROOM,455B,ANG MO KIO ST 44,,,103.85853452668769,1.36833335
BUKIT MERAH,HDB 5 ROOM,73A,REDHILL RD,,,103.81674901048444,1.28798455
TOA PAYOH,HDB EXECUTIVE,126,POTONG PASIR AVE 1,,,103.86526236623472,1.33495375
CENTRAL AREA,HDB 4 ROOM,1F,CANTONMENT RD,,,103.84120937106636,1.2759757
KALLANG/WHAMPOA,HDB 4 ROOM,10A,BENDEMEER RD,,,103.86063151014403,1.31507315
YISHUN,HDB EXECUTIVE,608,YISHUN ST 61,,,103.8377545,1.4204777
BUKIT MERAH,HDB 5 ROOM,115,BT PURMEI RD,,,103.826904,1.275306
SERANGOON,HDB EXECUTIVE,319,SERANGOON AVE 2,,,103.86811868277891,1.3525743000000001
BUKIT MERAH,HDB 5 ROOM,63A,LENGKOK BAHRU,,,103.81528548126079,1.28970785
KALLANG/WHAMPOA,HDB 5 ROOM,38A,BENDEMEER RD,,,103.86684551782841,1.3201502
KALLANG/WHAMPOA,HDB EXECUTIVE,46,BENDEMEER RD,,,103.86602064317196,1.3229285
WOODLANDS,HDB EXECUTIVE,307,WOODLANDS AVE 1,,,103.77643603002265,1.4294309
ANG MO KIO,HDB 5 ROOM,455A,ANG MO KIO ST 44,,,103.85754896424143,1.3681798
BUKIT MERAH,HDB 5 ROOM,20,JLN MEMBINA,,,103.8256617,1.2855981
BUKIT MERAH,HDB 5 ROOM,75B,REDHILL RD,,,103.81595171854067,1.288482
TOA PAYOH,HDB 5 ROOM,145,LOR 2 TOA PAYOH,,,103.846142,1.335217
CENTRAL AREA,HDB 4 ROOM,1A,CANTONMENT RD,,,103.84095280047099,1.2778303
WOODLANDS,HDB EXECUTIVE,404,WOODLANDS ST 41,,,103.77226555,1.4303618
ANG MO KIO,HDB 5 ROOM,260B,ANG MO KIO ST 21,,,103.8338372238754,1.36895025
JURONG EAST,HDB EXECUTIVE,287D,JURONG EAST ST 21,,,103.7441196416888,1.3378564499999999
BEDOK,HDB EXECUTIVE,633,BEDOK RESERVOIR RD,,,103.90521598833682,1.3304629000000001
KALLANG/WHAMPOA,HDB 4 ROOM,10B,BENDEMEER RD,,,103.86020990698296,1.3155904
GEYLANG,HDB 5 ROOM,30,CASSIA CRES,,,103.88354430000001,1.3097105
JURONG EAST,HDB EXECUTIVE,287B,JURONG EAST ST 21,,,103.74445354916035,1.3383444500000001
BUKIT MERAH,HDB 4 ROOM,10B,BOON TIONG RD,,,103.8312372,1.2864563
TOA PAYOH,HDB 4 ROOM,138A,LOR 1A TOA PAYOH,,,103.845592,1.336712
TOA PAYOH,HDB 5 ROOM,122,LOR 2 TOA PAYOH,,,103.84635,1.33987
BUKIT MERAH,HDB 4 ROOM,9A,BOON TIONG RD,,,103.8312372,1.2864563
CENTRAL AREA,HDB 4 ROOM,1F,CANTONMENT RD,,,103.84120937106636,1.2759757
TOA PAYOH,HDB 4 ROOM,130B,LOR 1 TOA PAYOH,,,103.842595,1.337456
BEDOK,HDB 5 ROOM,747B,BEDOK RESERVOIR CRES,,,103.92161105080501,1.3366405000000001
BUKIT MERAH,HDB 4 ROOM,4B,BOON TIONG RD,,,103.8312372,1.2864563
CLEMENTI,HDB 5 ROOM,114,CLEMENTI ST 13,,,103.77054803625042,1.32392005
KALLANG/WHAMPOA,HDB EXECUTIVE,48,BENDEMEER RD,,,103.86625007702727,1.32329165
MARINE PARADE,HDB 5 ROOM,27,MARINE CRES,,,103.91350899939656,1.3040451499999999
PASIR RIS,HDB EXECUTIVE,537,PASIR RIS ST 51,,,103.94968594262403,1.3697968999999999
QUEENSTOWN,HDB 4 ROOM,91,DAWSON RD,,,103.81259075967662,1.29535175
WOODLANDS,HDB EXECUTIVE,307,WOODLANDS AVE 1,,,103.77643603002265,1.4294309
BEDOK,HDB EXECUTIVE,665,JLN DAMAI,,,103.90812306443013,1.33412555
MARINE PARADE,HDB 5 ROOM,77,MARINE DR,,,-123.5397189,48.6902602
TOA PAYOH,HDB 4 ROOM,131B,LOR 1 TOA PAYOH,,,103.842848,1.338386
CLEMENTI,HDB 5 ROOM,425,CLEMENTI AVE 1,,,103.77133130904953,1.3096679500000001
PASIR RIS,HDB EXECUTIVE,601,ELIAS RD,,,103.94339306911866,1.37770445
GEYLANG,HDB 5 ROOM,39,JLN TIGA,,,103.88501348560102,1.30780915
KALLANG/WHAMPOA,HDB 5 ROOM,7,BOON KENG RD,,,103.86189918155178,1.31677585
MARINE PARADE,HDB 5 ROOM,13,MARINE TER,,,147.33776458943856,-42.8914766
QUEENSTOWN,HDB 4 ROOM,29,GHIM MOH LINK,,,103.78421974813246,1.3086386499999998
TAMPINES,HDB 5 ROOM,519D,TAMPINES CTRL 8,,,103.93959447493279,1.3561960499999999
